remoteId;published;modified;Titolo;"Titolo breve";Sottotitolo;Descrizione;Testo;Inizio;Termine;Durata;Quando;Orario;Dove;Location;Informazioni;Destinatari;Costi;Stato;Tipologia;Materia;"Tipo evento";Immagine;"Manifestazione collegata (numero)";"Manifestazione collegata (testo)";Manifestazione;Associazione;"Immagine correlata";Progressivo;Link;Comune;lat;lon;address;Fonte
aff9222b4eaeb5be90cab39070d0e4d2;2017-04-10T11:52:00+02:00;2017-04-10T12:05:02+02:00;"Progetto ""Storie di Opportunità""";;;;"http://www.comunitavalledisole.tn.it/content/download/201838/2989733/1/LOCANDINA P.O SFUMATA.pdf";2017-04-10T11:52:00+02:00;2017-04-22T20:30:00+02:00;;;;;interno;;;;;;;;;0;;;;;;https://m.youtube.com/watch?v=hnc6DnKZYcQ;;0;0;;
2a21939abfbbbe250e6e0c1c5983ec51;2017-04-10T11:11:00+02:00;2017-04-10T11:15:11+02:00;"L'accoglienza familiare";;;"Informazioni e testimonianze per promuovere l’accoglienza in famiglia";"http://www.comunitavalledisole.tn.it/content/download/201837/2989703/1/locandina L'accoglienza familiare - Progetto 92 - 2017.pdf";2017-04-10T11:11:00+02:00;2017-04-21T20:00:00+02:00;;;;;interno;;;;;;;;;0;;;;;;;;0;0;;
7988f1e4e9b04974e9bff14c054db4c0;2018-07-17T20:30:00+02:00;2018-07-09T15:47:59+02:00;"IL MONDO NASCOSTO DEI PIPISTRELLI  (CONSEGNA BAT BOX) ";;;"Con Claudio Torbole e il MUSE scopriremo l’incredibile mondo dei pipistrelli in Val di Sole e di come ognuno di noi può aiutarli. Durante la serata sarà consegnata a chi ne farà richiesta tramite l’apposito modulo la BAT BOX, un nido per pipistrelli, costruito dalla cooperativa Kaleidoscopio. *  www.ilmondonascosto.com Per richiedere gratuitamente una Bat Box compila e spedisci il modulo allegato.

    Modulo Bat Box
";"http://www.comunitavalledisole.tn.it/content/download/203126/3001721/5/pat box.jpg";2018-07-17T20:30:00+02:00;2018-07-17T23:00:00+02:00;;"17 luglio 2018";20.30;"Presso la sede della Comunità Valle di Sole";interno;;;;;;;;/var/comunitavaldisole/storage/images/la-comunita/comunicazione/eventi-e-manifestazioni/il-mondo-nascosto-dei-pipistrelli-consegna-bat-box/3001736-2-ita-IT/IL-MONDO-NASCOSTO-DEI-PIPISTRELLI-CONSEGNA-BAT-BOX.jpg;0;;;;;;;;0;0;;
752160fd9f0cb8fe3f0182bcc68800cf;2018-07-17T08:42:00+02:00;2018-07-17T09:16:38+02:00;"FIGURE DI UNA VALLE: 10 PERSONAGGI SOLANDRI!";;;"
Il Centro Studi per la Val di Sole è lieto di invitarti all'ULTIMO INCONTRO dell'iniziativa  FIGURE DI UNA VALLE: 10 PERSONAGGI SOLANDRI!Dopo la serata dedicata a Tomaso Vigilio Bottea, si propone un appuntamento sulla figura di GIUSEPPE MELCHIORE RAMPONI (1744-1790), medico, che avrà luogo presso il Ristorante &quot;Conte Ramponi&quot; di Magras GIOVEDì 19 LUGLIO 2018 ore 19.00ORE  20.30 CENA a carico dei partecipanti, prenotazione entro Martedì 17 Luglio 2018";;2018-07-17T08:42:00+02:00;2018-07-20T00:00:00+02:00;;"19 luglio 2018";"ore 19.00 ";"presso il Ristorante ""Conte Ramponi"" di Magras";interno;;;;;;;;/var/comunitavaldisole/storage/images/la-comunita/comunicazione/eventi-e-manifestazioni/figure-di-una-valle-10-personaggi-solandri2/3003579-1-ita-IT/FIGURE-DI-UNA-VALLE-10-PERSONAGGI-SOLANDRI.jpg;0;;;;;;;;0;0;;
953ff5571fda9c3eb9849c52801d80ca;2018-07-16T11:34:00+02:00;2018-07-23T13:23:23+02:00;"Mostra fotografica ""Magie della natura in Val di Sole""";;;"&quot;Magie della natura in Val di Sole&quot;, racconti fotografici di Nicola  Angeli, che descrivono momenti di vita in montagna dettati dal ritmico alternarsi delle stagioni.";;2018-07-16T11:34:00+02:00;2018-09-01T00:00:00+02:00;"dal 3 agosto al 31 agosto 2018";"dal lunedì al venerdì";"apertura orario d'ufficio";"presso la Comunità della Valle di Sole Malè 1° piano sala Assemblee";interno;;;"ingresso libero";;"Mostra fotografica";;;/var/comunitavaldisole/storage/images/la-comunita/comunicazione/eventi-e-manifestazioni/mostra-fotografica-magie-della-natura-in-val-di-sole/3003549-5-ita-IT/Mostra-fotografica-Magie-della-natura-in-Val-di-Sole.jpg;0;;;;;;;;0;0;;
e6ea844596815108de601b60bb426c90;2018-07-13T10:35:00+02:00;2018-07-13T10:45:39+02:00;"Concerto in memoria dei caduti della Grande Guerra";;;"Il Centro Studi per la Val di Sole vi invita a prendere parte a una preghiera rivolta a tutti coloro che rimasero feriti e caduti su entrambi i fronti della prima guerra mondiale. ";"http://www.comunitavalledisole.tn.it/content/download/203335/3003329/3/CONCERTO PER TUTTI I CADUTI. locandina Stabat Mater.pdf";2018-07-13T10:35:00+02:00;2018-07-16T00:00:00+02:00;;"15 luglio 2018";"ore 21,00";"Chiesa della Natività di Maria Pellizzano";esterno;;;;;;;"Concerto in memoria dei caduti della Grande Guerra";;0;;;;;;;;0;0;;
355bc67021ad58c7aa2270156218f809;2018-06-14T09:08:00+02:00;2018-06-14T09:27:28+02:00;"Portale memoria";;;"
Presentazione dei CONTENUTI e delle PROSPETTIVE future della piattaforma informatica unica per le associazioni e gli enti delle Valli del Noce che operano in campo storico, culturale, linguistico e territoriale. Progetto che nasce dalla collaborazione tra il Centro Studi per la Val di Sole, l'Associazione &quot;El Brenz&quot;, e l'Associazione Mulino Ruatti, ed è stato realizzato grazie al contributo del GAL Val di Sole - Progetto Leader. ";;2018-06-14T09:08:00+02:00;2018-06-16T00:00:00+02:00;;"sabato 16 giugno ";"ore 20.30 ";"Museo della Civiltà Solandra a Malé";interno;;;;;;;;/var/comunitavaldisole/storage/images/la-comunita/comunicazione/eventi-e-manifestazioni/portale-memoria/3002321-1-ita-IT/Portale-memoria.jpg;0;;;;;;;;0;0;;
824fffa31e651a047483baf09e324ee3;2018-06-14T08:43:00+02:00;2018-06-14T09:07:44+02:00;"Ricordi di luce";;;"Presentazione della pubblicazione edita dal Centro Studi e in distribuzione ai Soci &quot;RICORDI DI LUCE - IMMAGINI DELL'ARCHIVIO FOTOGRAFICO STORICO DEL CENTRO STUDI PER LA VAL DI SOLE&quot;, cartella che raccoglie 12 scatti selezionati da Romina Zanon e provenienti dall'Archivio Fotografico del Centro Studi per la Val di Sole.";;2018-06-14T08:43:00+02:00;2018-06-16T06:30:00+02:00;;"venerdì 15 giugno";"ore 20.30";"Mulino Ruatti a Pracorno di Rabbi";interno;;;;;;;;/var/comunitavaldisole/storage/images/la-comunita/comunicazione/eventi-e-manifestazioni/ricordi-di-luce/3002291-1-ita-IT/Ricordi-di-luce.jpg;0;;;;;;;;0;0;;
0e41b58944c1c4dea2847dfc701cfafb;2018-06-12T12:02:00+02:00;2018-06-12T12:25:06+02:00;"Figure di una Valle:10 personaggi solandri";;;"Dopo la serata dedicata a Bruno Kessler, si propone un appuntamento sulla figura di  Antonio Bontempelli (1824-1896), avvocato e fondatore della Casa di Riposo, che avrà luogo GIOVEDì 14 GIUGNO 2018 ore 20.30 presso Sala Riunioni della Casa di Riposo a Pellizzano.Interverranno Salvatore Ferrari, Nicola Gallina, Silvano Gallina, Lorenzo Pedergnan";;2018-06-12T12:02:00+02:00;2018-06-15T12:30:00+02:00;;" GIOVEDì 14 GIUGNO 2018 ";"ore 20.30 ";"Sala Riunioni della Casa di Riposo a Pellizzano.";interno;;;;;;;;/var/comunitavaldisole/storage/images/la-comunita/comunicazione/eventi-e-manifestazioni/figure-di-una-valle-10-personaggi-solandri/3002209-1-ita-IT/Figure-di-una-Valle-10-personaggi-solandri.jpg;0;;;;;;;;0;0;;
5d72a5f83afc23500ffa37f3b0ac56d4;2018-06-05T20:00:00+02:00;2018-05-25T12:18:23+02:00;"IL POLIGONO DEL GIAPPONE E ALTRE SPECIE INVASIVE: COME COMBATTERLE?";;;"Incontro di informazione sulla diffusione della pianta aliena “poligono del Giappone” che sta invadendo non solo i greti dei nostri fiumi sostituendosi a salici e ontani ma anche i giardini di casa e i prati.Alessandro Cavagna ci presenterà le caratteristiche di questa ed altre specie invasive e spiegherà gli accorgimenti da adottare per evitare la sua ulteriore avanzata.";;2018-06-05T20:00:00+02:00;2018-06-05T23:00:00+02:00;;"05 giugno 2018";"20.30 ";"Presso la sede della Comunità Valle di Sole";interno;;;;;;;;/var/comunitavaldisole/storage/images/la-comunita/comunicazione/eventi-e-manifestazioni/il-poligono-del-giappone-e-altre-specie-invasive-come-combatterle/3001676-5-ita-IT/IL-POLIGONO-DEL-GIAPPONE-E-ALTRE-SPECIE-INVASIVE-COME-COMBATTERLE.png;0;;;;;;;;0;0;;
bfbdbacc680f4d0739fade54b403a1b8;2018-05-29T18:00:00+02:00;2018-05-28T15:02:14+02:00;"I MONITORAGGI DI RETE NATURA 2000";;;"In occasione della settimana europea in cui si celebra Rete Natura 2000, il Servizio Sviluppo sostenibile e aree protette della Provincia autonoma di Trento, in collaborazione con il MUSE e la fondazione Museo Civico di Rovereto, invita la cittadinanza ad una serata di presentazione della iniziative di monitoraggio di habitat e specie Natura 2000 volte a valutarne lo stato di conservazione nel territorio provinciale.L' evento sarà l'occasione per illustrare il piano dei monitoraggi, le metolologie ed i primi risultati relativi alla indagini in corso.";;2018-05-29T18:00:00+02:00;2018-05-29T19:30:00+02:00;;"29 maggio 2018";"18.00 - 19.30";"Sala conferenze - Muse delle scienze MUSE -Trento";interno;;;"ingresso libero";;;;;;0;;;;;;;;0;0;;
b570f9901b964aae6be30f5648bf339a;2018-04-17T20:00:00+02:00;2018-04-12T12:22:53+02:00;"Interventi pubblici a sostegno degli studi universitari organizzato dalla P.A.T.";;;;http://www.comunitavalledisole.tn.it/content/download/203023/3000937/1/UNIVERSITà.pdf;2018-04-17T20:00:00+02:00;2018-04-17T21:30:00+02:00;;17/04/2018;20.00;"Comunità della Valle di Sole";interno;;;;;;;;/var/comunitavaldisole/storage/images/la-comunita/comunicazione/eventi-e-manifestazioni/interventi-pubblici-a-sostegno-degli-studi-universitari-organizzato-dalla-p.a.t/3000952-1-ita-IT/Interventi-pubblici-a-sostegno-degli-studi-universitari-organizzato-dalla-P.A.T.jpg;0;;;;;;;;0;0;;
7436b6084b86048b71139edb6d39babc;2019-03-11T13:40:00+01:00;2019-03-11T13:46:11+01:00;"Corso per apicoltori principianti";;;"L’Associazione Apicoltori Trentini intende promuovere un corso base di apicoltura rivolto a tutti gli appassionati e/o principianti.All’interno del corso è prevista una visita guidata in apiario con un apicoltore professionista.La quota di partecipazione, pari ad euro 70,00 dovrà essere versata sul conto corrente dell’associazione indicato nel modulo d’iscrizione. Ai partecipanti del corso sarà rilasciato il Manuale per l’Apicoltore. ll corso è riservato ad un numero massimo di 20 partecipanti.Il modulo di prenotazione, obbligatorio per la partecipazione, dovrà pervenire presso la Segreteria dell’Associazione Apicoltori Trentini entro e non oltre lunedì 18 marzo 2019 tramite l’indirizzo e-mail info@apitrentine.it

    Programma del corso


    Modulo di iscrizione
";;2019-03-11T13:40:00+01:00;2019-03-18T23:59:00+01:00;;;;Cles;interno;;;"70,00 €";;;;;;0;;;;;;;;0;0;;
3008443f1d073ed6999b6836361eaa98;2019-02-20T11:19:00+01:00;2019-02-20T11:35:51+01:00;"Nel mondo della Musica";;"Spettacolo musicale";"Le più belle canzoni dagli anni '70 ad oggi.Domenica 10 marzo 2019, ore 20:45, presso il Teatro di Dimaro.Spettacolo musicale a cura del G.G. Strade Aperte - con la partecipazione di Lorenzo Muzzi, Sara Perego e Sara Bordati Daldoss.";http://www.comunitavalledisole.tn.it/content/download/203919/3007681/1/doc_20190220113637.pdf;2019-02-20T11:19:00+01:00;2019-03-11T01:00:00+01:00;;"Domenica 10 marzo 2019";20:45;"Teatro di Dimaro";interno;;;"Ingresso ad offerta libera";;;;"Spettacolo musicale";/var/comunitavaldisole/storage/images/la-comunita/comunicazione/eventi-e-manifestazioni/nel-mondo-della-musica/3007696-1-ita-IT/Nel-mondo-della-Musica.png;0;;;;;;;;0;0;;
b30c865ccf29b0820b321b221430aeaa;2019-01-25T08:40:00+01:00;2019-01-25T08:40:09+01:00;"Corso di potatura e innesto";;"Corso teorico e pratico di quattro incontri finalizzato al recupero di vecchie piante da frutto.";"CORSO DI POTATURA E INNESTO, rivolto a tutti coloro che intendono acquisire nozioni tecnico-pratiche, finalizzate al recupero di vecchie piante da frutto.Organizzatori: La Pimpinella, associazione per la tutela della biodiversità agricola; associazione Strada della Mela e dei Sapori delle Valli di Non e Sole.Di seguito i dettagli:TEORIA POTATURARonzone – Municipio (sala consiglio) Venerdì 15 febbraio ore 20.00TEORIA INNESTI Ronzone – Municipio (sala consiglio) Venerdì 22 febbraio ore 20.00PRATICA POTATURA Ronzone (mattina)  – Frutteto storico di Cles (pomeriggio)Sabato 2 marzo, 9.00 – 12.00 / 13.30 - 16.30 PRATICA INNESTIRonzone – MunicipioDomenica 10 marzo, 9.00 - 12.30 / 14.00 - 17.30 Quota d'iscrizione: € 20 / € 10 (per under 25) + € 15 tesseramento 2019 La PimpinellaIl tesseramento è obbligatorio. Il costo copre anche l'assicurazione.Per i soci de La Pimpinella in regola con il pagamento della quota 2019: quota d'iscrizione € 20 / € 10 (per under 25)Numero minimo partecipanti: 25 - numero massimo: 50Iscrizioni entro il 7 febbraio 2019Scrivere a info@lapimpinella.org oppure info@stradadellamela.it(indicando nome, cognome e telefono)";;2019-01-25T08:40:00+01:00;2019-03-10T17:30:00+01:00;;"15 febbraio, 22 febbraio, 2 marzo, 10 marzo";;"Ronzone, Cles";interno;;"Tutti coloro che intendono acquisire nozioni tecnico-pratiche finalizzate al recupero di vecchie piante da frutto.";"€ 20 / € 10 (per under 25) + € 15 tesseramento 2019 La Pimpinella";;;Agricoltura;"Corso teorico e pratico";/var/comunitavaldisole/storage/images/la-comunita/comunicazione/eventi-e-manifestazioni/corso-di-potatura-e-innesto/3007441-1-ita-IT/Corso-di-potatura-e-innesto.jpg;0;;;;;;;;0;0;;
8bd35b09a98ad1cbced3da8e13d2e3a4;2018-12-14T12:03:00+01:00;2018-12-14T12:12:11+01:00;" Evento speciale dedicato al Parco Fluviale Alto Noce - Tre anni di attività con protagonisti l’acqua e le persone";;"Si tratta di una conferenza-spettacolo, dal titolo “Parco Fluviale Alto Noce. Un mondo d’acqua e di persone”, durante la quale, con ospiti, immagini e musica, si farà un vero e proprio viaggio alla scoperta delle bellezze naturali del Parco, delle attività che ha svolto nei tre anni di vita e del profondo rapporto che esiste tra gli abitanti della Val di Sole e il fiume Noce.";"Durante la serata, che vedrà tra gli altri la partecipazione del Gruppo di ginnastica acrobatica della Valle del Noce e della cantante Anna Maria Bertuzzi, sarà sottoscritta, alla presenza dell’assessore provinciale all’Ambiente, Mario Tonina, dagli enti e dai sindaci dei comuni interessati la proroga dell’Accordo di programma del Parco.Saranno inoltre presentati al pubblico tre recenti lavori realizzati dal Parco: il libro dal titolo “Viaggio lungo il Noce in Val di Sole, Storia e storie di un fiume”, l'opuscolo &quot;H2Noce la parola dei bambini&quot; che racconta il progetto didattico realizzato nel 2018 dalle Scuole dell'Infanzia della Val di Sole e il video “Parco Fluviale Alto Noce. Un mondo d’acqua e di persone”.Il libro, promosso oltre che dal Parco anche dalla Comunità della Val di Sole, è nato grazie alla collaborazione tra esperti di diverse discipline, con contributi che spaziano dalle principali informazioni di ordine naturalistico, curate da Alessio Andreis, a quelle di storia della cultura, scritte da Alberto Mosca e di storia economica legate all’ambiente fluviale, di cui di è occupata Luisa Guerri. A questi contributi si aggiungono tre suggestive cronache fotografiche di esplorazioni a piedi alle due sorgenti del Noce (Noce Bianco e Noce Nero) e in bicicletta lungo i trentacinque chilometri di pista ciclabile, a cura di Alessandro Ghezzer. L’introduzione del volume, un racconto sugli obiettivi e sulle azioni compiute dal Parco nei suoi primi tre anni di vita, è stata curata, invece, dalla coordinatrice del Parco, Laura Marinelli.«L’obiettivo di questa pubblicazione – ha spiegato il presidente del Parco Fluviale Alto Noce, Alessandro Fantelli – è di condurre il lettore alla scoperta, o anche riscoperta, degli angoli più affascinanti dello straordinario ecosistema fluviale del nostro territorio, patrimonio fragile e insostituibile della Val di Sole e dei suoi  abitanti, da preservare con orgoglio, competenza e rispetto, a vantaggio delle future generazioni. Obiettivo che abbiamo voluto perseguire anche attraverso il video, nel quale raccontiamo oltre ad alcune delle attività realizzate dal Parco, il profondo rapporto tra gli abitanti della Val di Sole e l’acqua che, con i suoi numerosi torrenti che hanno modellato il territorio, hanno  contribuito a scrivere la nostra storia, passata e recente, fatta di vita, ma anche di eventi drammatici come quello che ha colpito a fine ottobre Dimaro. Acqua che continua comunque a scorrere, come la vita, e che ci porta a guardare avanti con determinazione, rispetto per la natura e speranza».

    Locandina
";;2018-12-14T12:03:00+01:00;2018-12-22T00:00:00+01:00;;"Venerdì 21 dicembre";"ore 20.30";"Teatro di Dimaro";interno;;;"ingresso libero";;;;;/var/comunitavaldisole/storage/images/la-comunita/comunicazione/eventi-e-manifestazioni/evento-speciale-dedicato-al-parco-fluviale-alto-noce-tre-anni-di-attivita-con-protagonisti-l-acqua-e-le-persone/3006808-1-ita-IT/Evento-speciale-dedicato-al-Parco-Fluviale-Alto-Noce-Tre-anni-di-attivita-con-protagonisti-l-acqua-e-le-persone.jpg;0;;;;;;;;0;0;;
2a5bb95446201f18564d0b1f5b94ddce;2018-12-10T14:48:00+01:00;2018-12-10T14:55:49+01:00;"Vespa Velutina";;"Imparare a conoscerla per poterla contrastare.Iniziativa finanziata dal Programma di Sviluppo Rurale per la Provincia Autonoma di Trento 2014-2020 Organismo responsabile dell’informazione: Comunità della Valle di Sole.";"Autorità di gestione: Provincia Autonoma di Trento Servizio Politiche Sviluppo Rurale.Info e bandi: www.psr.provincia.tn.it; M07.6.1.A Alto Noce A Bugs Life– amici a sei zampe.

    Locandina
";;2018-12-10T14:48:00+01:00;2018-12-15T00:00:00+01:00;;"venerdì 14 dicembre 2018";20.30;"Sala conferenze della Cassa Rurale Val di Sole Malé";interno;;;;;;;;/var/comunitavaldisole/storage/images/la-comunita/comunicazione/eventi-e-manifestazioni/vespa-velutina/3006774-2-ita-IT/Vespa-Velutina.jpg;0;;;;;;;;0;0;;
ed36722cd08df62ed0e98930dfc9d7fc;2018-11-29T09:05:00+01:00;2018-12-10T14:46:32+01:00;"Progetto dipende da noi!";;"&quot;Dipendenti dalla Rete&quot; le nuove dipendenze: smartphone, internet, videogiochi e gioco d'azzardo online.

    Locandina appuntamenti
";;;2018-11-29T09:05:00+01:00;2018-12-20T00:00:00+01:00;;"lunedì 10 dicembre 2018";20.30;"Pellizzano Sala comunale";interno;;;"entrata libera";;;"Incontro ""Non ti scordar di te!"" che fa parte del progetto ""Dipende da Noi!"".";;/var/comunitavaldisole/storage/images/la-comunita/comunicazione/eventi-e-manifestazioni/progetto-dipende-da-noi/3006610-5-ita-IT/Progetto-dipende-da-noi.jpg;0;;;;;;;;0;0;;
7d92ee394fcfd50dbc4ecfc632fa7887;2018-11-19T12:01:00+01:00;2018-11-20T14:35:24+01:00;"Giornata internazionale contro la violenza sulle donne";;;"in occasione della giornata internazionale contro la violenza sulle donne la Comunità  in collaborazione con i Comuni della Valle di Sole organizza per martedì 27 novembre presso il  Teatro di Dimaro alle ore 20.30, l'incontro con la psicologa SARAH CAROZZINI per una conversazione e la presentazione del suo libro &quot; LUNA DI ZUCCHERO&quot;.Intermezzi musicali di Muzzi Lorenzo e Ilary Bontempelli

    LOCANDINA
";"http://www.comunitavalledisole.tn.it/content/download/203712/3006399/2/LOCANDINA GIORNATA VIOLENZA 2018 - LIBRO e rosa-1.pdf";2018-11-19T12:01:00+01:00;2018-11-28T00:00:00+01:00;;"27 novembre 2018";20.30;"Teatro di Dimaro";interno;;;;;;;;/var/comunitavaldisole/storage/images/la-comunita/comunicazione/eventi-e-manifestazioni/giornata-internazionale-contro-la-violenza-sulle-donne/3006414-1-ita-IT/Giornata-internazionale-contro-la-violenza-sulle-donne.jpg;0;;;;;;;;0;0;;
d5bd074914fe91f453f76fbd7e4a7286;2018-11-10T18:00:00+01:00;2018-10-31T11:49:52+01:00;"Presentazione tesi di laurea 2018 - Enhancement and ITC. A cultural Itinerary of the Churches in Val di Peio. Di Cristina Meneghini";;;"Presentazione tesi di laurea 2018 - Secondo incontro
SABATO 10 NOVEMBRE  2018
ore 18.00
Terzolas, presso le sale della BIBLIOTECA STORICA DEL CENTRO STUDI
secondo piano Palazzo della Torraccia 
Enhancement and ITC. A cultural Itinerary of the Churches in
Val di Peio 
di Cristina MeneghiniIntervengono con l’autore Fabio Sacco e Mauro Pancheri";"http://www.comunitavalledisole.tn.it/content/download/203644/3005911/1/tesi laurea novembre 2018.pdf";2018-11-10T18:00:00+01:00;2018-11-10T20:00:00+01:00;;"10 novembre 2018";18.00;"Terzolas, presso le sale della BIBLIOTECA DEL CENTRO STUDI, secondo piano Palazzo della Torraccia";interno;;;Gratuito;;;;;/var/comunitavaldisole/storage/images/la-comunita/comunicazione/eventi-e-manifestazioni/presentazione-tesi-di-laurea-2018-enhancement-and-itc.-a-cultural-itinerary-of-the-churches-in-val-di-peio.-di-cristina-meneghini/3005926-1-ita-IT/Presentazione-tesi-di-laurea-2018-Enhancement-and-ITC.-A-cultural-Itinerary-of-the-Churches-in-Val-di-Peio.-Di-Cristina-Meneghini.jpg;0;;;;;;;;0;0;;
8c22b750d412046d24a7f174929e25cf;2018-11-07T10:41:00+01:00;2018-11-07T11:13:36+01:00;"Le donne della diga - Spettacolo teatrale ";;"Il mondo del lavoro maschile, visto con la sensibilità dello sguardo femminile.Uno sguardo nel vissuto straordinario di donne e uomini che silenziosamente, con orgoglio, tenacia e coraggio hanno contribuito con il loro sacrificio alla realizzazione dele imponenti opere idroelettriche della Val di Peio, sostenendo lo sviluppo industriale italiano, per poi essere tristemente dimenticati.";"Spettacolo teatrale Di acqua e di pietra Epopea delle dighe in Val di Pejo";http://www.comunitavalledisole.tn.it/content/download/203650/3005986/4/IMG_locandina.jpg;2018-11-07T10:41:00+01:00;2018-11-18T00:00:00+01:00;;"17 novembre 2018";20.30;"Cogolo di Pejo Chiesa Nuova";interno;;;;;;;;/var/comunitavaldisole/storage/images/la-comunita/comunicazione/eventi-e-manifestazioni/le-donne-della-diga-spettacolo-teatrale/3006001-1-ita-IT/Le-donne-della-diga-Spettacolo-teatrale.jpg;0;;;;;;;;0;0;;
726ef6472afeee6718b31e78a3a18217;2018-11-06T20:30:00+01:00;2018-05-25T12:06:33+02:00;"CONTAMINANTI EMERGENTI: I NUOVI INQUINANTI DEL FIUME NOCE ";;;"Valeria Lencioni del MUSE ci racconterà quali nuovi inquinanti (disinfettanti e altre nuove sostanze chimiche) trovate nel torrente Presena in Val di Sole. Questo fa parte dei risultati della sua ricerca RACE-TN (2015-2018) co-finanziata dalla Fondazione Cassa di Risparmio di Trento e Rovereto.  www.ilmondonascosto.com";;2018-11-06T20:30:00+01:00;2018-11-06T23:30:00+01:00;;"6 novembre 2018";20.30;"Presso la sede della Comunità della Valle di Sole";interno;;;;;;;;;0;;;;;;;;0;0;;
ea1ac682067882be80afa2b4519ca6cb;2018-11-03T18:00:00+01:00;2018-10-31T11:51:14+01:00;"Presentazione tesi di laurea 2018 - Studio floristico e progettazione didattica di un sentiero naturalistico presso il bosco della Derniga (TN). Di Gianni Zanella";;;"Presentazione tesi di laurea 2018 - Primo incontro
SABATO 3 NOVEMBREORE 18.00 
Terzolas, presso le sale della BIBLIOTECA DEL CENTRO STUDI
secondo piano Palazzo della Torraccia
Studio floristico e progettazione didattica di un sentiero naturalistico 
presso il bosco della Derniga (TN)  
di Gianni Zanella  Intervengono con l'autore Anna Benedetti e Luisa Guerri";"http://www.comunitavalledisole.tn.it/content/download/203643/3005881/2/tesi laurea novembre 2018.pdf";2018-11-03T18:00:00+01:00;2018-11-03T20:00:00+01:00;;"03 novembre 2018";18.00;"Terzolas, presso le sale della BIBLIOTECA DEL CENTRO STUDI, secondo piano Palazzo della Torraccia";interno;;;Gratuito;;;;;/var/comunitavaldisole/storage/images/la-comunita/comunicazione/eventi-e-manifestazioni/presentazione-tesi-di-laurea-2018-studio-floristico-e-progettazione-didattica-di-un-sentiero-naturalistico-presso-il-bosco-della-derniga-tn-.-di-gianni-zanella/3005896-1-ita-IT/Presentazione-tesi-di-laurea-2018-Studio-floristico-e-progettazione-didattica-di-un-sentiero-naturalistico-presso-il-bosco-della-Derniga-TN-.-Di-Gianni-Zanella.jpg;0;;;;;;;;0;0;;
ff128aa2ce96d7e25ab6080693279fdf;2018-10-10T11:46:00+02:00;2018-10-11T12:28:21+02:00;"4^ Settimana dell'accoglienza";;;"ACCOGLIERE! uno sguardo all'altro, percorso di avvicinamento all'accoglienza familiare

    volantino Porte aperte
";"http://www.comunitavalledisole.tn.it/content/download/203576/3005216/3/Poster A3 - Porte aperte! - 2018.pdf";2018-10-10T11:46:00+02:00;2018-10-30T00:00:00+01:00;;"15, 22 e 29 ottobre 2018";20,30;"Sala Polifunzionale del Comune di Commezzadura";interno;;;;;;;;;0;;;;;;;;0;0;;
1f5d06109a30da787b553017aaed5e67;2018-10-02T20:30:00+02:00;2018-05-25T12:22:47+02:00;"IL RITORNO DEL LUPO";;;"Con il gruppo GRANDI CARNIVORI del Servizio Foreste e Fauna scopriremo i segreti e le abitudini del lupo e rifletteremo sulle opportunità e le problematiche del suo ritorno in Trentino";;2018-10-02T20:30:00+02:00;2018-10-02T23:30:00+02:00;;"2 ottobre 2018";20.30;"Presso la Comunità della Valle di Sole";interno;;;;;;;;/var/comunitavaldisole/storage/images/la-comunita/comunicazione/eventi-e-manifestazioni/il-ritorno-del-lupo/3001886-2-ita-IT/IL-RITORNO-DEL-LUPO.jpg;0;;;;;;;;0;0;;
9b1eb308ab0a9bc5e1b7dff66d550f4a;2018-09-18T11:33:00+02:00;2018-09-18T11:38:11+02:00;" IMMAGINI DI VITA - IMMAGINI DI STORIA";;"Siete tutti invitati all'appuntamento dal titolo IMMAGINI DI VITA - IMMAGINI DI STORIA organizzato dal Comune e dalla Biblioteca Pubblica di Dimaro Folgarida in cui sarà presentata la pubblicazione fotografica &quot;Ricordi di luce: immagini dell'Archivio fotografico storico del Centro Studi&quot;.";"
L'iniziativa è fissata per 
 
  GIOVEDI' 20 SETTEMBRE, A DIMARO  ALLE ORE 17.30  nella tendostruttura allestita in piazza Madonna della Pace (davanti alla Biblioteca Comunale). 
L'opera &quot;Ricordi di luce&quot; è stata pubblicata nelle edizioni Centro Studi per la Val di Sole. Sarà presentata dalla curatrice della stessa Romina Zanon che verrà introdotta da Michele Bezzi.
A seguire, sempre nella tendostruttura, il fotografo Giordano Mosconi, introdotto da Luciano Ramponi, presenterà la sua prima pubblicazione dal titolo &quot;Madre Natura m'insegna a vivere. Madre Natura mi insegna a morire&quot;. Di seguito (e allegato, in formato PDF) il manifesto dell'appuntamento.Siete tutti invitati.";"http://www.comunitavalledisole.tn.it/content/download/203531/3004970/2/IMMAGINI PDF.pdf";2018-09-18T11:33:00+02:00;2018-09-21T00:00:00+02:00;;"20 settembre 2018";;"Piazza della Pace Dimaro";interno;;;;;;;;;0;;;;;;;;0;0;;
d1612a200b716ad8902375d6f01434b1;2018-09-17T13:28:00+02:00;2018-09-17T14:13:17+02:00;"OPEN 2020 Il turismo accessibile in montagna";;;"L’obiettivo del convegno  è quello di informare e diffondere conoscenza sul turismo accessibile in montagna presentando progetti, esperienze e buone pratiche provinciali e nazionali.Il turismo accessibile coinvolge istituzioni e operatori di diversi settori che caratterizzano un territorio; proporsi come destinazione turistica accessibile aumenta la competitività e ha risvolti interessanti sia in termini economici che sociali. Il giorno 21 settembre si terrà a Trento c/o la sala della Federazione Trentina della Cooperazione in via Giovanni Segantini 10 il convegno &quot;Open 2020-Il turismo accessibile in Montagna&quot; organizzato da Tsm/Area accademia della Montagna del TrentinoIl convegno è suddiviso in 5 sessioni:


Un territorio impegnato per la qualità dell'offerta turistica accessibile

Soddisfare la domanda di turismo accessibile in montagna

Politiche e buone pratiche Europee per il turismo rivolto alle persone con disabilità

La montagna come opportunità di connessione sociale

Città e accessibilità - Progettare accessibile


E' gradita l'iscrizione visitando il sito  www.open2020.it oppure cliccando  qui.";http://www.comunitavalledisole.tn.it/content/download/203530/3004940/3/PIEGHEVOLE-A5-OPEN-2020-web-1.pdf;2018-09-17T13:28:00+02:00;2018-09-21T00:00:00+02:00;;"21 settembre 2018";;"c/o la sala della Federazione Trentina della Cooperazione in via Giovanni Segantini 10 Trento";interno;;;;;;;;/var/comunitavaldisole/storage/images/la-comunita/comunicazione/eventi-e-manifestazioni/open-2020-il-turismo-accessibile-in-montagna/3004955-2-ita-IT/OPEN-2020-Il-turismo-accessibile-in-montagna.jpg;0;;;;;;;;0;0;;
bfa24120bbc2531968344dddeb302e01;2018-09-17T13:21:00+02:00;2018-09-17T13:25:56+02:00;"Fiera di San Matteo";;"
Il tradizionale appuntamento con una delle più antiche mostre del bestiame,
della quale si trova traccia già nel 1604 quando il principe vescovo Carlo EmanueleMadruzzo concesse alla comunità di Malé la possibilità di tenerla.";;"http://www.comunitavalledisole.tn.it/content/download/203529/3004910/2/locandina FERA DE SAN MATE' 2018.pdf";2018-09-17T13:21:00+02:00;2018-09-20T00:00:00+02:00;;"19 settembre 2018";;Malé;esterno;;;;;;;;/var/comunitavaldisole/storage/images/la-comunita/comunicazione/eventi-e-manifestazioni/fiera-di-san-matteo/3004925-1-ita-IT/Fiera-di-San-Matteo.jpg;0;;;;;;;;0;0;;
81729f98406af933abc6802a1bcb1a64;2018-09-14T12:20:00+02:00;2018-09-14T12:28:39+02:00;"Giornata della Mobilità elettrica e sostenibilità Ambientale - Volano 21 e 22 settembre 2018";;;"Venerdì 21 settembre 2018 - ore 20.30Sostenibilità in Agricoltura: tavola rotonda sul modello Trentino

    Locandina 21 settembre
Giovedì 22 settembre 2018Giornata della Mobilità Elettrica e Sostenibilità Ambientale

    Locandina 22 settembre
";;2018-09-14T12:20:00+02:00;2018-09-23T12:00:00+02:00;"21 e 22 settembre 2018";;;Volano;interno;;;;;;;;/var/comunitavaldisole/storage/images/la-comunita/comunicazione/eventi-e-manifestazioni/giornata-della-mobilita-elettrica-e-sostenibilita-ambientale-volano-21-e-22-settembre-2018/3004891-1-ita-IT/Giornata-della-Mobilita-elettrica-e-sostenibilita-Ambientale-Volano-21-e-22-settembre-2018.png;0;;;;;;;;0;0;;
a9d26d2abdc5116b02cf3047df164625;2018-09-04T20:30:00+02:00;2018-05-25T12:21:59+02:00;"LE FARFALLE DEI PRATI DELLA VAL DI SOLE ";;;"Con l’esperta Melania Massaro e il Muse scopriremo i risultati delle ricerche effettuate lungo l’estate 2018 in vari prati della Val di Sole. Le farfalle ci racconteranno non solo un mondo colorato e affascinante ma anche lo stato di salute dei nostri prati.";;2018-09-04T20:30:00+02:00;2018-09-04T23:00:00+02:00;;"4 settembre 2018";20.30;"Presso la sede della Comunità della Valle di Sole";interno;;;;;;;;/var/comunitavaldisole/storage/images/la-comunita/comunicazione/eventi-e-manifestazioni/le-farfalle-dei-prati-della-val-di-sole/3001826-2-ita-IT/LE-FARFALLE-DEI-PRATI-DELLA-VAL-DI-SOLE.jpg;0;;;;;;;;0;0;;
dd11d6ad68dcfc59ebf090ce3bd853b7;2018-08-20T10:13:00+02:00;2018-08-20T13:59:03+02:00;" Memorial Vladimir Pacl";;;"Dopo le tappe di Bedollo, Canale d’Agordo, Lago di Tesero e Cavalese, ora il Festival delle Terre Alte giunge al suo quinto atto. Questa volta si tratta di un’iniziativa speciale.In Val di Sole, precisamente a Malè, ritornerà il Memorial Vladimir Pacl. Un evento in ricordo di un uomo straordinario, che ha lasciato il segno a Malè, in Val di Sole e anche in tutta Italia.Sabato 25 Agosto 2018, il Gruppo CTG “Terre Alte” organizzerà una manifestazione promozionale di orienteering alla portata di tutti e per tutte le età. Per i bambini fino a 15 anni e i gruppi (famiglie, coppie, escursionisti, nordic walkers…), sarà proposto un percorso nel centro storico del capoluogo solandro. Per i giovani dai 16 anni su e gli adulti, invece sarà proposto un percorso nel “cuore” del paese di Malè e anche nella località Regazzini.La formula di gara sarà a sequenza libera con partenza in linea: ovvero tutti i partecipanti riceveranno “il via” nello stesso momento e potranno poi raggiungere i vari “punti di controllo” sul territorio, nell’ordine preferito. Anche chi non dovesse riuscire a trovarli tutti, sarà comunque classificato.Ritrovo, partenza e arrivo della manifestazione presso il piazzale della Scuola Elementare “Cesare Cristoforetti” in via della Croce 17 a Malè. Il programma prevede il ritrovo dalle ore 15,30 in poi, la partenza dei partecipanti alle ore 17,00 e la cerimonia di premiazione e di ricordo di Vladimir Pacl alle ore 18,45.Le iscrizioni si raccolgono preferibilmente, entro Venerdì 24 Agosto 2018 all’indirizzo e-mail terrealte@ctg.it specificando nome, cognome e anno di nascita di ciascun partecipante. Sarà possibile iscriversi anche il giorno della manifestazione presso il Ritrovo, tra le ore 15,30 e le ore 16,45. La quota è di euro 2 per bambini fino a 15 anni compresi e per ciascun membro della categoria Gruppi, mentre di euro 4 per persone dai 16 anni in su.A tutti i partecipanti, come faceva Vladimir, sarà consegnato un premio di partecipazione e offerto un piccolo ristoro a fine manifestazione. Inoltre saranno estratti dei premi speciali, tra i soli presenti alla cerimonia di premiazione.La manifestazione è possibile grazie al sostegno finanziario del Comune di Malè e dell’APT Val di Sole. Inoltre ha ricevuto il patrocinio del CTG Nazionale, della Comunità della Valle di Sole. Un ringraziamento particolare al Flying Park, per la disponibilità di premi.Sabato 25 Agosto sarà giorno di sport, ma anche di festa. Perché quanto seminato da Vladimir, possa continuare a dare frutto secondo il suo stile. Così ancora una volta, il suo motto diverrà attuale…”Triste far niente, dolce far movimento…chi non crede venga con noi!”.Per ulteriori informazioni: cell. 389-8703984, E-Mail: terrealte@ctg.it, Pagina Facebook Gruppo CTG “Terre Alte”, Pagina Instagram Gruppo CTG Terre Alte.";http://www.comunitavalledisole.tn.it/content/download/203452/3004236/1/Manifesto_Memorial_Vladimir_Pacl_Male2582018_ok.pdf;2018-08-20T10:13:00+02:00;2018-08-26T00:00:00+02:00;;"Sabato 25 Agosto 2018";"Ritrovo dalle ore 15,30 in poi, la partenza dei partecipanti alle ore 17,00 e la cerimonia di premiazione e di ricordo di Vladimir Pacl alle ore 18,45.";"Piazzale della Scuola Elementare “Cesare Cristoforetti” in via della Croce 17 a Malè";esterno;;;"euro 2 per bambini fino a 15 anni compresi e per ciascun membro della categoria Gruppi, mentre di euro 4 per persone dai 16 anni in su. ";;;;;/var/comunitavaldisole/storage/images/la-comunita/comunicazione/eventi-e-manifestazioni/memorial-vladimir-pacl/3004251-1-ita-IT/Memorial-Vladimir-Pacl.jpg;0;;;;;;;;0;0;;
be6fd16278386b7a7e9f5184e47ff727;2018-08-20T08:56:00+02:00;2018-08-20T09:29:43+02:00;"Concorso video amatoriali #PlurAlp ";;;"La Fondazione Demarchi a promozione del Video-Contest #PlurAlps organizza, nell’ambito del Progetto Europeo PlurAlps – Migliorare le capacità per uno spazio alpino pluralistico (sito ufficiale). Il Concorso, rivolto a giovani under 30, è finalizzato alla produzione di video amatoriali sul tema della valorizzazione del TERRITORIO e della DIVERSITÀ CULTURALE in VAL DI NON e/o VAL DI SOLE, attraverso la promozione di una cultura dell’accoglienza e di dialogo con i migranti.Tutte le informazioni e il regolamento del Concorso si trovano sul sito della Fondazione o sulla  pagina facebook dedicata, oppure scrivendo un’email a  comunicazione@fdemarchi.it, o telefonando al numero 0461 273718.In allegato la locandina del Concorso che potete utilizzare per divulgare l’iniziativa attraverso tutti i vostri canali comunicativi.";"http://www.comunitavalledisole.tn.it/content/download/203451/3004206/1/Locandina Video Contest PluAlps.pdf";2018-08-20T08:56:00+02:00;2018-10-27T00:00:00+02:00;"fino al 26 ottobre 2018";;;;interno;;;;;"Concorsi a premi";;;/var/comunitavaldisole/storage/images/la-comunita/comunicazione/eventi-e-manifestazioni/concorso-video-amatoriali-pluralp/3004221-1-ita-IT/Concorso-video-amatoriali-PlurAlp.png;0;;;;;;;;0;0;;
59cd4a2259ce888b9c477cffeaa077a2;2018-08-09T08:48:00+02:00;2018-08-09T09:18:27+02:00;"41ª Festa della Fratellanza";;;"Nata grazie alla lungimiranza di Emilio Serra e Kurt Steiner, è divenuta nel tempo un momento di straordinario valore simbolico, un pellegrinaggio di Pace che richiama migliaia di persone nei luoghi che videro la sofferenza e la morte di tanti soldati, su entrambi i fronti.Si tratta di un occasione preziosa di riflessione sul nostro passato e sulla peculiare storia del nostro territorio, che, come tanti altri luoghi, è stato profondamnete segnato dalle tragedie della Guerra.";"http://www.comunitavalledisole.tn.it/content/download/203444/3004153/3/Pieghevole 4 ante Festa della Fratellanza (2).pdf";2018-08-09T08:48:00+02:00;2018-08-27T00:00:00+02:00;;"Domenica 26 agosto 2018";"ore 8:00 ritrovo Passo del Tonale";"Ghiacciaio Presesa - Passo Paradiso";esterno;;;;;;;;/var/comunitavaldisole/storage/images/la-comunita/comunicazione/eventi-e-manifestazioni/41a-festa-della-fratellanza/3004168-3-ita-IT/41a-Festa-della-Fratellanza.jpg;0;;;;;;;;0;0;;
3dc59442f30793cc54192811e3dd530e;2018-08-07T20:30:00+02:00;2018-05-25T12:20:52+02:00;"L’ORSO BRUNO ";;;"Con il gruppo GRANDI CARNIVORI del Servizio Foreste e Fauna della Provincia di Trento scopriremo i segreti e le abitudini dell’orso bruno in Trentino e rifletteremo sulle opportunità e le problematiche della convivenza uomo-orso.";;2018-08-07T20:30:00+02:00;2018-08-07T23:00:00+02:00;;"7 agosto 2018";20.30;"Presso la sede della Comunità Valle di Sole";interno;;;;;;;;/var/comunitavaldisole/storage/images/la-comunita/comunicazione/eventi-e-manifestazioni/l-orso-bruno/3001796-2-ita-IT/L-ORSO-BRUNO.png;0;;;;;;;;0;0;;
7921d75ee8ae015f2abdad712ef2128e;2018-08-03T11:04:00+02:00;2018-08-03T11:14:48+02:00;"39° Convegno Estivo del Centro Studi per la Val di Sole";;;"Il 39° convegno del Centro Studi si aprirà con l'illustrazione del &quot;Premio Strike&quot; attribuito all'Associazione l'Alveare. Seguirà poi un piacevole e gustoso intrattenimento al MMAPE, Mulino Museo dell'Ape di Croviana.";"http://www.comunitavalledisole.tn.it/content/download/203415/3003975/4/39 CONVEGNO ESTIVO Croviana.  MANIFESTO.pdf";2018-08-03T11:04:00+02:00;2018-08-06T00:00:00+02:00;;"Sabato 4 agosto 2018";"ore 14.30 ";"presso la Sala polifunzionale Centro Sportivo di Croviana ";interno;;;"ingresso libero";;;;;/var/comunitavaldisole/storage/images/la-comunita/comunicazione/eventi-e-manifestazioni/39-convegno-estivo-del-centro-studi-per-la-val-di-sole/3003990-1-ita-IT/39-Convegno-Estivo-del-Centro-Studi-per-la-Val-di-Sole.jpg;0;;;;;;;;0;0;;
ad0a1bb0ec2a086a7e3e60b05f5907be;2019-06-07T08:35:00+02:00;2019-06-07T08:39:33+02:00;"PlurAlps - Alpi Plurali";;"Migliorare le capacità per uno spazio alpino pluraleIncontro pubblico di restituzione dei risultati del progetto europeo";"Presentazione dell' esperienza in Val di Sole tramite il racconto e la visione dei video dei protagonisti";"http://www.comunitavalledisole.tn.it/content/download/204225/3009754/1/locandina A3.pdf";2019-06-07T08:35:00+02:00;2019-06-14T23:59:00+02:00;;"14 giugno 2019";20.30;"Malé - Sala assemblee Comunità Valle di Sole";interno;;;;;;;;/var/comunitavaldisole/storage/images/la-comunita/comunicazione/eventi-e-manifestazioni/pluralps-alpi-plurali/3009769-1-ita-IT/PlurAlps-Alpi-Plurali.png;0;;;;;;;;0;0;;
70f73aa0c3ec28def6b808d68b7ad65e;2019-05-28T15:04:00+02:00;2019-05-28T15:07:23+02:00;"Alzheimer Fest";;;"Incontri, dibattiti e spettacoli per la sensibilizzazione sull'Alzheimer";http://www.comunitavalledisole.tn.it/content/download/204186/3009468/1/progrAlzheimerFestWEB.pdf;2019-05-28T15:04:00+02:00;2019-06-16T23:59:00+02:00;;"Dal 06 al 16 giugno 2019";;"Diverse località del Trentino";interno;;;;;;;;;0;;;;;;;;0;0;;
bf6735f0f1c900232edeaa355bb06d7d;2019-05-28T14:17:00+02:00;2019-05-28T14:28:19+02:00;"Dov'è sparita Betty?";;"Come tenere a mente gli indizi quando si è malati di Alzheimer?Spettacolo teatrale.";"Spettacolo teatrale &quot;Dov'è sparita Betty?&quot;Alzheimer Fest";http://www.comunitavalledisole.tn.it/content/download/204185/3009438/1/progrAlzheimerFestWEB.pdf;2019-05-28T14:17:00+02:00;2019-06-07T23:59:00+02:00;;"07 giugno 2019";"Ore 20:00";"Teatro comunale di Ossana";interno;;;;;;;;/var/comunitavaldisole/storage/images/la-comunita/comunicazione/eventi-e-manifestazioni/dov-e-sparita-betty/3009453-1-ita-IT/Dov-e-sparita-Betty.png;0;;;;;;;;0;0;;
1f67880c01da14668fcef7f471d4e375;2019-05-16T15:28:00+02:00;2019-05-16T15:33:57+02:00;"Lo spettacolo della biodiversità";;;"Escursione alla scoperta della biodiversità della montagna, con particolare attenzione al fantastico mondo degli insetti.";"http://www.comunitavalledisole.tn.it/content/download/204139/3009195/1/spettacolo bio (1).pdf";2019-05-16T15:28:00+02:00;2019-05-19T12:00:00+02:00;"8 ore circa";"19 maggio 2019";"09.30 - 17.00";"Ritrovo ad Ortisé";interno;;;;;;;Escursione;/var/comunitavaldisole/storage/images/la-comunita/comunicazione/eventi-e-manifestazioni/lo-spettacolo-della-biodiversita/3009210-1-ita-IT/Lo-spettacolo-della-biodiversita.png;0;;;;;;;;0;0;;
0ae714f258d2ab628b0abac8a8f7f004;2019-05-02T16:00:00+02:00;2019-05-02T15:44:28+02:00;"“Boschi a terra. E ora?” - I tempi del bosco e le scelte dell'uomo.";;;"Serata per capire attraverso esperienze dirette dei relatori, il futuro dei boschi trentini colpiti dalla tempesta Vaia lo scorso autunno. Ospiti della serata saranno Alessio Giovannelli, ricercatore del CNR IRET di Firenze, Paolo Kovatsch responsabile tecnico dell'Agenzia Provinciale delle Foreste Demaniali e Piergiorgio Canella Ispettore Forestale Dimaro Folgarida, che saranno moderati da Andrea Mustoni responsabile del settore Ricerca Scientifica ed Educazione Ambientale del Parco Naturale Adamello Brenta.  Martedì 7 maggio 2019, alle ore 20.30  presso la Sala Conferenze al 2° piano del Municipio di Dimaro.";;2019-05-02T16:00:00+02:00;2019-05-07T23:30:00+02:00;;07.05.2019;20.30;"Dimaro Folgarida - Teatro Comunale";interno;;;Gratuito;;;;;/var/comunitavaldisole/storage/images/la-comunita/comunicazione/eventi-e-manifestazioni/boschi-a-terra.-e-ora-i-tempi-del-bosco-e-le-scelte-dell-uomo/3008984-1-ita-IT/Boschi-a-terra.-E-ora-I-tempi-del-bosco-e-le-scelte-dell-uomo.jpg;0;;;;;;;;0;0;;
e62e4f2dfd6c75238d1d3fc2e626eb8e;2017-03-21T21:32:00+01:00;2017-03-21T21:43:31+01:00;"Corso di formazione “Acqusti verdi nella pubblica amminiatrazione - Green Public Procurement ";;;"Il corso di formazione si terrà  il giorno 28 marzo alle ore 14,00 è organizzato dalla Comunità della Valle di Sole in collaborazione con l’Agenzia Provinciale per la Protezione dell’Ambiente e nasce dall’esigenza di aggiornare il personale sulle novità della D.Lgs 50/2016 (Codice Appalti) in materia di acquisti di verdi  e di Criteri Ambientali Minimi (CAM).Il corso è gratuito e avrà durata di 3 ore.Si comunica che potete contattare Laura Marinelli, coordinatrice della Rete di Riserve come referente (e-mail: reteriserve@comunitavalledisole.tn.it – tel: 0463 901029) per informazioni e iscrizioni.";;2017-03-21T21:32:00+01:00;2017-03-29T12:00:00+02:00;;;;;interno;;;;;;;;/var/comunitavaldisole/storage/images/la-comunita/comunicazione/eventi-e-manifestazioni/corso-di-formazione-acqusti-verdi-nella-pubblica-amminiatrazione-green-public-procurement/2989279-3-ita-IT/Corso-di-formazione-Acqusti-verdi-nella-pubblica-amminiatrazione-Green-Public-Procurement.jpg;0;;;;;;;;0;0;;
f04176d72776d94585f27a822eff298d;2017-01-31T10:19:00+01:00;2017-01-26T10:30:43+01:00;" “Prati Fioriti di Biodiversità” edizione 2017";"Prati Fioriti di Biodiversità” edizione 2017";;"8 febbraio 2017 – ore 20.30Malè, Sala Assemblea della Comunità Valle Di SoleSerata per raccontare i risultati raccolti nel 2016 e aprire le adesioni per il 2017Nel 2016 l’Associazione Apicoltori Solandri con la Rete di Riserve Alto Noce hanno messo a disposizione gratuitamente per ogni Comune miscele di semi altamente selezionate per realizzare delle aiuole di prato fiorito, utile per le api e gli insetti e bello per il paesaggio e il turista.Per il 2017 gli stessi Enti intendono proporre nuovamente quest’iniziativa!Tutta la cittadinanza e le amministrazioni della Val di Sole sono invitate";"http://www.comunitavalledisole.tn.it/content/download/201039/2983333/4/GM (2).jpeg";2017-01-31T10:19:00+01:00;2017-03-01T06:01:00+01:00;;"8 FEBBRAIO 2017";20.30;"Comunità Valle di Sole";interno;;;;;;;;/var/comunitavaldisole/storage/images/comunita-della-valle-di-sole/la-comunita/comunicazione/eventi-e-manifestazioni/prati-fioriti-di-biodiversita-edizione-2017/2983348-4-ita-IT/Prati-Fioriti-di-Biodiversita-edizione-2017.jpg;0;"Rete di Riserve";;;;;;;0;0;;
bc43fc015b912d7f90ceffc3d9abf551;2016-11-22T20:30:00+01:00;2016-11-29T09:18:43+01:00;"La rappresentazione della Violenza nei Media";;"La Comunità in collaborazione con tutti gli Assessori alle politiche sociali, giovanili, pari opportunità e cultura dei Comuni della Valle di Sole, ha programmato un evento culturale rivolto a tutta la popolazione, incentrato sulla rappresentazione della violenza nei media, da tenersi presso il Teatro di Dimaro nella serata di giovedì 22 novembre 2016 ad ore 20.30";"da realizzarsi con la scrittrice documentarista  Lorella Zanardo autrice delle pubblicazioni “Il corpo delle donne” e di “Nuovi occhi per i media” e con la collaborazione della giornalista Fausta Slanzi dell’Ufficio Stampa  della Provincia di Trento.La scrittrice intende affrontare l’argomento della violenza contro le donne, definendo da un lato l’immagine del genere femminile che passa attraverso il piccolo schermo come una rappresentazione che non solo alimenta gli stereotipi, ma talvolta arriva addirittura a calpestare la stessa dignità della donna e dall’altro proponendo di innalzare il livello di consapevolezza sull’immagine delle donne nella tv italiana;";;2016-11-22T20:30:00+01:00;2016-11-22T23:00:00+01:00;;;;"Teatro di Dimaro";interno;;;;;;;;/var/comunitavaldisole/storage/images/comunita-della-valle-di-sole/aree-tematiche/sociale/eventi-e-manifestazioni2/la-rappresentazione-della-violenza-nei-media/2949025-1-ita-IT/La-rappresentazione-della-Violenza-nei-Media.jpg;0;;;;;;;;0;0;;
