remoteId,published,modified,Titolo,Titolo breve,Sottotitolo,Descrizione,Testo,Inizio,Termine,Durata,Quando,Orario,Dove,Location,Informazioni,Destinatari,Costi,Stato,Tipologia,Materia,Tipo evento,Immagine,Manifestazione collegata (numero),Manifestazione collegata (testo),Manifestazione,Associazione,Immagine correlata,Progressivo,Link,Comune,lat,lon,address,Fonte
cec7ef709a03e378ddaa6f0f9e21283f,2015-11-20T14:29:00+01:00,2015-11-20T14:33:25+01:00,Visioni d'Europa,,"
l'I.S. per le Politiche giovanili, in collaborazione con l'associazione Europa.org, organizza, nelle giornate del 5 e 6 dicembre 2015, un percorso residenziale e laboratoriale sui temi dell'integrazione europea denominato &quot,VISIONI D'EUROPA&quot,. Il percorso è rivolto a 40 giovani trentini, di cui 15 provenienti dalle scuole, 15 dai piani giovani di zona e d'ambito e 10, in funzione di tutores, dalle precedenti edizioni del progetto &quot,Essere in Europa&quot,. ","
Il 20 e 21 maggio 2016 Strasburgo ospiterà la seconda edizione dello European Youth Event. L'evento, organizzato dal Parlamento europeo e dallo European Youth Forum, riunirà nella cittadina francese più di 7000 giovani provenienti da tutta Europa, i quali, per 2 intere giornate, si confronteranno sulle grandi questioni attualmente dibattute al tavolo dell'integrazione europea: la tutela della pace e della dialettica democratica, i diritti sociali dei cittadini, la cura dell'ecosistema, la questione occupazionale e le questioni economiche. 
L'idea di organizzare tale percorso laboratoriale nasce come risposta ad un desiderio espresso da molti giovani trentini di partecipare allo European Youth Event e di confrontarsi, più in generale, su temi estremamente attuali ed urgenti quali i molteplici risvolti dell'integrazione e della cittadinanza europea. 
L'esperienza residenziale di 2 giorni si terrà il 5 e 6 dicembre 2015 presso il Centro studi alpino dell'Università della Tuscia a Pieve Tesino, dove verranno realizzate delle brevi lezioni frontali a cura di docenti d'ambito universitario o comunque con consolidata esperienza nella formazione giovanile, alle lezioni seguiranno laboratori di confronto tra i partecipanti, con l'intervento di facilitatori dell'associazione giovanile Europa.org e del Movimento federalista europeo, nonchè dei giovani partecipanti all'edizione 2014 del progetto &quot,Essere in Europa&quot,, nel ruolo di tutores. 
Durante la residenziale, i giovani partecipanti avranno altresì la possibilità di visitare il Museo Casa De Gasperi e il Museo tesino delle stampe e dell'ambulantato Per Via. 
                
Al progetto parteciperanno, in qualità di soggetti partner, l'Ufficio giovani del Comune di Trento, la Fondazione Trentina Alcide De Gasperi e la sezione tridentina della Gioventù federalista europea. 
Alla domanda di partecipazione, i giovani interessati dovranno allegare anche una breve lettera motivazionale, dalla quale emerga l'interesse rispetto al tema dell'integrazione europea. 
Nel caso in cui le domande pervenute superino il numero dei 15 posti messi a disposizione, verrà fatta una selezione da parte dell'I.S. per le Politiche giovanili e dell'associazione Europa.org, sulla base della lettera motivazionale allegata alla domanda. 
Le domande di partecipazione e la lettera motivazionale vanno inviate via mail entro le ore 16 di lunedì 30 novembre 2015 all'indirizzoinfo@puntoeuropa.org direttamente dai ragazzi interessati. 
Non sono previsti costi  a carico dei partecipanti, ma si richiede interesse ed impegno durante il percorso formativo. Per eventuali informazioni ci si può rivolgere al dott. Davide Sartori dell'associazione Europa.org al numero di telefono 3453392908 o alla dott.ssa Nicoletta Novello dell'I.S. per le Politiche giovanili al numero di telefono 0461 493118 e alla dott.ssa Francesca Gnech dell'I.S. per le Politiche giovanili al numreo di telefono 0461 497271. Modulo Iscrizione:

    scheda iscrizione
",,2015-11-20T14:29:00+01:00,,,,,,interno,,,,,,,,/var/comunitacembra/storage/images/comunita-della-valle-di-cembra/aree-tematiche/politiche-giovanili/ultime-notizie/visioni-d-europa/2646066-1-ita-IT/Visioni-d-Europa.jpg,0,,,,,,,,0.0,0.0,,
078b06f2419c06ed81ab6cceb11612a0,2014-11-29T17:51:00+01:00,2014-11-29T18:02:48+01:00,Il bando-concorso Sfera Change Up,,"Sfera Change Up, è il bando-concorso di co-progettazione rivolto ai giovani promosso da La Sfera ONLUS in occasione dell’inaugurazione della nuova sede e del ventesimo anno di attività. Se sei un giovane tra i 18 e i 28 anni, puoi scegliere il tuo concorso tra i quattro presentati qui a fianco e pre-iscriverti a Sfera Change Up caricando la tua idea progettuale. Se sarai selezionato, accederai alla seconda fase del concorso e potrai concorrere per i premi finali. Ciascun concorso prevede fasi di formazione, affiancamento, tutoraggio e la possibilità di realizzare concretamente la tua idea insieme a La Sfera.","Ecco i quattro bandi:
SFERA INNOVAZIONE
Obiettivi: Identificare nuovi mercati per dare risposte adeguate ai bisogni emergenti con strumenti e soluzioni innovative.Risultati attesi: Studi di fattibilità di nuove idee imprenditoriali che valorizzino il modello cooperativo e che abbiano ricadute sul territorio in termini di occupabilità e sostenibilità.
SFERA SPORT
Obiettivi: Trovare soluzioni su cui innestare collaborazioni e progetti condivisi sperimentando strumenti innovativi.Risultati attesi: Creare progetti innovativi, sostenibili che, attraverso la sinergia con le realtà sportive, incrementino la visibilità e riconoscibilità della Cooperativa.
P.S.C. PARTENARIATO SFERA COMUNITÀ
Obiettivi: Idee innovative e sostenibili per far in modo che alla cooperativa sia riconosciuto il ruolo di attore virtuoso della comunità in grado di erogare servizi, attrarre risorse economiche da investire in opere e servizi espressi dalla comunità.Risultati attesi: Ridefinizione dei modelli tradizionali economico-finanziari capaci di liberare risorse da reinvestire nella analisi, progettazione e realizzazione innovativa dei servizi.
MARKETING
Obiettivi: Individuare nuovi modelli di comunicazione, diversi dai tradizionali, da cui si evincano le caratteristiche distintive di una cooperativa sociale come interlocutore della comunità.Risultati attesi: Creazione di un piano di comunicazione che trasmetta i valori della cooperativa che vada oltre alla comunicazione dell’attività lavorativa in senso stretto, ma che veicoli il cliente ad una scelta consapevole.SCADENZA BANDI: 13 dicembre 2014Per ulteriori informazioni: http://www.sferachangeup.org/",,2014-11-29T17:51:00+01:00,,,,,,interno,,,,,,,,/var/comunitacembra/storage/images/comunita-della-valle-di-cembra/aree-tematiche/politiche-giovanili/ultime-notizie/il-bando-concorso-sfera-change-up/2304817-1-ita-IT/Il-bando-concorso-Sfera-Change-Up.jpg,0,,,,,,,,0.0,0.0,,
7c83dab47b840ca728e25c9fbc0811b3,2019-07-26T12:21:00+02:00,2020-04-28T16:38:05+02:00,Anno 2019,,"Ammontare complessivo dei debiti - anno 2019

	
	
		
			debiti 1^ trimestre 2019
		 
		213,35 kB
	

	


	
	
		
			debiti 2^ trimestre 2019
		 
		209,99 kB
	

	


	
	
		
			debiti 3^ trimestre 2019
		 
		63,73 kB
	

	


	
	
		
			debiti 4^ trimestre 2019
		 
		87,84 kB
	

	
",,,2019-07-26T12:21:00+02:00,,,,,,interno,,,,,,,,,0,,,,,,,,0.0,0.0,,
e27636244ed7db833699b2e82c214dc0,2019-07-09T15:10:00+02:00,2019-08-07T09:37:32+02:00,Calendario sedute II semestre 2019,,16 luglio06 agosto17 settembre15 ottobre05 novembre26 novembre17 dicembre,,,2019-07-09T15:10:00+02:00,,,,,,interno,,,,,,,,,0,,,,,,,,0.0,0.0,,
928664f6ea694f80e18fe4978eb954cf,2020-04-28T14:54:00+02:00,2021-02-02T14:19:17+01:00,Anno 2020 ,,"Ammontare complessi dei debiti - anno 2020

	
	
		
			debiti 1^ trimestre 2020
		 
		65,08 kB
	

	


	
	
		
			debiti 2^ trimestre 2020
		 
		62,07 kB
	

	


	
	
		
			debiti 3^ trimestre 2020
		 
		63,62 kB
	

	


	
	
		
			debiti 4^ trimestre 2020
		 
		67,18 kB
	

	
",,,2020-04-28T14:54:00+02:00,,,,,,interno,,,,,,,,,0,,,,,,,,0.0,0.0,,
a954581239ae36cb4c3a556384e95f17,2014-10-23T18:49:00+02:00,2014-10-23T18:51:47+02:00,Festival della famiglia,,La terza edizione del Festival della Famiglia è in programma a Riva del Garda il 5 dicembre 2014. Le iscrizioni on line sono aperte! ,"
L'evento, che quest'anno si intitola &quot,L’ecosistema vita e lavoro. Occupazione femminile e natalità, benessere e crescita economica&quot,, si terrà venerdì 5 dicembre 2014 presso il Centro Congressi di Riva del Garda. 
La manifestazione è ideata e organizzata dall’Agenzia per la famiglia, la natalità e le politiche giovanili della Provincia autonoma di Trento in partnership con il Distretto Famiglia &quot,Alto Garda&quot, e il Comune di Riva del Garda e in collaborazione con il Dipartimento per le politiche della famiglia della Presidenza del Consiglio dei Ministri. 
Questa edizione del Festival riparte mettendo al centro i temi nevralgici del mondo “family”: l’ecosistema vita e lavoro, l’occupazione femminile e la natalità, il benessere e la crescita economica. 
Il Festival si preannuncia come l'evento dedicato alla famiglia e alle politiche familiari di respiro internazionale. Occasione di incontro e riflessione su quanto fatto, nonché occasione per cogliere orizzonti e direzioni verso cui andare per qualificare le politiche pubblico/privato come “family friendly”. 
La kermesse, a cui prenderanno parte numerosi rappresentanti delle istituzioni, del mondo del lavoro, dell’ambito sociale e della ricerca, si propone di suscitare un ampio confronto, dal quale emergeranno le tesi finali che contribuiranno a mettere in campo nuove architetture di policy e nuove prospettive future a sostegno dei temi della famiglia in Italia. 
Sarà preceduto da una serie di eventi culturali, scientifici e sportivi, oltre a dibattiti e attività di incontro e di gioco per famiglie e attività laboratoriali per oltre 500 studenti provenienti dagli Istituti d’istruzione superiore. 
Sono già aperte le iscrizioni, qui il modulo online per iscriversi all'edizione 2014 e il programma sintetico: www.festivalfamiglia.it   Sul sito web www.festivalfamiglia.it   segui tutte le novità in vista dell'appuntamento del 5 dicembre. ",,2014-10-23T18:49:00+02:00,,,,,,interno,,,,,,,,/var/comunitacembra/storage/images/comunita-della-valle-di-cembra/aree-tematiche/politiche-giovanili/ultime-notizie/festival-della-famiglia/2260031-1-ita-IT/Festival-della-famiglia.jpg,0,,,,,,,,0.0,0.0,,
pat_2583473,2014-10-17T00:00:00+02:00,2014-09-26T01:17:27+02:00,Castagnata biana,,,,,2014-10-17T00:00:00+02:00,2014-10-19T00:00:00+02:00,,,,"Teatro Tenda, , Albiano",,"
Note: 30ª edizione
Festa autunnale dedicata ad uno dei prodotti caratteristici della Valle di Cembra: il marrone di Albiano, coltivato da tempo immemorabile e impiegato con grande versatilità nella cucina locale. La manifestazione ricorda i tempi lontani in cui le donne di Albiano intrecciavano lunghe ghirlande, infilzando le castagne con lausilio di una cordicella e scendevano a Trento per venderle in occasioni particolari. Presso il teatro tenda riscaldato, in centro al paese, degustazioni e vendita di specialità gastronomiche a base di castagne e farina di castagne.Per tutte le tra giornate musica, ballo e animazione per grandi e piccini.
Durante le tre giornate di festa funzionerà un grande spaccio con caldarroste, dolci di castagne, straboi, vin brulè e birra.Informazioni: A.p.T. 0461 683110Altri organizzatori: Associazione Bocciofila Albiano ",,,,Manifestazioni ed eventi,,,,0,,,,,,,Comune di Albiano,0.0,0.0,,Redazione Trentino Cultura
pat_2584771,2014-10-11T00:00:00+02:00,2014-10-09T01:03:05+02:00,Vagando di erba in erba,,,,,2014-10-11T00:00:00+02:00,2014-10-11T00:00:00+02:00,,,ore 20.30,"Stedro - Sala dell'oratorio, , Segonzano",,"
Note: Vagando di erba in erba
Racconto di una vacanza in Palestina
di Patrizia Cecconi
Città del Sole edizioni, 2014
Dialogherà con lautrice la giornalista Antonella CarlinIl volume è il fedele racconto di un viaggio, scandito giorno per giorno, affrontato con spirito leggero a dimostrazione del fatto che la Palestina è, e ha il diritto di essere, anche terra di vacanza. La vacanza, però non può non tener conto dell'occupazione militare e delle ferite al territorio inferte dall'illegalità israeliana che si manifesta in ogni angolo della Cisgiordania, punteggiandola di insediamenti di coloni e abbattimento di oliveti e agrumeti palestinesi, ed acqua deviata, check point militari, strade riservate ai soli israeliani e il devastante muro di segregazione ad andamento serpentiforme lungo circa 700 chilometri. Il filo verde che accompagna questi 30 giorni si snoda tra campagne, villaggi e città, monumenti e opere d'arte raccontando la Palestina della bellezza e del sopruso come fosse un corpo vivente cui la sofferenza non ha potuto togliere il piacere di ridere e la volontà di vivere.Telefono: 0461/557028 ",,,,Convegno,,,,0,,,,,,http://www.visitpinecembra.it,Comune di Segonzano,0.0,0.0,,Redazione Trentino Cultura
pat_2584348,2014-10-11T00:00:00+02:00,2014-10-05T01:00:54+02:00,Saperi e sapori di montagna,,,,,2014-10-11T00:00:00+02:00,2014-10-11T00:00:00+02:00,,,ore 19.30,"Piscine - Pensione Maria Turismo Rurale, Via del Lagorai, 30, Sover",,"
Note: DiVin ottobre
È arrivato lautunno con i suoi colori e il dono del raccolto. Renata porta in tavola i frutti generosi di un lavoro paziente e costante negli orti di montagna. Propone una cena vegetariana ricca di gusto e sapori con i prodotti dellassociazione Terre erte. Prima di sedersi a tavola Renata insegnerà ai propri ospiti a preparare il sale alle erbe aromatiche. 
La proposta enogastronomica: 
Gli sformatini di porri e grana Trentino 
La crema di zucca con le noci 
Gli gnocchi di pane con la verza Il purè viola con la frittata di zucchine 
Il dolce con la crema di marroni
In abbinamento il vino di Cantina La Vis Nosiola Sette Fontane Bio Trentino DOC
Dove: Pensione Maria Turismo Rurale Via del Lagorai 30 - Piscine di Sover Cell 338 2674974
Prenotazioni: è gradita la prenotazione
Prezzo a persona: 25 comprensivo di laboratorio e cena
Aziende partecipanti:
Pensione Maria Turismo Rurale e Bottega dei Prodotti Tipici
Via del Lagorai 30 - Piscine di Sover
Tel. 0461 698251
Cell. 338 2674974
www.mariapensionerurale.it
Cooperativa Castanicoltori del Trentino Alto Adige
Via Vittoria 13 - Vigolo Vattaro
Tel. 320 2509993www.castanicoltorideltrentino.itAltri organizzatori: Strada del Vino e dei Sapori del Trentino",,,,Manifestazioni ed eventi,,,,0,,,,,,http://www.stradedelvinodeltrentino.it|Strada del Vino e dei Sapori del Trentino,Comune di Sover,0.0,0.0,,
pat_2584350,2014-10-05T00:00:00+02:00,2014-10-05T01:00:56+02:00,Museo Casa Porfido: DiVino e DiPietra,,,,,2014-10-05T00:00:00+02:00,2014-10-05T00:00:00+02:00,,,ore 10.00,"Museo Casa Porfido, Via Don Luigi Albasini, 8 , Albiano",,"
Note: DiVin ottobre
Incontro ravvicinato tra i prodotti trentini, e le pietre scolpite ad Arte, su cui essi nascono e maturano
La mattina si apre con la visita al Museo Casa Porfido di Albiano  museo nato per far scoprire la storia del porfido, della sua lavorazione e della geologia delle Dolomiti. Al suo interno verranno presentate le Opere del Simposio internazionale di scultura in pietra Trentina 2014, realizzate da artisti internazionali. Il tutto sarà accompagnato dai prodotti trentini, con linimitabile vino simbolo del territorio ovvero il Mueller Thurgau.
A conclusione della mattinata, un tocco di musica tradizionale.
DiVino e DiPietra vi aspetta a Casa Museo Porfido per riscoprire un Territorio: la storia, il bello, i profumi.
Dove: Museo Casa Porfido
Via Don Luigi Albasini 8 - Albiano
Prenotazioni: è gradita la prenotazione al numero 0461 683110 oppure infocembra@visitpinecembra.it
Prezzo a persona:  4,50 comprensivo di visita guidata, degustazione e concerto
Aziende partecipanti
Comune di Albiano
Via SantAntonio 30 - Albiano
Tel. 0461 689623
www.comune.albiano.tn.it
Museo Casa Porfido
Via Don Luigi Albasini 8 - Albiano
Tel. 0461 689799
www.casaporfido.itComitato Simposio Internazionale di Scultura su pietre trentineAltri organizzatori: Strada del Vino e dei Sapori del Trentino",,,,Manifestazioni ed eventi,,,,0,,,,,,http://www.stradedelvinodeltrentino.it|Strada del Vino e dei Sapori del Trentino,Comune di Albiano,0.0,0.0,,
pat_2580045,2014-09-26T00:00:00+02:00,2014-09-19T01:05:20+02:00,Festa dell'uva. 57ª edizione,,,,,2014-09-26T00:00:00+02:00,2014-09-28T00:00:00+02:00,,,,"Verla di Giovo, , Giovo",,"
Note: 57^ edizione della Festa dellUva, la festa più antica nel suo genere della regione Trentino-Alto Adige. Espressione di un territorio agricolo tra i più caratteristici dellarco alpino, la festa celebra lunione tra uomo e ambiente. Nellarco delle tre giornate, le vie del centro storico saranno animate da percorsi enogastronomici per degustare i prodotti del territorio, tra i quali il vino, le grappe, i piccoli frutti e il miele locale. Presso il padiglione centrale mescita di vini e piatti della cucina tradizionale cembrana con intrattenimento musicale e ballo.
Il clou della manifestazione sarà domenica con la 26^ Marcia dellUva, gara podistica non competitiva, il cui percorso si snoda attraverso i caratteristici vigneti della Valle di Cembra e la tradizionale sfilata dei carri allegorici per le vie del centro di Verla.Durante le tre giornate di festa ci saranno musica, balli, intrattenimenti per grandi e piccini e servizio bar e cucina con specialità trentine.Telefono: 0461/683110 (APT Altopiano di Pinè Valle di Cembra)Fax: 0461/683257 (APT Altopiano di Pinè Valle di Cembra)Altri organizzatori: Comitato Organizzatore Festa dell'Uva in collaborazione con numerosi enti ed associazioni del volontariato",,,,Manifestazioni ed eventi,,,,0,,,,,,http://www.festadelluva.tn.it|Comitato Organizzatore Festa dell'Uva in collaborazione con numerosi enti ed associazioni del volontariato,Comune di Giovo,0.0,0.0,,Redazione Trentino Cultura
pat_2574521,2014-09-19T00:00:00+02:00,2014-09-19T01:00:36+02:00,Le solide basi del feltro,,,,,2014-09-19T00:00:00+02:00,2014-09-21T00:00:00+02:00,,,,"Casa Magnola, , Segonzano",,"
Note: Da settembre 2014 e per tutto il 2015 Casa Magnola - di proprietà della Provincia ma gestita da Con.Solida- - ospiterà artisti di fama internazionale, accademici e docenti con proposte formative residenziali e non accomunate da un unico filo conduttore: quello del BENESSERE, della CREATIVITÀ e della LIBERA ESPRESSIONE delle proprie aspirazioni e delle proprie personalità. 
Obiettivo delle iniziative, promosse dal consorzio, è quello di contribuire a promuovere stili di vita e orientamenti positivi e ottimisti come risposta primaria nella cultura del benessere.
Il primo appuntamento sarà dal 19 al 21 settembre con Agostina Zwilling, fondatrice dellItalian Felt Academy ed esperta a livello internazionale della lavorazione del feltro. Nel corso dei tre giorni saranno affrontate le regole fondamentali di questo tipo di materiale anche attraverso la creazione di borse, cappelli, ciabatte o altro con l'obiettivo di continuare a sperimentare anche da soli. Ultimo giorno utile per iscriversi è il 30 agosto 2014. Con la stessa docente anche &quot,Comunicare il valore della mia scelta&quot,, una due giorni (8-9 novembre) dedicata a chi opera nelle fattorie didattiche o a chi vorrebbe avvicinarsi a questo mondo. Grazie all'esperienza pluriennale in questo campo, la docente affronterà strumenti e strategie di comunicazione mirata per promuovere non solo i propri prodotti ma anche la ricchezza della filosofia di vita che è a monte: la qualità, letica, le proprietà benefiche, leducazione ad uno stile di vita consapevole. Il 27 e il 28 settembre, invece, sono dedicati a chi ama la natura e il disegno insieme a Luca Corradi, guida naturalistica e illustratore. Un fine settimana immersi nel verde per imparare ad immortalare flora, fauna e paesaggi con il tratto a matita, l'acquerello e - chi lo desidera - la china.Telefono: 0461/235723
Info: Feltro/Nunofeltro
Feltrare significa anche dare libero spazio allistinto, poiché lelemento essenziale per la creazione non sono le tecniche, ma lindividuo con il suo carattere e la sua umanità.
Tre giornate per interiorizzare le regole fondamentali del feltro e del nunofeltro, realizzando il proprio progetto personale: borse, cappelli, ciabatte o altro. Il corso, rivolto a tutti, pone le basi per continuare a sperimentare anche da soli.
Quando
19 - 21 settembre 2014
Dove
Immersa nel bosco della Val di Cembra, e poco distante dal paese di Segonzano, Casa Magnola si trova a 900 metri daltitudine. Recentemente ristrutturata si sviluppa su due livelli: al primo piano un'ampia sala da pranzo, alcune aule, una biblioteca e una zona relax dove leggere o chiacchierare. Al secondo piano, 12 stanze da letto mansardate con balcone per un totale di 55 posti letto e un'ampia sala in legno attrezzata con videoproiettore e impianto stereo. È dotata di ascensore ed è adatta ad accogliere persone disabili.
Docente
Agostina Zwilling, fondatrice dell'Italian Felt Academy
www.agostinazwilling.it
Programma
1° GIORNO/mattina (9.30 - 12.30)
 Cenni storici
Lana sucida: che cosè?
Come lavare la lana
Cardatura
Micron della lana
La struttura del pelo
Gli attrezzi
Organizzare il posto di lavoro
Come nasce il feltro
I tipi di lana
I tipi di feltro
 Teniche per feltrare ad acqua
Massaggio
Rullaggio
Follatura
Il pre-feltro
Le decorazioni
Correggere i difetti
Le cuciture non cuciture
Bordi irregolari
Primi campioni
Calcolare la quantità di lana da usare
Calcolare il fattore di calo
1° GIORNO/pomeriggio (14 - 17)
Elementi di composizione del feltro
corda tonda
corda piatta
filo stropicciato
fette di feltro
quadrati di feltro
perle ovali
tecniche di intaglio
2° GIORNO/mattina (9.30 - 12.30)
 Che cosè il Nuno-Feltro?
Dimostrazione di 4 tipi di Nuno-Feltro
Creazione di campioni con tutte le tecniche dimostrate
Valutazione e restituzione
2° GIORNO/pomeriggio (14 - 17)
 Scegliere, progettare e iniziare a realizzare il proprio progetto personale
Borsa
Cappello
Ciabatte
Sciarpa
Stola
Tappeto piccolo
3° GIORNO
Realizzazione e conclusione progetto personale
Valutazione e restituzione
Quota
 340 iva compresa a persona.
Il corso viene attivato con un minimo di 14 partecipanti.
La quota comprende:
 18 ore di lezione con orario: 9.30-12.30 e 14.00-17.00
 3 giorni/2 notti in pensione completa. Il servizio comprende la fornitura delle lenzuola e i rifacimento del letto è personale. La sistemazione è in stanze quadruple. Per specifiche esigenze contattare lorganizzazione.
 lana bergschaf e lana merinos extra fine per ogni corsista e altro materiale necessario alla lavorazione del feltro.
Linsegnante fornisce:
 bilance elettroniche
 sagome di legno (cappello)
 sagome di ciabatte
 stuoie per follare
 aghi per feltro
Ogni corsista deve portare i seguenti oggetti personali:
 1 grembiule impermeabile
 4 asciugamani e 2 grandi pezzi di lenzuolo vecchio
 1 blocco notes con penna, matita e gomma
 1 pennarello punta grossa, indelebile colore nero
 1 righello di 60 cm circa
 1 metro sartoriale
 1 forbice per tagliare plastica e carta
 set per cucire a mano
 forbici per carta
 calcolatrice
 cucitrice
 colla stick Pritt
 2 fogli di carta bianca 100 x 70 cm
 1 tubo tipo galleggiante per piscina
 abbigliamento comodo tessuti dalla trama larga e leggeri (chiffon di seta, cotone garzato, seta leggerissima, mussola di lana trama larga etc.)Altri organizzatori: Con.Solida",,,,Manifestazioni ed eventi,,,,0,,,,,,,Comune di Segonzano,0.0,0.0,,
pat_2542864,2014-08-09T00:00:00+02:00,2014-06-08T01:00:44+02:00,L'Avisio fra natura e storia,,,,,2014-08-09T00:00:00+02:00,2014-08-09T00:00:00+02:00,,,,"Prà di Segonzano, , Segonzano",,"
Note: Vivi l'Ambiente
Laboratorio itinerante, sabato 9 agosto
Laboratorio itinerante lungo il sentiero che costeggia il Torrente Avisio nei pressi del Castello di Segonzano. Conosceremo le piante spontanee e coltivate e gli insetti, che sono le sentinelle della qualità dellacqua del torrente.
Destinatari: tutti
Educatore ambientale: Giorgio Perini T. 349 6603163
Luogo: Prà di Segonzano
Orario e ritrovo: ore 09.00 c/o parcheggio lungo la strada provinciale in località Piazzo. Rientro ore 12.30 
Info e prenotazioni : APT Altopiano di Piné e Valle di Cembra, ufficio di Baselga di Piné T. 0461 557028, ufficio di Cembra T. 0461 683110 info@visitpinecembra.it
Collaborazioni: Comuni di Cembra e Giovo, Azienda per il Turismo Altopiano di Piné e Valle di Cembra
**
CENTRO DI ESPERIENZA ROTTA SAUCHe-mail: Ce.EdAmb.rottasauch@provincia.tn.itAltri organizzatori: P.A.T. Assessorato ai lavori pubblici, ambiente e ai trasporti - Agenzia provinciale per la protezione dellambiente - Rete trentina di educazione ambientale per lo sviluppo sostenibile",,,,Manifestazioni ed eventi,,,,0,,,,,,"http://www.appa.provincia.tn.it/educazioneambientale/|P.A.T. Assessorato ai lavori pubblici, ambiente e ai trasporti - Agenzia provinciale per la protezione dellambiente - Rete trentina di educazione ambientale per lo sviluppo sostenibile",Comune di Segonzano,0.0,0.0,,
pat_2542860,2014-07-26T00:00:00+02:00,2014-06-08T01:00:39+02:00,La riserva naturale provinciale di Lona Lases e il paesaggio agricolo di un tempo,,,,,2014-07-26T00:00:00+02:00,2014-07-26T00:00:00+02:00,,,,"Lago di Lases, , Lona - Lases",,"
Note: Vivi l'Ambiente
Laboratorio itinerante, sabato 26 luglio
Potremmo ammirare un ricco mosaico di ambienti naturali: il Lago di Lases, la torbiera e la Val Fredda con le singolari buche del ghiaccio. Un percorso in cui osservare anche i segni dellagricoltura ormai abbandonata, che ha contribuito a modificare lecosistema rurale e la biodiversità.
Destinatari: tutti
Educatore ambientale: Gabriella Gretter
T. 347 8147488
Luogo: Lona Lases
Orario e ritrovo: ore 09.00 c/o parcheggio in prossimità del Lago di Lases, adiacente la strada provinciale. Rientro ore 12.30
Info e prenotazioni: APT Altopiano di Piné e Valle di Cembra, ufficio di Baselga di Piné T. 0461 557028, ufficio di Cembra T. 0461 683110 info@visitpinecembra.it
Collaborazioni: Comuni di Cembra e Giovo, Azienda per il Turismo Altopiano di Piné e Valle di Cembra
**
CENTRO DI ESPERIENZA ROTTA SAUCHe-mail: Ce.EdAmb.rottasauch@provincia.tn.itAltri organizzatori: P.A.T. Assessorato ai lavori pubblici, ambiente e ai trasporti - Agenzia provinciale per la protezione dellambiente - Rete trentina di educazione ambientale per lo sviluppo sostenibile",,,,Manifestazioni ed eventi,,,,0,,,,,,"http://www.appa.provincia.tn.it/educazioneambientale/|P.A.T. Assessorato ai lavori pubblici, ambiente e ai trasporti - Agenzia provinciale per la protezione dellambiente - Rete trentina di educazione ambientale per lo sviluppo sostenibile",Comune di Lona-Lases,0.0,0.0,,
pat_2562933,2014-07-17T00:00:00+02:00,2014-07-13T01:02:49+02:00,'l sagron de la terza de lui,,,,,2014-07-17T00:00:00+02:00,2014-07-20T00:00:00+02:00,,,,"Verla - Piazzale delle ex scuole, , Giovo",,"
Note: 25ª edizione
XXV edizione della tradizionale festa campestre di Verla di Giovo. Durante le tre giornate ci saranno numerosi stand gastronomici nei quali degustare i prodotti e i piatti tipici trentini e la cucina internazionale. Cuore dellevento sono i momenti musicali che allieteranno tutto il week-end con concerti serali. Per tutta la durata della festa ci sarà un servizio bar e cucina con piatti tipici trentini.
Organizza: Gruppo Verla Iniziative.Info: Gruppo Verla Iniziative gvisagron@gmail.comTelefono: 0461/683110",,,,Manifestazioni ed eventi,,,,0,,,,,,http://www.visitpinecembra.it,Comune di Giovo,0.0,0.0,,Redazione Trentino Cultura
pat_2563081,2014-07-14T00:00:00+02:00,2014-07-16T01:02:55+02:00,Simposio Internazionale di scultura in pietre trentine,,,,,2014-07-14T00:00:00+02:00,2014-07-19T00:00:00+02:00,,,,"Albiano, , Albiano",,"
Note: Si terrà ad Albiano dal 14 al 19 luglio l'edizione 2014 del «Simposio internazionale di scultura in Pietre trentine». Sei scultori di fama internazionale, selezionati su una rosa di 98 candidati che hanno aderito ad un pubblico bando internazionale, saranno ospitati nella splendida cornice dalla Valle di Cembra e ad Albiano e scolpiranno le pietre trentine per dar vita ad opere d'arte che possano entrare a far parte di palazzi e luoghi pubblici ove i visitatori possano prendere conoscenza e coscienza della bellezza e versatilità di materiali unici come il Porfido Trentino, la Tonalite di Carisolo, il Marmo Rosso di Trento, il Granito Rosa di Predazzo, il Granito Cima d'Asta. Il programma del simposio è stato presentao oggi a Trento nel corso di una conferenza stampa Cultura Informa dal sindaco di Albiano Mariagrazia Odorizzi e dallassessore comunale Patrizia Filippi.
Nonostante le difficoltà economiche del momento, i Comuni in particolare di Albiano, Capriana, Fornace e Lona Lases, appartenenti al quadrilatero del Porfido, hanno confermato di voler sostenere l'Iniziativa, assieme al Distretto del Porfido e delle Pietre Trentine, nella loro qualità di fondatori del Comitato. 
Il Comitato organizzatore del «Simposio internazionale di scultura in Pietre trentine» nasce nel 2013, su proposta del Comune di Albiano, che nel 2011 e 2012 ha organizzato il Simposio Internazionale di Scultura in Porfido, le cui opere monumentali in Porfido Trentino sono state plasmate dall'estro di artisti di fama internazionale ed abbelliscono il paesaggio urbano dell'abitato di Albiano.
Aderiscono all'iniziativa del Simposio, che si terrà ad Albiano dal 14 al 19 luglio 2014, i Comuni succitati e il Distretto del Porfido e delle Pietre Trentine, ma il respiro dell'iniziativa è di una vera rete fatta da operatori economici che si impegnano donando la materia prima da cui creare arte, oltre a grande disponibilità e da istituzioni pubbliche e private: Provincia Autonoma di Trento, Regione Trentino Alto Adige, B.I.M. dell'Adige, Comunità della Valle di Cembra, Fondazione il Porfido Oggi e Domani, Museo Casa Porfido, Consorzio Estrattivo Trentino, Cassa Rurale Lavis Valle di Cembra, Mediocredito T.A.A, istituzioni che rinnovano sostegno economico e morale.
È stata stretta una interessante collaborazione con dei Vignaioli Indipendenti che affiancano e sostengono nei momenti conviviali del Simposio di scultura, e aiutano a creare inediti momenti e performance, proponendo i vini che nascono sulle pietre che attraverso noi vengono scolpite. 
Grande soddisfazione e slancio per proporre una nuova edizione del Simposio derivano dal riconoscimento avuto per le opere create nel 2013.
Trentino Sviluppo, Trentino Sprint, CCIAA di Trento, Distretto del Porfido e delle Pietre Trentine hanno chiamato nel settembre dello scorso anno gli organizzatori per realizzare lo Stand Istituzionale della Provincia di Autonoma di Trento per l'edizione 2013 di Marmomacc a Verona, che sappiamo abbia riscosso interesse e numerosi visitatori.
Il Simposio internazionale di scultura in pietre trentine è una manifestazione di ricaduta trasversale lintento è di favorire un nuovo percorso di promozione che parte dal territorio, e che vuole valorizzare una risorsa comune e rappresentativa delle montagne che fanno parte di un patrimonio definito bene dell'Umanità, quali le Dolomiti.
Il Simposio internazionale di scultura è centrato solo sulle Pietre trentine, che sono tutt'oggi, importante risorsa economica per le casse degli enti locali proprietari dei lotti cava, dati in concessione alle aziende impegnate nello sfruttamento del lapideo trentino.La cultura, l'arte, il voler porre l'attenzione su un territorio in difficoltà facendone riscoprire la bellezza e le potenzialità, diventano, strumenti di promozione di un settore importante ma in forte stagnazione, occasione di dialogo tra istituzioni, attori economici, intellettuali.
Info: Madre Terra, il tema scelto per il Simposio di scultura in pietre trentine, sarà il filo che vuole riunire l'uomo alle sue origini, riportarlo a contatto con il territorio cui appartiene, attraverso l'arte a tutto tondo.
Le caratteristiche geo-fisiche della pietra su cui scivola l'acqua che beviamo e crescono i frutti che mangiamo possono spiegare la storia dell'uomo, il suo essere sociale, attraverso il legame con il suo territorio.
Sono previsti momenti di incontro tra gli artisti e la popolazione locale e le istituzioni più rappresentative del nostro territorio. momenti di discussione in cui ci aspettiamo che pubbliche istituzioni, tecnici, addetti ai lavori partecipino ad un dialogo voluto per far ripartire il lapideo trentino.
I cantieri dedicati alla lavorazione del porfido, calata la sera si trasformeranno in teatri a cielo aperto dove accogliere suoni d'orchestrali che rievocano suoni della terra
PROGRAMMA
Lunedì 14 luglio 
ore 11.30: Cerimonia di benvenuto/inaugurazione del Simposio di Scultura con consegna cantiere e inizio lavori presso la Mensa Comunale di Albiano Loc. Montegaggio
Giovedì 17 Luglio 
ore 18: Tavola rotonda presso sala conferenze Muse di Trento: Le Pietre Trentine tra Scultura e Design. Il Futuro quale ritorno alle Origini
(relatori: Mariagrazia Odorizzi, Sindaco Albiano, dott. Michele Lanzinger, Direttore Museo delle Scienze di Trento, Francesco Panceri, Scultore/Direttore artistico Simposio, Ing. Danilo Balzan, Studio Pallaoro Balzan e Associati).
Sabato 19 Luglio 
ore 19.30: Cerimonia di chiusura del Simposio: 
Presentazione degli artisti partecipanti al Simposio e delle opere realizzate 
presso Cava Loc. Scalin di Albiano
a seguire, in collaborazione con Fondazione il Porfido Oggi e Domani nella stessa Cava Loc. Scalin di Albiano,
Concerto di Gala di chiusura del Simposio dal titolo: 
[re/prae/sento] a cura del Corpo Bandistico Albiano
dirige Maestro Marco Somadossi
con la partecipazione di Pepè Fiore percussionista 
Il cantiere del Simposio presso Piazzale della Mensa Comunale di Albiano
Loc. Cave Montegaggio è aperto al pubblico 
dal 14 al 19 luglio ore 9  18 
**
Per conoscere ulteriori dettagli e aggiornamenti:
http://simposiosculturapietretrentine.tumblr.com
https://www.facebook.com/internationalsymposium.trentinostone?ref=tn_tnmn
Riferimenti:
Comitato Simposio Internazionale di scultura su Pietre Trentine
Via D.L. Albasini, nr. 8
38041 Albiano (TN)
referente Patrizia Filippi 347 9924227 - 392 1048810simposiosculturapietretrentine@gmail.com",,,,Manifestazioni ed eventi,,,,0,,,,,,,Comune di Albiano,0.0,0.0,,
pat_2544475,2014-07-13T00:00:00+02:00,2014-06-22T01:01:38+02:00,A spas per el Comun,,,,,2014-07-13T00:00:00+02:00,2014-07-13T00:00:00+02:00,,,dalle ore 9.30,"Baita Monte Pat, , Sover",,"
Note: Passeggiata gastronomica e non solo, di circa 7 km, con un dislivello di 400 m, con degustazioni nelle varie località, alla scoperta degli scorci più suggestivi di Sover.
Programma:
 9.30 ritrovo a Baita Monte Pat e distribuzione del gadget e di una bottiglietta dacqua,
 10.00 partenza della passeggiata,
 10.30 colazione al Bait dei Caselini con caffè, succo, pane e nutella e musica con la fisarmonica del Diaolin,
 11.00 a Camorè degustazione del miele dellApicoltura Marco Vettori e del latte in tutte le sue forme dellAz. Agr. Le Mandre,
 11.45 aperitivo con bondola, accompagnato dai Trombettisti Fleimstal Brazband a Malga Alta,
 12.30 pranzo con polenta, fagioli, luganega o tosella e sambuco a Malga Vernera e, per i più giovani, la tirolese,
 14.40 racconti con il Custode Forestale Flavio Dallavalle,
 15.00 al Bait della Renata merenda con i dolci della Reny,
 16.00 al Bait de la Dezima frutta in compagnia della fisarmonica di Mattia,
 16.30 rientro a Baita Monte Pat con bolle di sapone e animazione per bambini.
Quota di partecipazione:
- per iscrizioni entro mercoledì 9 luglio: adulti  20,00, bambini da 4 a 11 anni 15,00, bambini fino ai 3 anni gratis,
- per le iscrizioni il giorno dellevento: adulti  23,00, bambini da 4 a 11 anni 18,00, bambini fino ai 3 anni gratis.
Iscrizioni entro le 12 di mercoledì 9 luglio presso la Segreteria del Comune di Sover 0461 698023 o lEdicola Borseghini di Baselga di Piné 0461 558085.
La manifestazione avrà luogo con qualsiasi condizione meteorologica.
Organizza: Comune di Sover.
Info: 
Alessandro 345 5917902, 
Elio 348 8330010, Marina 328 0881481Telefono: 0461/557028 (APT PinéCembra)",,,,Manifestazioni ed eventi,,,,0,,,,,,http://www.visitpinecembra.it,Comune di Sover,0.0,0.0,,Redazione Trentino Cultura
pat_2553226,2014-07-12T00:00:00+02:00,2014-07-10T15:43:29+02:00,Complesso strumentale italiano,,,,,2014-07-12T00:00:00+02:00,2014-07-12T00:00:00+02:00,,,ore 20.30 (in caso di maltempo Chiesa Parrocchiale),"Lases - Piazza del campanile, , Lona - Lases",,"
Note: Antichi organi e strumenti della Valsugana
Complesso strumentale italiano
Pierluigi Mencattini - Giovanni Rota violini
Galileo di Ilio celloWalter dArcangelo cembaloAltri organizzatori: Ensemble Girolamo Frescobaldi",,,,Musica classica,,,,0,,,,,,http://www.ensemblefrescobaldi.it|Ensemble Girolamo Frescobaldi,Comune di Lona-Lases,0.0,0.0,,Redazione Trentino Cultura
pat_2541493,2014-06-08T00:00:00+02:00,2014-05-24T01:00:44+02:00,Il cucchiaio dell'Argentario,,,,,2014-06-08T00:00:00+02:00,2014-06-08T00:00:00+02:00,,,dalle ore 8.30,"Civezzano, Fornace ed Albiano, , Val di Cembra",,"
Note: Passeggiata alla scoperta dei Canopi tra spuntini golosi e spettacoli emozionanti
Quinta edizione della manifestazione cultural-gastronomica lungo un percorso con punti tappa, che si svolge nei boschi e sui prati di Civezzano, Fornace ed Albiano.
Una passeggiata allinsegna dellenogastronomia, della natura, della cultura , una giornata per rivivere insieme gli usi ed i costumi dei canopi.
Altra novità di questanno sono i punti dedicati ai nostri amici a quattro zampe (cani): sarà possibile, infatti, trovare in alcuni punti tappa le ciotole con acqua e cibo appositamente per loro.
Quota di partecipazione 
con ISCRIZIONE entro il 4 GIUGNO 
 22,00 adulti
 15,00 bambini dai 3 ai 12 anni non compiuti 
 5,00 bambini fino a 3 anni non compiuti
on ISCRIZIONE l8 GIUGNO
 30,00 adulti
 20,00 bambini dai 3 ai 12 anni non compiuti
 5,00 bambini fino a 3 anni non compiuti
PIANO FAMIGLIA: valido solo con la prevendita entro il 4 giugno 2014
1 adulto + 1 bambino fino ai 12 anni non compiuti  30,00,
2 adulti + 1 bambino fino ai 12 anni non compiuti  45,00,
2 adulti + 2 bambini fino ai 12 anni non compiuti  60,00,
2 adulti + 3 bambini fino ai 12 anni non compiuti  75,00
Il pagamento può essere effettuato:
1) presso 
 Associazione Ecomuseo dellArgentario a Civezzano, Piazza Battisti, 1 (cell. 335 6514145)
 A.p.T. Pinè Cembra a Baselga di Piné, Via C. Battisti, 106 (tel. 0461 557028)
 A.p.T. Piné Cembra a Cembra, Piazza San Rocco, 10 (tel. 0461 683110)
2) tramite bonifico bancario entro il 4 giugno 2014
Associaizone Ecomueseo Argentario presso Cassa Rurale Pinetana Fornace e Seregnano
IBAN IT27X08316 34331000002069617 Causale: Il Cucchiaio dellArgentario -Cognome Nome  n. adulti - n. bambini paganti- n. bambini non paganti  recapito telefonico
Importante: inviare entro le ore 18.00 del 4 giugno una mail a ilcucchiaiodellargentario@gmail.com, oppure un fax al n. 0461 557577, indicando cognome e nome di tutti gli iscritti (specificando l'età) e allegando copia del documento attestante il pagamento.3) direttamente il giorno dellevento (entro le ore 10.00), in contanti, fino al raggiungimento del numero massimo di iscritti (1.000 persone).Telefono: 0461/683110 (APT dell'Altopiano di Pinè e Valle di Cembra)Fax: 0461/557577 (APT dell'Altopiano di Pinè e Valle di Cembra)",,,,Manifestazioni ed eventi,,,,0,,,,,,http://www.visitpinecembra.it,Comune di Segonzano,0.0,0.0,,Redazione Trentino Cultura
pat_2542832,2014-06-07T00:00:00+02:00,2014-06-08T01:01:02+02:00,Concerto organistico,,,,,2014-06-07T00:00:00+02:00,2014-06-07T00:00:00+02:00,,,ore 20.45,"Verla - Chiesa parrocchiale, , Giovo",,"
Note: Concerto del festival organistico &quot,Franz Ignaz Worle&quot, tenuto dal grande organista croato PAVAO MAIĆSarà presente un maxischermo per facilitare l'ascolto Telefono: 0461/557028",,,,Musica classica,,,,0,,,,,,http://www.visitpinecembra.it,Comune di Giovo,0.0,0.0,,Redazione Trentino Cultura
pat_2541511,2014-05-24T00:00:00+02:00,2014-05-24T01:00:22+02:00,Maledeta la sia questa guera,,,,,2014-05-24T00:00:00+02:00,2014-05-24T00:00:00+02:00,,,ore 21.00," Piazza San Biagio, , Albiano",,"
Note: In occasione del centenario della Grande Guearra, il Coro San Biagio, la corale Vox Cordis di Fornace e la filodrammatica San Martino di Fornace propongono un evento musical-teatrale con canti storici e spaccati di vita quotidiana. La storia narra eventi accaduti ad Albiano, prima e durante la guerra, tratti da testimonianze orali e scritte degli anziani del paese, da articoli di quotidiano e libri, in una sinergia di canto e recitazione. Ingresso libero.Organizzano: Coro San Biago, Coro Vox Cordis e Filodrammatica San Martino.Altri organizzatori: Associazione Bocciofila Albiano ",,,,Musica,,,,0,,,,,,http://www.visitpinecembra.it|Associazione Bocciofila Albiano ,Comune di Albiano,0.0,0.0,,Redazione Trentino Cultura
pat_2540629,2014-05-18T00:00:00+02:00,2014-05-14T14:00:56+02:00,Concerto per violino e organo,,,,,2014-05-18T00:00:00+02:00,2014-05-18T00:00:00+02:00,,,ore 20.45,"Verla - Chiesa parrocchiale, , Giovo",,"
Note: Concerto d'apertura del festival organistico &quot,Franz Ignaz Worle&quot,
Lorenzo Ghielmi, organo 
Eshter Crazzolara, violinoSarà presente un maxischermo per facilitare l'ascolto Telefono: 0461/557028",,,,Musica classica,,,,0,,,,,,http://www.visitpinecembra.it,Comune di Giovo,0.0,0.0,,Redazione Trentino Cultura
pat_2532794,2014-05-18T00:00:00+02:00,2014-04-26T01:03:42+02:00,Dürerweg-Sentiero del Dürer,,,,,2014-05-18T00:00:00+02:00,2014-05-18T00:00:00+02:00,,,,"Cembra - Castello di Segonzano, , Segonzano",,"
Note: Trekking culturale in Valle di Cembra
Giornata dedicata al Dürer Weg, il sentiero del Dürer in Valle di Cembra con un trekking culturale adatto a tutti, che da Cembra, tra centri storici e vigneti terrazzati, porta, attraverso lantica Corvaia e il Ponte di Cantilaga sullAvisio, al Castello di Segonzano. Il sentiero conduce nei luoghi attraversati da Albrecht Dürer, il più grande pittore del Rinascimento tedesco, che, diretto a Venezia, dedicò alla Valle di Cembra sei splendidi acquarelli. Gli accompagnatori di territorio vi guideranno alla scoperta di angoli storico-artistici e inediti scorci di paesaggio, con brevi soste lungo il percorso per degustare i vini e i prodotti deccellenza del territorio. Per concludere il trekking vi aspetta il pranzo rustico al Castello di Segonzano. 
Programma:
 7.45 ritrovo dei partecipanti presso lA.p.T. Piné Cembra a Cembra, presentazione del programma spuntino con mela La Trentina e consegna del gadget,
 8.00 partenza del trekking verso la chiesa di San Rocco,
 9.00 attraversamento del torrente Avisio e proseguimento verso Piazzole lungo lantica via dei pellegrini,
 10.30 panoramica sui terrazzamenti della valle da Prada di Sevignano e degustazione dei prodotti della Strada del Vino e dei Sapori del Trentino: acqua sciroppata con menta, melissa e salvia e cuori di fregoloti e torta della mamma a cura di Renata Bazzanella della Pensione Maria Turismo Rurale,
 12.00 punto panoramico sulla Piramidi di Segonzano e aperitivo con il Mueller Thurgau della Valle di Cembra al Chiosco Bar Piramidi,
 13.00 pranzo rustico trentino nei giardini di palazzo a Prato a Piazzo di Segonzano a cura del Gruppo Giovani di Segonzano e del Gruppo Alpini di Sevignano, accompagnati dal quintetto darchi e clarinetto. Inoltre gli artisti Lionello Nardon, Giuliana Pojer e Caterina Marinelli interpretano il Duerer,
 15.00 benvenuto musicale con il Coro Piramidi di Segonzano al Castello di Segonzano,
 16.00 arrivo al Ponte di Cantilaga sullAvisio e alle 16.45 degustazione dolce e salata di prodotti trentini a cura delle Donne Rurali di Faver, accompagnata dai vini dei Cembrani DOC sullantica via della Corvala,
 17.30 arrivo a Cembra e brindisi con le bollicine del Trento DOC di Cembra Cantina di Montagna, accompagnate dai dolci tipici realizzati dalle Donne Rurali.
Inoltre, per chi desidera dalle 15.30 alle 19 Cembra Cantina di Montagna è aperta e tutti i partecipanti al trekking potranno visitarla ed acquistare i suoi pregiati vini con uno sconto del 5%.
**
Info e iscrizioni
Quota di partecipazione per iscrizioni entro mercoledì 14 maggio:
- adulti  15,00, bambini fino a 12 anni non compiuti e over 65  10,00, bambini fino a 3 anni  5,00.
Per le iscrizioni dopo il 14 maggio e il giorno dellevento maggiorazione di  5,00.
Iscrizioni presso lA.p.t. Piné Cembra o attraverso bonifico bancario intestato a: Associazione di Promozione Sociale Giovani di Segonzano, IBAN: IT15 Y081 2035 4500 0000 8731 087, codice BIC: CRRTIT2T30A, indicando come causale Trekking culturale Dürerweg, è inoltre fondamentale indicare nome e cognome dei partecipanti, il numero di adulti e di bambini e un recapito telefonico.
Liscrizione il giorno dellevento, in contanti, prevede una maggiorazione di  5,00.
Non è previsto in alcun caso il rimborso della quota discrizione.Organizzano: A.p.T. Piné Cembra e Comune di Segonzano in collaborazione con Comune di Giovo, Comune di Cembra, Comune di Faver, Strada del Vino e dei Sapori del Trentino, Associazione Dürerweg, Donne Rurali di Cembra e Faver, Gruppo Giovani di Segonzano e numerose Associazioni locali.Telefono: 0461/683110",,,,Manifestazioni ed eventi,,,,0,,,,,,http://www.visitpinecembra.it/,Comune di Segonzano,0.0,0.0,,Redazione Trentino Cultura
pat_2533111,2014-05-10T00:00:00+02:00,2014-05-02T01:02:19+02:00,Palazzi Aperti a Segonzano,,,,,2014-05-10T00:00:00+02:00,2014-05-10T00:00:00+02:00,,,,"Palazzo dei Baroni A Prato, , Segonzano",,"
Note: Palazzi Aperti
Sabato 10 maggio ore 14.00
PALAZZO DEI BARONI A PRATO
Visita guidata, a cura del prof. Elio Antonelli, al palazzo (XVI-XVII sec.) presso Piazzo di Segonzano. I Baroni a Prato sono proprietari del Castello di Segonzano dal 1535.
Per loccasione sarà, inoltre, possibile visitare anche la Cappella di S. Antonio (XVII sec.), colpita durante la Battaglia di Segonzano del 2 novembre 1796 fra le truppe napoleoniche e quelle imperiali
Info
Comune di Segonzano tel. 0461.686103
segreteria@comune.segonzano.tn.it www.comune.segonzano.tn.itTelefono: 0461/686103Altri organizzatori: Comune di Segonzano",,,,Manifestazioni ed eventi,,,,0,,,,,,http://www.comune.segonzano.tn.it|Comune di Segonzano,Comune di Segonzano,0.0,0.0,,Redazione Trentino Cultura
pat_2525464,2014-04-05T00:00:00+02:00,2014-03-27T01:05:57+01:00,Quei del terzo piano,,,,,2014-04-05T00:00:00+02:00,2014-04-05T00:00:00+02:00,,,ore 20.45,"Verla di Giovo - Teatro Oratorio, , Giovo",,"
Note: Filodrammatica di VerlaQuei del terzo pianoTelefono: 0461/237352 (Co.F.As.)Altri organizzatori: Filodrammatica di Verla",,,,Teatro,,,,0,,,,,,http://www.cofas.it|Filodrammatica di Verla,Comune di Giovo,0.0,0.0,,
pat_2524687,2014-03-20T00:00:00+01:00,2014-03-16T01:03:11+01:00,Gli alieni acquatici sono fra di noi,,,,,2014-03-20T00:00:00+01:00,2014-03-20T00:00:00+01:00,,,ore ore 9.00-12.00,"Biblioteca comunale, , Giovo",,"
Note: Giornata Mondiale dell'Acqua
Gli alieni acquatici sono fra di noi 
La vita segreta dei pesci in Trentino
Luogo - Orario: 
19 marzo ore 10.00-12.00 Biblioteca comunale di Cembra
20 marzo ore 9.00-12.00 Biblioteca comunale di Giovo
Descrizione attività: Laboratorio rivolto alla scuola primaria di Cembra e alla scuola secondaria di primo grado di Giovo. Documentari, immagini e disegni ci porteranno alla scoperta del mondo dei pesci quale componente essenziale degli ecosistemi acquatici e con adattamenti particolari allambiente e strategie singolari per la predazione e riproduzione. Conosceremo alcune specie di pesci alieni e i danni allittiofauna locale.
Collaborazione: Comuni di Giovo e Cembra
Info e contatti: Giorgio Perini (cell.: 3496603163)Ce.edamb.rottasauch@provincia.tn.itAltri organizzatori: Rete trentina di educazione ambientale ",,,,Manifestazioni ed eventi,,,,0,,,,,,http://www.appa.provincia.tn.it/|Rete trentina di educazione ambientale ,Comune di Giovo,0.0,0.0,,
pat_2524683,2014-03-18T00:00:00+01:00,2014-03-16T01:01:56+01:00,I paesaggi dell'acqua,,,,,2014-03-18T00:00:00+01:00,2014-03-18T00:00:00+01:00,,,ore ore 8.30-10.00 e 10.00-11.30 ,"Biblioteca comunale, , Giovo",,"
Note: Giornata Mondiale dell'Acqua
I paesaggi dell'acqua - La molecola della vita
Laboratori in biblioteca
Luogo e Orario:
17 Marzo ore 14.00-16.00 Biblioteca comunale di Cembra
18 Marzo ore 8.30-10.00 e 10.00-11.30 Biblioteca comunale di Giovo
Descrizione attività: Laboratorio rivolto alle scuole primarie di Cembra e Verla di Giovo, attraverso giochi ed esperimenti conosceremo la struttura e le azioni della molecola dellacqua nei confronti del territorio nonché i comportamenti corretti per salvaguardare questa risorsa fondamentale per la vita
Collaborazione: Comuni di Giovo e Cembra
Info e contatti: M. Gabriella Gretter (cell.: 3478147488)Ce.edamb.rottasauch@provincia.tn.itAltri organizzatori: Rete trentina di educazione ambientale ",,,,Manifestazioni ed eventi,,,,0,,,,,,http://www.appa.provincia.tn.it/|Rete trentina di educazione ambientale ,Comune di Giovo,0.0,0.0,,
pat_2495503,2014-03-02T00:00:00+01:00,2014-02-08T11:02:26+01:00,Pozzo di San Patrizio,,,,,2014-03-02T00:00:00+01:00,2014-03-02T00:00:00+01:00,,,ore 14.00-18.00,"Piazza Degasperi, , Albiano",,"
Note: In occasione dellultima domenica di Carnevale, festa ad Albiano.
Organizza: Gruppo Missionario ParrocchialeInfo: A.p.T. 0461 683110Altri organizzatori: Associazione Bocciofila Albiano ",,,,Manifestazioni ed eventi,,,,0,,,,,,http://www.visitpinecembra.it|Associazione Bocciofila Albiano ,Comune di Albiano,0.0,0.0,,Redazione Trentino Cultura
pat_2489361,2014-01-31T21:00:00+01:00,2014-01-23T15:41:52+01:00,Pù busie che poesie,,,,,2014-01-31T21:00:00+01:00,2014-01-31T21:00:00+01:00,,,ore 21.00,"Centro Culturale Molin de Portegnach, Località Molin de Portegnach, Faver",interno,"
Note: Sorgente '90. Eventi Stagione 2013/2014
Teatro
Filodrammatica &quot,I Dialettanti&quot, di Rovereto 
Pù busie che poesie
spettacolo brillante di e con Loredana Cont
«Se la ragione è il sale della vita, la poesia è lo zucchero», dice Loredana Cont nel suo ultimo lavoro Pù busie che poesie, un monologo brillante in cui, rispolverando la memoria scolastica, parla di poeti e di poesie, di donne e di busie, ma anche della vita di tutti i giorni che è spunto di divertita riflessione. Il tutto è, come sempre, condito da una buona dose di ironia e umorismo perché, come dice la Cont, lumorismo è lunica via di fuga dalla realtà che abbiamo. E di questi tempi ce nè proprio bisogno Loredana Cont, autrice e interprete dei suoi monologhi ma anche di testi teatrali tradotti nei vari dialetti regionali, è interprete convinta del dialetto trentino che ritiene essere un valore aggiunto da salvaguardare e non certamente un limite. Altri organizzatori: Associazione Sorgente '90",,,,Teatro,,,,0,,,,,,http://www.sorgente90.org|Associazione Sorgente '90,Comune di Faver,0.0,0.0,,
pat_2489360,2014-01-29T00:00:00+01:00,2013-11-20T09:05:59+01:00,Diamo un nome alle emozioni,,,,,2014-01-29T00:00:00+01:00,2014-01-29T00:00:00+01:00,,,ore 20.30,"Centro Culturale Molin de Portegnach, Località Molin de Portegnach, Faver",,"
Note: Sorgente '90. Eventi Stagione 2013/2014
Incontri
in collaborazione con l'Associazione Valle ApertaRabbia, paura, tristezza, gioia, sorpresa, disgusto, allegria, vergogna, nostalgia, delusione, speranza Quali sono i nomi delle emozioni che danno sapore e colore ai nostri pensieri, azioni, relazioni? Proviamo a darne uno sguardo, accompagnati da Domenico Marcolini, psicologo e psicoterapeuta, per molti anni collaboratore del Sert di Trento e attualmente, fra i suoi tanti incarichi, supervisore degli operatori di Valle Aperta. Prendendo spunto dalla lettura di alcuni scritti degli ospiti di Valle Aperta, proviamo ad acquisire un briciolo di consapevolezza sulle pulsioni che animano il nostro cuore, tanto spesso offuscate o &quot,senza nome&quot,...Altri organizzatori: Associazione Sorgente '90",,,,Convegno,,,,0,,,,,,http://www.sorgente90.org|Associazione Sorgente '90,Comune di Faver,0.0,0.0,,
pat_2493369,2014-01-27T00:00:00+01:00,2014-01-14T11:00:17+01:00,Tu passerai per il camino,,,,,2014-01-27T00:00:00+01:00,2014-01-27T00:00:00+01:00,,,ore 10.40,"Biblioteca Comunale, , Giovo",,"
Note: Tu passerai per il camino
Ricordo della Shoah 
con la voce solista di ALFONSO MASI
Un sopravvissuto di Auschwitz tutte le notti, nel sogno, rivive l'incubo del Lager: il viaggio di andata, l'arrivo, i primi giorni, il marchio, le proibizioni, la fame, le malattie, i soprusi, le selezioni, le camere a gas e la liberazione finale.
Antologia di letture da: 
Se questo è un uomo di Primo Levi (testo narrativo e teatrale), 
L'istruttoria di Peter Weiss, 
La notte di Elie Wiesel, 
L'eco del silenzio di Elisa Sprinter, 
Tu passerai per il camino di Vincenzo Pappalettera, 
Auschwitz 1940-1945 di Frediano Sessi, 
J'ai survécu à Auschwitz di Kryrstyna Zywulska, I venti bambini di Bullenhuser Damm.Telefono: 0461/684735",,,,Teatro,,,,0,,,,,,,Comune di Giovo,0.0,0.0,,
pat_2494102,2014-01-26T00:00:00+01:00,2014-01-23T11:01:57+01:00,Per non dimenticare,,,,,2014-01-26T00:00:00+01:00,2014-01-26T00:00:00+01:00,,,ore 20.30,"Teatro comunale, , Segonzano",,"
Note: Giorno della Memoria
Per non dimenticare: l'infanzia ad Auschwitz di un sopravvissuto all'olocausto. 
Incontro con Samuel Artale von Belskoj Levy Samuel Artale, nato a Rostok in Germania da una famiglia ebreo-prussiana, venne deportato ad Auschwitz-Birkenau il 13 aprile del 1944 assieme ai suoi genitori, la sorella e la nonna. E' l'unico sopravvissuto della sua famiglia.",,,,Convegno,,,,0,,,,,,,Comune di Segonzano,0.0,0.0,,Redazione Trentino Cultura
pat_2492667,2014-01-04T00:00:00+01:00,2014-01-04T11:01:20+01:00,Concerto di Natale,,,,,2014-01-04T00:00:00+01:00,2014-01-04T00:00:00+01:00,,,ore 20.45,"Verla - Chiesa parrocchiale, , Giovo",,"
Note: Festival organistico internazionale &quot,Fran Ignaz Worle&quot,, rassegna di musica classica giunta alla settima edizione
insieme per aiutare la ricerca sulla
DISTROFIA MUSCOLARE DI DUCHENNE
con l'associazione PARENT PROJECT
SOPRANO: Dania TosiORGANO: Simone VebberTelefono: 0461/557028",,,,Musica classica,,,,0,,,,,,http://www.visitpinecembra.it,Comune di Giovo,0.0,0.0,,Redazione Trentino Cultura
pat_2492270,2013-12-21T00:00:00+01:00,2013-12-21T11:00:37+01:00,La prima neve,,,,,2013-12-21T00:00:00+01:00,2013-12-21T00:00:00+01:00,,,ore 20.00,"Cinema Parrocchiale, , Albiano",,"
Note: Italia, 2013
Titolo originale: La prima neve
Genere: Drammatico
Durata: 130'
Regia: Andrea Segre
Cast: Anita Caprioli, Jean-Christophe Folly, Giuseppe Battiston, Paolo Pierobon, Peter MitterrutznerMichele è un undicenne che vive in Val di Mocheni, tra le montagne del Trentino, con la madre e il nonno paterno Pietro, apicoltore e falegname. Il padre è morto da poco, lasciando la famiglia, e in particolare Michele, in una situazione di profonda crisi. A questo dolore scorre parallela la sofferenza di Dani, un giovane originario del Togo fuggito dalla Guerra in Libia, ospite di un centro di accoglienza, incapace di accettare la sua paternità. Le loro vite si incrociano quando Dani viene mandato a lavorare da Pietro. L'inverno si avvicina con quella neve che Dani non ha mai visto e in questo scorrere del tempo Dani e Michele avranno modo di imparare a ascoltarsi e capirsi curando le proprie ferite.",,,,Cinema,,,,0,,,,,,http://www.trentinospettacoli.it,Comune di Albiano,0.0,0.0,,
pat_2491655,2013-12-14T00:00:00+01:00,2013-12-14T11:04:42+01:00,Il mio Natale a fumetti,,,,,2013-12-14T00:00:00+01:00,2013-12-14T00:00:00+01:00,,,ore 14.00,"Museo Casa Porfido, Via Don Luigi Albasini, 8, Albiano",,"
Note: Museo &quot,Casa Porfido&quot, organizza un laboratorio natalizio dedicato al disegno su diverse tipologie di materiali (carta, legno, pietra, ecc.) curato dai 2 noti fumettisti trentini Fabrizio Ognibeni e Ivan Passamani.
L'evento è rivolto a tutti i bambini di età compresa fra i 4 ed i 14 anni.
Al termine del laboratorio verrà distribuita una merenda a tutti i bambini!
Tariffe:  3,00 a bambino,  2,00 la sorellina/il fratellino
Informazioni e prenotazioni
tel. 0461 689799
fax 0461 689099
info@casaporfido.itwww.casaporfido.it Telefono: 0461/689799Altri organizzatori: Museo Casa Porfido",,,,Manifestazioni ed eventi,,,,0,,,,,,http://www.casaporfido.it|Museo Casa Porfido,Comune di Albiano,0.0,0.0,,
pat_2490918,2013-12-01T00:00:00+01:00,2013-12-06T11:00:58+01:00,Caterina Marinelli. Cani,,,,,2013-12-01T00:00:00+01:00,2013-12-15T00:00:00+01:00,,,"Inaugurazione 1 dicembre ore 17.00



Dal lunedì al venerdì ore 20.00-22.30

Sabato ore 18.00-22.30

Domenica 10.00-12.00 e 14.00-20.00","Auditorium delle Scuole, , Segonzano",,Note: A Cura di Daniela Rosi,,,,Mostra,,,,0,,,,,,,Comune di Segonzano,0.0,0.0,,
pat_2484494,2013-09-21T11:03:49+02:00,2013-09-21T11:03:49+02:00,Castagnata biana,,,,,2013-10-18T00:00:00+02:00,2013-10-20T00:00:00+02:00,,,,"Teatro Tenda, , Albiano",,"
Note: 29ª edizione
Festa autunnale dedicata ad uno dei prodotti caratteristici della Valle di Cembra: il marrone di Albiano, coltivato da tempo immemorabile e impiegato con grande versatilità nella cucina locale. La manifestazione ricorda i tempi lontani in cui le donne di Albiano intrecciavano lunghe ghirlande, infilzando le castagne con lausilio di una cordicella e scendevano a Trento per venderle in occasioni particolari. Presso il teatro tenda riscaldato, in centro al paese, degustazioni e vendita di specialità gastronomiche a base di castagne e farina di castagne. Durante le tre giornate di festa animazione per grandi e piccini, cucina tipica trentina, musica e ballo per tutti. 
Organizza: Comune di Albiano. 
Informazioni: A.p.T. 0461 683110Durante le tre giornate di festa funzionerà un grande spaccio con caldarroste, dolci di castagne, vin brulè e birra.Altri organizzatori: Associazione Bocciofila Albiano ",,,,Manifestazioni ed eventi,,,,0,,,,,,,Comune di Albiano,0.0,0.0,,Redazione Trentino Cultura
pat_2484490,2013-09-21T11:03:45+02:00,2013-09-21T11:03:45+02:00,Festa dei nonni,,,,,2013-09-29T00:00:00+02:00,2013-09-29T00:00:00+02:00,,,ore 14.30-18.00,"Museo Casa Porfido, Via Don Luigi Albasini, 8, Albiano",,"
Note: Accompagnati dai nonni, i bambini realizzeranno lavoretti utilizzando gli elementi naturali del bosco e il porfido del territorio. E mentre i nonni dalle 16.30 alle 18 visiteranno con una guida il museo, i bambini assisteranno ad uno straordinario spettacolo col clown.Organizza: Museo Casa Porfido.Telefono: 0461/689799Altri organizzatori: Museo Casa Porfido",,,,Manifestazioni ed eventi,,,,0,,,,,,http://www.casaporfido.it|Museo Casa Porfido,Comune di Albiano,0.0,0.0,,
pat_2482390,2013-09-20T00:00:00+02:00,2013-08-23T10:31:09+02:00,Festa dell'uva. 56ª edizione,,,,,2013-09-20T00:00:00+02:00,2013-09-22T00:00:00+02:00,,,,"Verla di Giovo, , Giovo",,"
Note: 56^ edizione della Festa dellUva, la festa più antica nel suo genere della regione Trentino-Alto Adige. Espressione di un territorio agricolo tra i più caratteristici dellarco alpino, la festa celebra lunione tra uomo e ambiente. Nellarco delle tre giornate, le vie del centro storico saranno animate da percorsi enogastronomici per degustare i prodotti del territorio, tra i quali il vino, le grappe, i piccoli frutti e il miele locale. Presso il padiglione centrale mescita di vini e piatti della cucina tradizionale cembrana con intrattenimento musicale e ballo.
Il clou della manifestazione sarà domenica con la 25^ Marcia dellUva, gara podistica non competitiva, il cui percorso si snoda attraverso i caratteristici vigneti della Valle di Cembra e la tradizionale sfilata dei carri allegorici per le vie del centro di Verla.Durante le tre giornate di festa ci saranno musica, balli, intrattenimenti per grandi e piccini e servizio bar e cucina con specialità trentine.Telefono: 0461/683110 (APT Altopiano di Pinè Valle di Cembra)Fax: 0461/683257 (APT Altopiano di Pinè Valle di Cembra)
Info: VENERDI 20 SETTEMBRE
 18.00 Centro storico: Apertura circuito artistico - culturale
 19.00 Centro storico: Apertura stand enogastronomici e di intrattenimento. Degustazione vini tipici della Valle di Cembra
 20.00 Le vie del Gusto percorso enogastronomico in sei tappe tra le vie del centro storico
 21.00 Padiglione centrale: Serata Beat, musica dei mitici anni 70. Saliranno sul palco i gruppi storici di Giovo e della Valle di Cembra
 21.00 Centro storico: Intrattenimenti musicali negli stand del centro storico
SABATO 21 SETTEMBRE
 11.00 Sala Consiliare Comune di Giovo: Premiazione concorso letterario: SENSIdiVIAGGIO
 15.00 Laboratori per bambini
 19.00 Stand &quot,Alla corte di Bacco&quot,: l'esperienza dei Cembrani DOC
 A seguire, degustazione con i vini delle Colline Avisiane, Faedo e della Valle di Cembra
 21.00 Centro storico: Apertura circuito artistico culturale, stand enogastronomici e di intrattenimento. Degustazione vini tipici della Valle di Cembra
 21.00 Centro storico: Intrattenimenti musicali negli stand del centro storico
 21.00 Centro storico: Intrattenimenti artistici itineranti lungo le vie del centro storico
 21.00 Padiglione centrale: Musica e ballo con &quot,GIANNI DRUDI e LAURA FREDDI&quot,
 21.30 Piazzetta Molinari: 6° Palio dei Congiai - Parteciperanno i gruppi allestitori dei carri allegorici
DOMENICA 22 SETTEMBRE
 9.00- 10.00 Padiglione centrale: partenza della 25° Marcia dellUva
 9.30 Padiglione centrale: intrattenimento musicale con Simone e Danilo
 10.30 Chiesa S. Maria Assunta (Verla di Giovo): Affetti Barocchi - Concerto per organo, flauto a becco e traversiere
 10.00 Centro storico: Apertura circuito artistico-culturale, stand enogastronomici e di intrattenimento. Degustazioni vini tipici della Valle di Cembra
 12.00 Padiglione centrale: premiazione della 25° Marcia dellUva con ricchi premi e lotteria
 14.30 GRANDE SFILATA DEI CARRI ALLEGORICI
Dal 1958 costituisce il fulcro della festa, essenza e memoria di un evento tra i più significativi dellautunno in Valle di Cembra.
Apre la sfilata il corteo delle ragazze in costume, a seguire il carro vendemmiale con distribuzione gratuita di uva schiava e vino, quindi i carri allegorici in concorso scanditi da bande musicali e gruppi folcloristici
 17.00 Padiglione centrale: Spettacoli ed intrattenimenti artistico - musicali
 17.00 Centro storico: Degustazione vini tradizionali della Valle di Cembra
 19.15 Padiglione centrale: Premiazione dei carri che hanno partecipato alla 56° edizione Festa dellUva ed estrazione lotteria organizzata dall'U.S. Verla 21.00 Padiglione centrale: Chiusura della 56° Festa dellUva con musica e balli countryAltri organizzatori: Comitato Organizzatore Festa dell'Uva in collaborazione con numerosi enti ed associazioni del volontariato",,,,Manifestazioni ed eventi,,,,0,,,,,,http://www.festadelluva.tn.it|Comitato Organizzatore Festa dell'Uva in collaborazione con numerosi enti ed associazioni del volontariato,Comune di Giovo,0.0,0.0,,Redazione Trentino Cultura
pat_2470366,2013-03-23T00:00:00+01:00,2013-03-21T11:19:56+01:00,Pù busie che poesie,,,,,2013-03-23T00:00:00+01:00,2013-03-23T00:00:00+01:00,,,ore 20.45,"Teatro di Stedro, , Segonzano",,"
Note: Loredana Cont
Pù busie che poesie
spettacolo brillante di e con Loredana Cont
«Se la ragione è il sale della vita, la poesia è lo zucchero», dice Loredana Cont nel suo ultimo lavoro Pù busie che poesie, un monologo brillante in cui, rispolverando la memoria scolastica, parla di poeti e di poesie, di donne e di busie, ma anche della vita di tutti i giorni che è spunto di divertita riflessione. Il tutto è, come sempre, condito da una buona dose di ironia e umorismo perché, come dice la Cont, lumorismo è lunica via di fuga dalla realtà che abbiamo. E di questi tempi ce nè proprio bisogno Loredana Cont, autrice e interprete dei suoi monologhi ma anche di testi teatrali tradotti nei vari dialetti regionali, è interprete convinta del dialetto trentino che ritiene essere un valore aggiunto da salvaguardare e non certamente un limite. Telefono: 0461/557028 ",,,,Teatro,,,,0,,,,,,http://www.visitpinecembra.it,Comune di Segonzano,46.187572,11.261346,,Redazione Trentino Cultura
pat_2397089,2012-02-14T22:10:52+01:00,2012-02-14T22:10:52+01:00,Pozzo di San Patrizio,,,,,2012-02-19T00:00:00+01:00,2012-02-19T00:00:00+01:00,,,ore 13.00-17.00,"Piazza Degasperi, , Albiano",,"
Note: Distribuzione di pacchi con offerta libera. Il ricavato della giornata verrà devoluto in beneficenza ai missionari. 
Organizza: Gruppo Missionario di Albiano. Informazioni: Gruppo Missionario di Albiano 349 6022520Telefono: 0461/557028",,,,Manifestazioni ed eventi,,,,0,,,,,,http://www.visitpinecembra.it,Comune di Albiano,46.145963,11.194537,,Redazione Trentino Cultura
pat_2397086,2012-02-14T22:10:51+01:00,2012-02-14T22:10:51+01:00,Qualchedun ha fat i corni,,,,,2012-02-18T00:00:00+01:00,2012-02-18T00:00:00+01:00,,,ore 20.45,"Teatro di Stedro, , Segonzano",,"
Note: Filodrammatica La Grinta di Arco 
Qualchedun ha fat i corni
Spettacolo comico in dialetto trentino 
di Loredana Cont 
Regia di Paola Gretter
Con
Elena la mamma: Baldessari Mariolina
Danila unamica: Alimonta Annamaria
Stefano figlio di Elena: Bommartini Roberto
Linka fidanzata di Stefano: Bertamini Gisella
Sandro marito di Elena: Mazzardi Benito
La nonna: Failo Bice
Petra la mamma di Linka: Tavernini Lucia
Nino marito di Danila: Abate Alessandro
Luci e suoni: Morandi Giovannino
Suggeritrice: Caproni Liliana
Aiutante di scena: Maestranzi Corrado
Presenta: Vassallo FrancoLa trama di questa commedia è semplice ma si complica per lomonimia dei personaggi, e la complicità fra uomini, Questa storia mette in subbuglio due famiglie. Il presunto fedifrago, si dichiara estraneo ai fatti ma cè poco che dimostra la propria innocenza. Alla fine si risolve tutto con una sorpresa.Telefono: 0461/557028 ",,,,Teatro,,,,0,,,,,,http://www.visitpinecembra.it,Comune di Segonzano,46.187649,11.257387,,Redazione Trentino Cultura
pat_2397190,2012-02-14T22:10:27+01:00,2012-02-14T22:10:27+01:00,Delitti - quasi - perfetti,,,,,2012-03-31T00:00:00+02:00,2012-03-31T00:00:00+02:00,,,ore 20.45,"Teatro di Stedro, , Segonzano",,"
Note: Filodrammatica &quot,Nuova Ribalta&quot, di Segonzano
Delitti - quasi - perfetti di Lina LisciottoTelefono: 0461/557028 ",,,,Teatro,,,,0,,,,,,http://www.visitpinecembra.it,Comune di Segonzano,46.187649,11.257387,,Redazione Trentino Cultura
pat_2397188,2012-02-14T22:10:27+01:00,2012-02-14T22:10:27+01:00,Troppa grazia Sant'Antoni,,,,,2012-03-17T00:00:00+01:00,2012-03-17T00:00:00+01:00,,,ore 20.45,"Teatro di Stedro, , Segonzano",,"
Note: Filo &quot,Doss Caslir&quot, di Cembra
Troppa grazia Sant'Antoni 
di Eduardo Scarpetta
traduzione e adattamento di Riccardo Gottardi
Regia di Luciano LonaEmanuele, un giovane nobile innamorato della figlia di un cuoco arricchito, temendo che la propria famiglia non accetti il matrimonio, si accorda con Arturo lo scrivano pubblico e con Anselmo il fotografo ambulante perchè impersonino i suoi aristocratici parenti tedeschi davanti al padre dell'amata Sofia. L'inganno, tra gaffe e gustose scenette, sembra funzionare. L'intrusione improvvisa di Anna, la compagna dello scrivano, complica la vicenda che si risolve con un intervento inaspettato per la felicità di tutti.Telefono: 0461/557028 ",,,,Teatro,,,,0,,,,,,http://www.visitpinecembra.it,Comune di Segonzano,46.187649,11.257387,,Redazione Trentino Cultura
pat_2397186,2012-02-14T22:10:00+01:00,2012-02-14T22:10:00+01:00,Quatro ciacere 'n tel spiaz,,,,,2012-03-03T00:00:00+01:00,2012-03-03T00:00:00+01:00,,,ore 20.45,"Teatro di Stedro, , Segonzano",,"
Note: Filodrammatica San Rocco
Quatro ciacere 'n tel spiaz
di Camillo Vittici
traduzione in dialetto trentino di Piergiorgio Lunelli
Personaggi I nterpreti
Teresa, la madre Elena Stenico
Nicolina, la figlia Laura Holler
Bepo, il figlio Davide Pederzolli
Pero, marito di Adalgisa Cristiano Viola
Nicola, marito di Teresa Enzo Nardon
Romilda, amica di Teresa Rita Pellegrini
Personaggi I nterpreti
Adalgisa, amica di Teresa Daniela Mosna
Giacomo, il maestro Renzo Malfatti
Gigi, un vicino Gerry Vulcan
Il dottore Daniele Stenico
Palmiro Francesco Piazzera
Rammentatrici Francesca Holler, Michela Chiogna, Margherita Garzetti
Trucco Michele Fronza
Regia Francesco PiazzeraDue atti comici ambientati nel cortile di un paesino. Dove tutti si conoscono. Dove tutti sanno di tutti. Dove chiacchiere, pettegolezzi, piccole vicende di vita quotidiana si incrociano in una trama di amori, speranze, illusioni. Uno spaccato di umanità in cui riconoscersi sorridendo e consolidando così un significativo spirito e impegno di comunità.Telefono: 0461/557028 ",,,,Teatro,,,,0,,,,,,http://www.visitpinecembra.it,Comune di Segonzano,46.187649,11.257387,,Redazione Trentino Cultura
pat_2402044,2012-07-15T00:00:00+02:00,2013-01-03T08:55:47+01:00,Scampagnate in fattoria: Azienda Agricola Mirtilla,,,,,2012-07-15T00:00:00+02:00,2012-07-15T00:00:00+02:00,,,ore 10.00-17.00,"Azienda Agricola Mirtilla, frazione Gaggio, 17, Segonzano",,"
Note: Scampagnate in fattoria
Azienda Agricola Mirtilla
da Mirta Giacomozzi
fraz. Gaggio 17 - Segonzano tel. 347 2500034
e-mail:mirtilla2005@libero.it
Nella nostra azienda coltiviamo piccoli frutti, ortaggi e pratichiamo la fienagione per allevare due mucche. Tramite la vendita diretta offriamo prodotti biologici di stagione e trasformati. Nella ricerca della valorizzazione di materiali fornitici dal territorio svolgiamo attività artistico-tradizionali della lana e del legno. Venendo a trovarci potrai visitare la nostra azienda, assaggiare i nostri prodotti, partecipare al laboratorio di filatura, tintura e cardatura della lana, fare un oggetto in feltro, lavorare il legno del nocciolo, costruire cesti e archi.Telefono: 0461/421214 Altri organizzatori: Confederazione Italiana Agricoltori Donne in Campo del Trentino",,,,Manifestazioni ed eventi,,,,0,,,,,,,Comune di Segonzano,46.20567,11.288912,,
pat_2403780,2012-05-11T11:04:08+02:00,2012-05-11T11:36:23+02:00,Giornata Mihiri,,,,,2012-05-27T00:00:00+02:00,2012-05-27T00:00:00+02:00,,,ore 12.00,"Centro Didattico Ambientale, , Segonzano",,"
Note: Gli Amici di Casa Mihiri sono lieti di organizzare per domenica 27 maggio 2012 alle ore 12,00, presso il Centro Didattico Ambientale, Località Magnola di Segonzano - Val di Cembra Tn, il Pranzo dell'Amicizia di Casa Mihiri. Sarà presente Lorenzo Bacci responsabile di Casa Mihiri in Sri Lanka.
Programma della giornata:
- Pranzo ore 12,30
- A seguire gli interventi:
▪ news e aggiornamenti sull'attività dell'Associazione - Mario Liberali, Presidente di Amici di Casa Mihiri
▪ situazione a Casa Mihiri e andamento dei progetti in Sri Lanka - Lorenzo Bacci, Responsabile di Casa Mihiri in Sri Lanka
▪ Mario Liberali e Stefano Benedetti (associazione partner Homexpeoplexhome) illustreranno il progetto Abili ...diversamente avviato questanno nel villaggio di Unawatuna - Sri Lanka
Pranzo con partecipazione ad offerta consigliata di 20,00 euro per gli adulti
e di 10,00 euro per i bimbi (fino a 12 anni)* e pomeriggio informativo e di divertimento! 
Prenotazioni entro il 15 maggio ed info: 
CRISTINA 347 6475297 
MARIO 349 4424030 
PAOLO 347 0032456 
PATRICK 347 8593902 
MAURIZIO 349 5654485 
ANNALISA 340 4109059
*il ricavato, al netto delle spese di acquisto dei generi alimentari, verrà inviato in Sri Lanka per le attività e progetti legati a Casa Mihiri ed in caso di mancata partecipazione quanto versato verrà comunque devoluto per intero al progetto
 
Vi aspettiamo numerosi, prenotatevi!!!!Per maggiori informazioni vai sul sito www.amicidicasamihiri.org - puoi seguirci anche su Facebook Casa Mihiri onlus.Telefono: 0464/430416 
Info: Da una vacanza in Sri Lanka nel 2001 Mario Liberalied un gruppo di amici trentini sono tornati con due convinzioni: essersi innamorati irrimediabilmente dei posti meravigliosi che avevano visitato e volersi attivare concretamente per le popolazioni che in quei luoghi ci vivono stabilmente in condizioni precarie.
Queste loro convinzioni hanno trovato realizzazione con la nascita degli &quot,Amici di Casa Mihirionlus&quot,.
Questa associazione si è presa l'impegno di divulgare l'operato di due italiani, Lorenzo Bacci e Lucilla Andreanelli, soci fondatori di Casa Mihiri, che portano avanti a Walahanduwa - Galle, Sri Lanka - uno speciale progetto di assistenza e di scolarizzazione.
L'associazione Amici di Casa Mihiri ONLUS ha attivato in questi anni iniziative sia progettuali e di sviluppo educativo sia di formazione e sostegno delle bambine accolte nella casa famiglia di MihiriGedere.
Le iniziative che sono state intraprese sono rivolte principalmente verso l'istruzione, per permettere una reale emancipazione quale speranza per un futuro migliore e l'accoglienza della fascia più debole della popolazione: 28 bambine DAI 3 ai 17 anni orfane o con disagi famigliari.
Le bimbe e le ragazze ospiti nella casa famiglia, che frequentano regolarmente le scuole pubbliche, possono risiederci a tempo indeterminato o ﬁno al loro completo recupero emotivo e ﬁsico.
Questo secondo i casi che il tribunale dei minorenni o l'ufﬁcio degli affari sociali che si occupa di minori decidono di afﬁdare alla struttura.
Si è attivato un doposcuola all'interno della struttura stessa e di uno a Panagamuwa, villaggio adiacente, corsi di computer in Casa Mihiri ed inoltre una scuola Materna (progetto Montessori) che ospita attualmente 30 tra bimbi e bimbe del distretto di Walahanduwa.I piccoli ospiti sono seguiti tutte le mattine da Preshani e da un'altra maestra, oltre a giochi educativi e attività ludiche e didattiche imparano le basi della lingua inglese. Punta di diamante dei progetti avviati è certamente Casa Mihiri, dove le bimbe hanno ﬁnalmente trovato una famiglia, sono ben seguite e ricevono una buona educazione, affetto e certezze per un futuro migliore.Altri organizzatori: Amici di Casa Mihiri",,,,Manifestazioni ed eventi,,,,0,,,,,,http://www.amicidicasamihiri.org|Amici di Casa Mihiri,Comune di Segonzano,46.187649,11.257387,,
pat_2403771,2012-05-11T11:03:41+02:00,2012-05-11T11:36:01+02:00,XVII Rassegna di primavera,,,,,2012-05-20T00:00:00+02:00,2012-05-20T00:00:00+02:00,,,ore 20.30,"Chiesa di San Biagio, , Albiano",,"
Note: Concerto corale con il Coro San Biagio di Albiano e il coro Voci Roveretane di Rovereto. Ingresso libero.
Organizza: Coro San Biagio.Informazioni: A.p.T. 0461 683110Telefono: 0461/557028 (APT PinéCembra)",,,,Musica,,,,0,,,,,,http://www.aptpinecembra.it,Comune di Albiano,46.145963,11.194537,,Redazione Trentino Cultura
pat_2402815,2012-05-11T11:02:19+02:00,2012-05-11T11:34:53+02:00,Ti regalo una storia,,,,,2012-05-12T00:00:00+02:00,2012-05-12T00:00:00+02:00,,,ore 10.00-12.00,"Verla - Biblioteca, , Giovo",,"Note: Incontro per i genitori e i loro bambini nati nel 2011, sull'importanza della lettura per l'infanzia e sul suo valore educativo e culturale, con Maria Lunelli, nell'ambito della mostra &quot,Nati per leggere. I primi libri. Libri per bambini di 6-36 mesi&quot,.Telefono: 0461/684735",,,,Convegno,,,,0,,,,,,,Comune di Giovo,46.156752,11.153135,,
