remoteId,published,modified,Titolo,Titolo breve,Sottotitolo,Descrizione,Testo,Inizio,Termine,Durata,Quando,Orario,Dove,Location,Informazioni,Destinatari,Costi,Stato,Tipologia,Materia,Tipo evento,Immagine,Manifestazione collegata (numero),Manifestazione collegata (testo),Manifestazione,Associazione,Immagine correlata,Progressivo,Link,Comune,lat,lon,address,Fonte
0503e7872e279f23b908d22ceb5ec110,2016-01-25T16:49:00+01:00,2016-01-24T17:04:50+01:00,CORSO DI PITTURA AMATORIALE SU SASSI/LEGNO,,Incontriamoci per creare oggetti artistici personali con la guida di un'esperta e per tessere relazioni!,,,2016-01-25T16:49:00+01:00,2016-02-10T20:30:00+01:00,nr. 5 venerdì consecutivi,5/12/19/26 febbraio 2016,20.30,"Casa delle Associazioni, Tione",interno,Cinzia 333.3963520 (nr. posti limitato),,"Euro 10,00 per il materiale",,,,,/var/comunitagiudicarie/storage/images/comunita-delle-giudicarie/eventi/corso-di-pittura-amatoriale-su-sassi-legno/2702352-1-ita-IT/CORSO-DI-PITTURA-AMATORIALE-SU-SASSI-LEGNO.png,0,,,,,,,,46.031342,10.722728,via roma,
601e29c497e6eca723a3d2bb2d9d8793,2016-01-01T12:00:00+01:00,2016-04-26T12:00:51+02:00,Nidi familiari - Tagesmutter,,,"
La Coop. Soc. Tagesmutter del Trentino - Il Sorriso è una Cooperativa di servizi per l'infanzia, iscritta all'albo provinciale dei servizi socio educativi per l'infanzia.
Promuove e offre servizi differenziati e personalizzati per l'educazione, la cura e l'assistenza di bambini da 0 a 13 anni, con particolare riguardo alla modalità di nido familiare - tagesmutter, favorendo l'incontro tra le socie, esperte nel campo dell'assistenza all'infanzia, rapporti educativi e interpersonali tra l'utenza di tale servizio, offrendo loro appoggio tecnico, informativo e professionale.
Inoltre gestisce colonie diurne, animazione estiva ed invernale, progetti di accoglienza di minori anche in collaborazione con i servizi sociali, progetti di accompagnamento allo studio, centri genitori bambini, progetti di sostegno alla genitorialità, feste, matrimoni ecc.La Cooperativa è retta dal principio della mutualità e ha lo scopo di perseguire l'interesse generale della comunità.",,2016-01-01T12:00:00+01:00,2016-12-31T12:00:00+01:00,settimanale dal lunedì al venerdì,,"dal 01/01/2016 al 31/12/2016 I nidi familiari, dislocati su tutto il territorio provinciale, hanno orari diversificati. Telefonare in ufficio per informazioni."," Sella Giudicarie,Stenico,",interno,"Molti altri comuni riconoscono un contributo sul servizio di Nido familiare - Tagesmutter per i bambini in fascia 3 mesi/3 anni di età. Per informazioni contattare la Coop.Soc.Tagesmutter del Trentino - Il Sorriso al numero 0461/407030 o visitate il sito www.tagesmutter-ilsorriso.itTelefonate in ufficio per informazioni o visitate il sito internet www.tagesmutter-ilsorriso.it
Chiamare in ufficio ai numeri indicati
tel. 0461/1920503
email segreteria@tagesmutter-ilsorriso.it
A chi rivolgersi: 
Tagesmutter del Trentino - Il Sorriso Coop. Soc. ONLUS
Via Zambra, 11 Trento
Tel. 0461/1920503 - Fax 0461/1920504segreteria@tagesmutter-ilsorriso.it","0-2 anni | 3-6 anni

Note sull'età:I nidi familiari Tagesmutter si rivolgono prevalentemente alla fascia d'età 3 mesi-3 anni

sia residenti che non residenti",a pagamento con integrazione buoni di servizio FSE. L'attività è a pagamento con eventuale contributo comunale e/o eventuale integrazione con Buoni di Servizio FSE.  Per avere informazioni precise sui costi telefonare in ufficio.,,,,,,0,,,,,,,,0.0,0.0,,
b4ef646564e60404fcb6cab69d38f931,2015-02-09T13:30:00+01:00,2015-02-05T16:54:11+01:00,Architettura Alpina Contemporanea ,,,,http://www.comunitadellegiudicarie.it/content/download/135373/2368204/1/3 All_ARCH ALPINA CONTEMPORANEA _ locandina e programma.pdf,2015-02-09T13:30:00+01:00,2015-02-09T19:00:00+01:00,,,13:30 - 19:00,Tione - Casa delle Comunità delle Giudicarie ,interno,,,,,,,,,0,,,,,,,,0.0,0.0,,
9e051b16597555989e071a28becbe34d,2017-07-03T22:43:00+02:00,2017-07-03T23:01:16+02:00,INCONTRI DI COUNSELING BIOGRAFICO,servizio alle persone patrocinato dall'Associazione Mosaico e condotto da Alida Scalfi, per appuntamento o info contattare la responsabile dell'attività Alida Scalfi al numero 3476079087. ,,,2017-07-03T22:43:00+02:00,2017-08-31T23:59:00+02:00,11 luglio - 31 agosto 2017,martedì e mercoledì,16.00 - 19.00,"Casa delle Associazioni, piano terra",interno,"&quot,Il counselor può e deve farsi testimone del viaggio, ascoltatore di storie, di attese e di speranze, testimone anche di difficoltà e fallimenti, presente ed alleato, capace di usare gli strumenti della navigazione senza pretendere di dirigere o cambiare la rotta. E' semplicemente al servizio, con le sue competenze e qualità, di un viaggiatore che, per un qualche scherzo del destino, per scelta, per difficoltà momentanee non trovi o non sappia vedere in sè il necessario per continuare tale viaggio.&quot, E' un'occasione per prendersi cura, con semplicità, di noi stessi,  internamente, è fermarsi e sostare per riprendere fiato per poi ripartire con più slancio, piuttosto che lasciarci trasportare (e a volte travolgere) dagli eventi, ... insomma qualcosa che raramente ci concediamo di fare, perchè spesso ci sembra una perdita di tempo.",,gratuito,,,,,,0,,,,,,,,0.0,0.0,,
33c921392e6ccc115680cafcee579cb6,2019-05-06T20:30:00+02:00,2019-04-23T16:58:11+02:00,Stati Generali della Montagna,"SGM - Tavolo di lavoro ""Sviluppo economico e Coesione sociale""",,,,2019-05-06T20:30:00+02:00,2019-05-06T23:20:00+02:00,,,,Sede della Comunità - Tione,interno,,,,,,,,,0,,,,,,,,0.0,0.0,,
4526a2a9fc8ff042d52632b659155ef5,2019-05-02T20:30:00+02:00,2019-04-23T16:54:56+02:00,Stati Generali della Montagna,"SGM - Tavolo di lavoro ""Paesaggio, Ambiente e Territorio""",,,,2019-05-02T20:30:00+02:00,2019-05-02T23:00:00+02:00,,,,Sede della Comunità - Tione,interno,,,,,,,,,0,,,,,,,,0.0,0.0,,
06c62b009c512afacb07baec135b4b33,2019-04-29T20:30:00+02:00,2019-04-23T16:52:33+02:00,Stati Generali della Montagna,"SGM - Tavolo di lavoro ""Istruzione, Cultura e Politiche giovanili""",,,,2019-04-29T20:30:00+02:00,2019-04-29T23:00:00+02:00,,,,Sede Comunità - Tione,interno,,,,,,,,,0,,,,,,,,0.0,0.0,,
b64006998521fe2d6d614bd86160c98c,2019-04-23T20:30:00+02:00,2019-04-23T15:10:12+02:00,Stati Generali della Montagna,"SGM - Tavolo di lavoro ""Servizi alla persona e Sicurezza""",,,,2019-04-23T20:30:00+02:00,2019-04-23T23:00:00+02:00,,,,Sede della Comunità,interno,,,,,,,,,0,,,,,,,,0.0,0.0,,
77b1659874726517af734266311aefbb,2014-04-18T08:30:00+02:00,2014-04-30T15:33:02+02:00,Alimentazione e salute in età scolare,,Continua il percorso informativo della Comunità per educare le famiglie all'alimentazione.,"Si è svolta presso la Casa della Comunità delle Giudicarie la serata informativa su “Alimentazione e Salute in età scolare” alla quale hanno partecipato la Dott.ssa Maria Grazia Zuccali, Responsabile Servizio Igiene Alimenti e Nutrimenti dell’Azienda Provinciale per i Servizi Sanitari, la dott.ssa Danila Bassetti in rappresentanza del Comitato scientifico di AIC - Trentino Associazione italiana celiachia e nella funzione di moderatore il Dott. Andrea Maino Dietista – Ufficio Sicurezza Alimentare e dietetica di Risto3. La serata organizzata dalla Comunità delle Giudicarie  in collaborazione con gli Istituti Scolastici e l’Azienda Provinciale per i Servizi Sanitari, ha avuto lo scopo di promuovere un momento di confronto per Famiglie e Insegnanti, binomio fondamentale nell’educazione alimentare dei ragazzi. «Un'iniziativa che si colloca all'interno di un programma ampio e articolato che vede la Comunità impegnata a dare un supporto alle famiglie e a dare risposte puntuali ai bisogni e alle istanze delle famiglie» precisa la Presidente della Comunità delle Giudicarie Patrizia Ballardini. «Un'iniziativa che rafforza il legame tra scuola, famiglia e salute attraverso un approfondimento qualificato sull'educazione alimentare». «È nostra intenzione – ha spiegato l'assessore della Comunità delle Giudicarie Flavio Riccadonna –  continuare quel percorso informativo e di educazione alimentare avviato con l'attivazione delle mense scolastiche su tutto il territorio. Ci siamo impegnati a proporre ai nostri ragazzi una dieta equilibrata e attenta a quelle che sono le loro esigenze, all'insegna di prodotti locali e di qualità. Crediamo che a fianco del servizio mensa che offriamo a circa 2mila famiglie giudicariesi grazie alla preziosa collaborazione con Risto3, si debba continuare nella formazione e nell'educazione all'alimentazione in modo che venga percepita l'importanza fondamentale che essa riveste per la crescita equilibrata e lo sviluppo dei nostri ragazzi». In quest'ottica l'incontro, che ha cercato di spiegare i principi della corretta alimentazione, di fornire informazioni di dettaglio rispetto al fabbisogno energetico di bambini e ragazzi, a partire dai nutrienti che non devono mancare nella dieta di ogni giorno al ruolo dell'alimentazione nella prevenzione di alcune patologie.  La serata è risultata particolarmente partecipata, segno della sensibilità dei tempi, verso un argomento che interessa da vicino tutti, e a cui i trentini hanno dimostrato nel corso degli anni di riservare particolare attenzione. Nel 2012, l'indagine “Okkio alla Salute”,  ha messo ai primi posti sia la provincia di Trento che quella di Bolzano per la capacità di diffondere sane abitudini alimentari nei bambini delle scuole primarie, dai 6 ai 10 anni:  in questa fascia di età la percentuale di bimbi obesi è del 4%, mentre il 16% sono in sovrappeso e l'80% normopeso. Nella Penisola, percentuali migliori si trovano solo a Bolzano.  L'indagine, presentata dalla dottoressa Maria Grazia Zuccali, ha misurato e descritto la variabilità geografica e l’evoluzione nel tempo degli stili alimentari, dell’abitudine all’esercizio fisico dei bambini e delle attività scolastiche favorenti la sana nutrizione e l’attività fisica. Nella seconda parte della serata, la dottoressaDanila Bassetti, in rappresentanza di AIC - Trentino Associazione italiana celiachia, ha proposto un focus su origini, sintomi e modalità di convivenza con la celiachia – un'intolleranza permanente alla gliadina, contenuta nel glutine, un insieme di proteine a loro volta contenute nel frumento, nell'orzo, nella segale, nel farro e in altri cereali - disturbo che secondo diversi studi coinvolge oggi in Italia una persona su cento.",,2014-04-18T08:30:00+02:00,,,,,,interno,,,Entrata libera,,,,,/var/comunitagiudicarie/storage/images/comunita-delle-giudicarie/il-territorio/appuntamenti/alimentazione-e-salute-in-eta-scolare/2016875-1-ita-IT/Alimentazione-e-salute-in-eta-scolare.jpg,0,,,,,,,,0.0,0.0,,
pat_2402054,2012-09-16T00:00:00+02:00,2013-01-03T08:56:10+01:00,Scampagnate in fattoria: Castel Campo,,,,,2012-09-16T00:00:00+02:00,2012-09-16T00:00:00+02:00,,,ore 10.00-17.00,"Castel Campo, Campo Lomaso, Comano",,"
Note: Scampagnate in fattoria
Castel Campo
da Marina Rasini
Campo Lomaso - Comano Terme tel. 335 8153422
e-mail:joe@castelcampo.it
Castel Campo offre storia, arte, natura, e i prodotti della sua piccola azienda agricola: ortaggi, frutta ed erbe officinali spontanee. Visiterete il castello e il suo bosco, per conoscere l'uso tradizionale di piante, erbe e legni diversi. Esplorerete il funzionamento dell'orologio meccanico medievale. Lavorerete il vetro e altri materiali con artigiani locali. Assaggerete i prodotti nostri e di altre aziende Donne in Campo in un pranzo al sacco su prenotazione. Telefono: 0461/421214 Altri organizzatori: Confederazione Italiana Agricoltori Donne in Campo del Trentino",,,,Manifestazioni ed eventi,,,,0,,,,,,,,46.023111,10.866591,,
pat_2403610,2012-05-11T11:05:59+02:00,2012-05-11T11:39:31+02:00,Le guerre spiegate ai ragazzi,,,,,2012-05-18T00:00:00+02:00,2012-05-18T00:00:00+02:00,,,,"Teatro Parrocchiale, , Roncone",,"
Note: Proposte d'Autore
Per la rassegna &quot, Proposte d'Autore&quot,, il 18 maggio lincontro con Toni Capuozzo in programma a Roncone. Il vicedirettore e inviato di guerra del TG5, conduttore del settimanale di informazione &quot,Terra, presenterà Le guerre spiegate ai ragazzi (Mondadori, 2012), un libro di risposte a grandi domande per futuri adulti: cosè la guerra? come sarà quella di domani?, cosa sono i bambini soldato?, cosè il conflitto israelo-palestinese? Per Capuozzo infatti nel dialogo sta la ricerca, e le risposte nel volume vogliono essere solo un inizio.
&quot,Capita che mi chiedano se ho avuto paura.
Sì, spesso.
A volte, abbiamo bisogno di avere paura, di misurarci, per capire quanto teniamo a noi stessi, agli affetti che ci circondano, alla nostra vita, la vita normale.
Ogni guerra mi ha lasciato qualcosa, e tutte insieme mi hanno insegnato quanto sia importante la pace, e quanto valore abbiano le piccole cose che ci circondano, la quiete che diamo per scontata, i soldi che ci permettono di andare a mangiare una pizza, la tranquillità di una passeggiata, persino la noia di una domenica di pioggia.&quot,Toni Capuozzo",,,,Convegno,,,,0,,,,,,http://www.fondazioneaida.it,,45.983778,10.669222,,Redazione Trentino Cultura
pat_2403615,2012-05-11T11:04:31+02:00,2012-05-11T11:36:44+02:00,La collina del vento,,,,,2012-05-29T00:00:00+02:00,2012-05-29T00:00:00+02:00,,,,"Baitoni - Casa Sociale, , Bondone",,"
Note: Proposte d'Autore
A chiudere la seconda edizione de &quot,Proposte dAutore&quot, sarà Carmine Abate, autore di diversi romanzi e racconti di grande successo tradotti in Francia, Stati Uniti, Germania, Olanda, Grecia, Portogallo, Albania, Kosovo e in corso di pubblicazione in arabo. Giovedì 7 giugno lautore sarà a Baitoni presso la Casa Sociale, per presentare La collina del vento (Mondadori, 2012), la saga appassionata e coinvolgente, epica ed eroica di una famiglia che nessuna avversità riesce a piegare, che nessun vento potrà mai domare. Impetuoso, lieve, sconvolgente: è il vento che soffia senza requie sulle pendici del Rossarco, leggendaria, enigmatica altura a pochi chilometri dal mar Jonio. Il vento scuote gli olivi secolari e gli arbusti odorosi, ulula nel buio, canta di un antico segreto sepolto e fa danzare le foglie come ricordi dimenticati. Proprio i ricordi condivisi sulla &quot,collina del vento&quot, costituiscono le radici profonde della famiglia Arcuri, che da generazioni considera il Rossarco non solo luogo sacro delle origini, ma anche simbolo di una terra vitale che non si arrende e tempio all'aria aperta di una dirittura etica forte quanto una fede. Così, quando il celebre archeologo trentino Paolo Orsi sale sulla collina alla ricerca della mitica città di Krimisa e la campagna di scavi si tinge di giallo, gli Arcuri cominciano a scontrarsi con l'invidia violenta degli uomini, la prepotenza del latifondista locale e le intimidazioni mafiose. Testimone fin da bambino di questa straordinaria resistenza ai soprusi è Michelangelo Arcuri, che molti anni dopo diventerà il custode della collina e dei suoi inconfessabili segreti. Ma spetterà a Rino, il più giovane degli Arcuri, di onorare una promessa fatta al padre e ricostruire pezzo per pezzo un secolo di storia familiare che s'intreccia con la grande storia d'Italia, dal primo conflitto mondiale agli anni cupi del fascismo, dalla liberazione alla rinascita di un'intera nazione nel sogno di un benessere illusorio. ",,,,Convegno,,,,0,,,,,,http://www.fondazioneaida.it,,45.805759,10.551278,,Redazione Trentino Cultura
pat_2403429,2012-05-11T11:04:30+02:00,2012-05-11T11:36:44+02:00,Palazzi Aperti a Roncone,,,,,2012-05-07T00:00:00+02:00,2012-05-13T00:00:00+02:00,,,,"Chiesa di S. Stefano, , Roncone",,"
Note: Palazzi Aperti
Dal lunedì 7 al 13 maggio 
(qualsiasi fascia oraria)
Chiesa di S. Stefano al suo interno spicca lorgano rinomato soprattutto per la bellissima cantoria con parapetto e cassa ornamentale, scolpite in legno nudo risalente al XVII secolo. Generalmente la Chiesa è sempre aperta e durante il periodo estivo, tra luglio e agosto, è possibile assistere anche ad un concerto dorgano.
Info 
Manuela Cosi, Assessore alla cultura del Comunedi Roncone, cell. 333.3714207Altri organizzatori: Consorzio Turistico Valle del Chiese",,,,Manifestazioni ed eventi,,,,0,,,,,,http://www.comune.roncone.tn.it|Consorzio Turistico Valle del Chiese,,45.983778,10.669222,,Redazione Trentino Cultura
pat_2403425,2012-05-11T11:04:30+02:00,2012-05-11T11:36:43+02:00,Palazzi Aperti a Pieve di Bono,,,,,2012-05-20T00:00:00+02:00,2012-05-20T00:00:00+02:00,,,,"Chiesa di S. Giustina, , Pieve di Bono",,"
Note: Palazzi Aperti
Domenica 20 maggio
Chiesa di S. Giustina Al suo interno affreschi raffiguranti le storie dei Santi Giustina e Cipriano ed una grande Crocifissione accompagnata da immagini degli Evangelisti e dei Dottori della Chiesa.
Ore 21.00 Concerto: Missa Brevis - di Jacob de Haan (Esecutori: Banda Musicale di Pieve di Bono - Corale S. Barnaba di Bondo - Corale S. Giustina di Pieve di Bono. Dirige: M. Sandro Rota). Ingresso libero.
Info Comune di Pieve di Bono, tel. 0465.674001Telefono: 0465/674001Altri organizzatori: Comune di Pieve di Bono",,,,Manifestazioni ed eventi,,,,0,,,,,,http://www.comune.pievedibono.tn.it|Comune di Pieve di Bono,,45.942934,10.640933,,Redazione Trentino Cultura
pat_2403612,2012-05-11T11:04:22+02:00,2012-05-11T11:36:37+02:00,I sogni cattivi di Firenze,,,,,2012-05-26T00:00:00+02:00,2012-05-26T00:00:00+02:00,,,,"Auditorium del Centro Scolastico, , Pieve di Bono",,"
Note: Proposte d'Autore
Il terzo appuntamento della rassegna &quot, Proposte d'Autore&quot, avrà come protagonista Michele Giuttari. Il noto poliziotto che seguì le indagini sul Mostro di Firenze presenterà a Pieve di Bono il suo ultimo romanzo, I sogni cattivi di Firenze (Rizzoli, 2012), un thriller travolgente sui segreti più inconfessabili di Firenze. Una spirale di vendette, colpi di scena e corruzione, unindagine ipnotica dove scoprire la verità. Lincontro è in programma sabato 26 maggio allAuditorium del Centro Scolastico. 
Gli incubi peggiori nascono dal buio, come flash improvvisi, per spegnersi alle prime luci dellalba. Alcuni però non svaniscono al risveglio e diventano ossessioni che ci seguono ovunque. Il commissario Ferrara con quel buio profondo è abituato a convivere.
All'inizio dell'estate del 2004 Firenze è soffocata dal terrore suscitato dagli agghiaccianti omicidi del serial killer Leonardo Berghoff. Ma la sua morte sembra portare una ventata d'aria fresca in una città che ormai tutti credevano maledetta.
Quando vengono trovati i corpi del senatore Enrico Costanza e del suo maggiordomo, barbaramente trucidati, Ferrara capisce che la partita non è chiusa. La mano ora è unaltra, le modalità sembrano diverse, ma il sangue riprende a scorrere sullArno mentre, dagli inferi della città, la misteriosa loggia massonica della Rosa Nera continua a tessere la propria terribile ragnatela.
Le ricerche si complicano, abbandonando la polizia in un labirinto di ipotesi senza uscita. Non solo perché chi muove i fili da dietro le quinte non ha intenzione di fermarsi. Ma soprattutto perché Ferrara, seguendo le tracce di Angelica, una donna misteriosa che ha troppo da nascondere, si è ritrovato faccia a faccia con una realtà al di là della sua immaginazione.Michele Giuttari torna da protagonista con un thriller travolgente sui segreti più inconfessabili di Firenze. Una spirale di vendette, colpi di scena e corruzione, unindagine ipnotica dove scoprire la verità è solo linizio.",,,,Convegno,,,,0,,,,,,http://www.fondazioneaida.it,,45.942934,10.640933,,Redazione Trentino Cultura
pat_2403427,2012-05-11T11:04:21+02:00,2012-05-11T11:36:36+02:00,Palazzi Aperti a Pinzolo,,,,,2012-05-07T00:00:00+02:00,2012-05-13T00:00:00+02:00,,,,"Chiesa S. Vigilio, , Pinzolo",,"
Note: Palazzi Aperti
Da lunedì 7 al 13 maggio
Chiesa S. Vigilio Possibilità di visite guidate.
Lantica chiesa di San Vigilio a Pinzolo si trova nella campagna di Sorano, leggermente discosta dagli abitati di Pinzolo e Baldino, a metà strada per Carisolo.
Pur non esistendo una data precisa circa lanno di costruzione, la struttura architettonica originale risale al decimo secolo. Lo si desume dalla scoperta dellarco trionfale primitivo, da alcune caratteristiche della torre campanaria e dalla conformazione della sacrestia. Nei secoli successivi fu ampliata e sopraelevata. Nella pergamena più antica dellarchivio comunale di Pinzolo, datata 28 ottobre 1232, si parla di una riunione di capi famiglia di Pinzolo, Carisolo e Baldino tenutasi sotto il porticato della Chiesa di San Vigilio. Documenti del 1362 conservati nellarchivio diocesano di Trento danno notizia dellimportante funzione dellantico santuario di servire alle comunità di Baldino, Pinzolo e Carisolo.
Ai primitivi elementi romanici quali la struttura del campanile, le bifore della cella originaria tamponate in pietra, larco trionfale scoperto di recente e una serie di affreschi sullingresso meridionale, si sono sovrapposte varianti gotiche rintracciabili nel verticalismo dei tetti, nel portale ad arco ogivale, nelle due nicchie a sesto acuto della parete sud e, allinterno, nella conformazione dellabside.
Continua su www.comune.pinzolo.tn.it
Info e prenotazioni Comune di Pinzolo, tel. 0465.509100 - 0465.503703Telefono: 0465/503703Altri organizzatori: Comune di Pinzolo",,,,Manifestazioni ed eventi,,,,0,,,,,,http://www.comune.pinzolo.tn.it/|Comune di Pinzolo,,46.160026,10.765421,,
pat_2403185,2012-05-11T11:04:11+02:00,2012-05-11T11:36:26+02:00,Lorax. Il guardiano della foresta,,,,,2012-06-09T00:00:00+02:00,2012-06-10T00:00:00+02:00,,,ore 16.30 - 21.00,"Cinema Comunale, , Tione di Trento",,"
Note: Usa, 2012
Titolo originale: The Lorax
Genere: Animazione
Durata: 86'
Regia: Chris Renaud, Kyle Balda
Sito internet: www.theloraxmovie.comL'avventura animata segue il viaggio di un ragazzo e la sua ricerca dell'unica cosa che riuscirà a fargli conquistare l'attenzione della ragazza dei suoi sogni. Per scovarla dovrà scoprire la storia di Lorax, la brontolona e magica creatura che lotta per proteggere il suo mondo.Telefono: 0461/420788 (Coordinamento Teatrale Trentino)Altri organizzatori: Coordinamento Teatrale Trentino - Comune di Tione di Trento",,,,Cinema,,,,0,,,,,,http://www.trentinospettacoli.it|Coordinamento Teatrale Trentino - Comune di Tione di Trento,,46.037056,10.727519,,Redazione Trentino Cultura
pat_2403430,2012-05-11T11:03:49+02:00,2012-05-11T11:36:07+02:00,Palazzi Aperti a Stroro,,,,,2012-05-13T00:00:00+02:00,2012-05-13T00:00:00+02:00,,,,"Chiesa di S. Andrea, , Storo",,"
Note: Palazzi Aperti
Domenica 13 maggio 
ore 10.30
Chiesa di S. Andrea Risalente al XIV sec., sorge allinterno del cimitero. Recentemente restaurata ha portato alla luce affreschi, tombe di varie epoche e testimonianze di età protostorica.
Visita guidata con larch. Roberto Paoli e ling. Gianfranco Giovanelli. 
Intrattenimento musicale: concerto per Cristallarmonio &amp, Chitarra di Gianfranco Grisi e Elio Salvetti.
Info e prenotazioni 
Biblioteca di Storo, tel. 0465.686910e-mail: storo@biblio.infotn.itTelefono: 0465/686910",,,,Manifestazioni ed eventi,,,,0,,,,,,http://www.comune.storo.tn.it/,,45.850944,10.57737,,
pat_2403417,2012-05-11T11:03:48+02:00,2012-05-11T11:36:06+02:00,Palazzi Aperti a Caderzone,,,,,2012-05-08T00:00:00+02:00,2012-05-08T00:00:00+02:00,,,,"Palazzo Lodron Bertelli , , Caderzone",,"
Note: Palazzi Aperti
Martedì 8 maggio 
orario 10.00-12.00 e 15.00-17.00
Palazzo Lodron - Bertelli
Costruito agli inizi del XIV secolo è coevo a Maso Curio con cui condivide le tecniche costruttive e le espressioni architettoniche. Queste due costruzioni sono il punto di riferimento più remoto per la lettura e la comprensione della storia dellarchitettura rustico-rurale della Val Rendena.
Le ex-scuderie di Palazzo Lodron-Bertelli
Nel suo interno antichi fasti portati alla luce dal recente lavoro di restauro. Nella parte inferiore delledificio più sale congiunte caratterizzate da mirabili avvolti in granito ospitano il Museo della Malga.Info Sig.ra Ornella, tel. 338.2428100Telefono: 338/2428100",,,,Manifestazioni ed eventi,,,,0,,,,,,http://www.caderzone.net,,46.131278,10.758611,,
pat_2401309,2012-05-11T11:02:14+02:00,2012-05-11T11:34:49+02:00,American Pie: ancora insieme,,,,,2012-05-26T00:00:00+02:00,2012-05-27T00:00:00+02:00,,,ore 21.00,"Cinema Comunale, , Tione di Trento",,"
Note: Usa, 2012
Titolo originale: American Pie: Reunion 
Genere: Commedia
Durata: 105'
Regia: Jon Hurwitz, Hayden Schlossberg
Cast: Alyson Hannigan, Seann William Scott, Tara Reid, Jason Biggs, Mena Suvari, Chris Klein, Eugene Levy
Sito internet: www.americanpiereunion.comNella commedia American Pie: ancora insieme, tutti i personaggi di American Pie che abbiamo conosciuto più di 10 anni fa fanni ritorno alla cittadina di East Great Falls per una riunione dei compagni delle scuole superiori. In un weekend molto atteso, scopriranno cosa è cambiato, chi è rimasto sempre lo stesso e che il tempo e la distanza non possono rompere il legame dell'amicizia. Era l'estate del 1999 quando quattro ragazzi della piccola città del Michigan iniziarono la loro ricerca sulla sessualità. Negli anni trascorsi da allora, Jim e Michelle si sono sposati mentre Kevin e Vicky si sono lasciati. Oz e Heather sono cresciuti distanti, mentre Finch desidera ancora la madre di Stilfer. Telefono: 0461/420788 (Coordinamento Teatrale Trentino)Altri organizzatori: Coordinamento Teatrale Trentino - Comune di Tione di Trento",,,,Cinema,,,,0,,,,,,http://www.trentinospettacoli.it|Coordinamento Teatrale Trentino - Comune di Tione di Trento,,46.037056,10.727519,,Redazione Trentino Cultura
pat_2401934,2012-05-11T11:01:29+02:00,2012-05-11T11:34:10+02:00,Al Castello si racconta...,,,,,2012-05-13T00:00:00+02:00,2012-05-13T00:00:00+02:00,,,,"Castel Stenico, , Stenico",,"
Note: Anche questanno torna lappuntamento con Al castello si racconta, il percorso animato rivolto ai visitatori del Castello di Stenico. Questa iniziativa, che riprenderà a partire da domenica 29 aprile, è nata nel 2011 dalla collaborazione tra Azienda per il Turismo Terme di Comano, Ecomuseo della Judicaria, Castello del Buonconsiglio e Filodrammatiche locali con lo scopo di valorizzare e incentivare la visita al castello, arricchendola di sorprese. Così, il 29, il 30 aprile, l1 maggio e poi durante tutte le domeniche del mese di maggio, dalle ore 14.30 alle ore 17.00, passeggiando nel castello, si può incontrare una buffa cuoca spaventata dallarrivo dei visitatori, oppure un rigoroso notaio che annota tutti i beni del castello in rovina o ancora una severa guardia che si sfoga con i passanti, una laboriosa domestica a cui piace chiacchierare e altri personaggi che raccontano la storia dellantico maniero giudicariese.
L1 maggio, in particolare, oltre al percorso animato, ci sarà anche una colorata Festa al Castello, con giullari e musici medievali che animano il cortile e intrattengono il pubblico proprio come accadeva nelle antiche giornate di festa.
Appuntamento unico da non perdere per chi vuole visitare il castello in modo del tutto originale divertente.
Per informazioni:
APT Terme di Comano-Dolomiti di Brenta
Tel: 0465/702626  info@visitacomano.it
Castello di Stenico 
tel. 0465 771004www.buonconsiglio.it",,,,Manifestazioni ed eventi,,,,0,,,,,,http://www.visitacomano.it,,46.051154,10.854534,,
pat_2398314,2012-05-11T11:01:19+02:00,2012-05-11T11:34:00+02:00,To Rome with Love,,,,,2012-05-12T00:00:00+02:00,2012-05-13T00:00:00+02:00,,,ore 21.00,"Cinema Comunale, , Tione di Trento",,"
Note: Usa/Italia, 2012
Titolo originale: To Rome with Love
Genere: Drammatico
Durata: 111'
Regia: Woody Allen
Cast: Alec Baldwin, Penelope Cruz, Ellen Page, Jesse Eisenberg, Woody Allen
Sito italiano: www.virgilio.it/toromewithlove
Dopo Londra, Barcellona e Parigi, Woody Allen ha scelto di ambientare il suo prossimo film in Italia. E più precisamente a Roma. A questo proposito il regista newyorkese, ormai prossimo agli ottant'anni, ha dichiarato: &quot,Ogni volta è come fare una dichiarazione d'amore ad alcuni luoghi. Proietto sul grande schermo i miei sentimenti per i posti che contano nella mia vita. Spero di poter fare lo stesso con Roma&quot,.Il film, come un moderno Decamerone boccaccesco, consiste in vari episodi: in uno di questi Allen interpreterà un uomo che in viaggio a Roma con la moglie conoscerà l'uomo che sta per sposare la figlia. In un altro episodio Roberto Benigni vestirà i panni di Leopoldo, un tranquillo impiegato dalla vita ordinaria che verrà scambiato per un celebre attore Telefono: 0461/420788 (Coordinamento Teatrale Trentino)Altri organizzatori: Coordinamento Teatrale Trentino - Comune di Tione di Trento",,,,Cinema,,,,0,,,,,,http://www.trentinospettacoli.it|Coordinamento Teatrale Trentino - Comune di Tione di Trento,,46.037056,10.727519,,Redazione Trentino Cultura
pat_2400295,2012-04-30T18:18:11+02:00,2012-05-11T11:33:45+02:00,Battleship,,,,,2012-05-19T00:00:00+02:00,2012-05-20T00:00:00+02:00,,,ore 21.00,"Cinema Comunale, , Tione di Trento",,"
Note: Usa, 2012
Titolo originale: Battleship
Genere: Azione, Fantascienza
Durata: 131'
Regia: Peter Berg
Cast: Liam Neeson, Alexander Skarsgård, Brooklyn Decker, Taylor Kitsch, Robyn Rihanna Fenty
Sito internet: www.battleshipmovie.comBattleship è un epico film di azione e avventura che si svolge in mare, in cielo e sulla terraferma e che narra della lotta per la sopravvivenza da parte degli umani contro una forza aliena superiore. Basato sul classico gioco Hasbro, la battaglia navale, Battleship vede Brooklyn Decker nei panni di Sam, fisioterapista e fidanzata di Alex Hopper (Taylor Kitch), Alexander Skarsgård nei panni del fratello maggiore di Hopper, l'Ufficiale Comandante Stone Hopper della USS Samson, Rihanna nei panni di Raikes, compagna al college di Hopper e specialista di armi nella USS John Paul Jones, e Liam Neeson nei panni del superiore di Hopper e Stone (e padre di Sam), l'Ammiraglio Shane.Telefono: 0461/420788 (Coordinamento Teatrale Trentino)Altri organizzatori: Coordinamento Teatrale Trentino - Comune di Tione di Trento",,,,Cinema,,,,0,,,,,,http://www.trentinospettacoli.it|Coordinamento Teatrale Trentino - Comune di Tione di Trento,,46.037056,10.727519,,Redazione Trentino Cultura
pat_2398924,2012-04-30T18:18:06+02:00,2012-04-30T18:18:06+02:00,Buona giornata,,,,,2012-05-05T00:00:00+02:00,2012-05-06T00:00:00+02:00,,,ore 21.00,"Cinema Comunale, , Tione di Trento",,"
Note: Italia, 2012
Titolo originale: Buona giornata
Genere: Commedia
Durata: 93'
Regia: Carlo Vanzina
Cast: Diego Abatantuono, Christian De Sica, Lino Banfi, Vincenzo Salemme, Maurizio Mattioli, Teresa Mannino, Tosca D'AquinoQuesto film racconta la cronaca di una giornata, in Italia. Una sola giornata. Una giornata vissuta da personaggi dell'Italia di oggi, una fotografia degli italiani, con i loro vizi ed i loro difetti. Nel film ci si sposta da Milano a Roma, poi a Napoli, poi a Verona, Firenze, Bari, Potenza e così via, cercando di cogliere non solo il lato allegro delle situazioni ma anche il carattere regionale, linguistico e comportamentale delle varie &quot,etnie&quot, italiche. In breve le storie dei personaggi più importanti che nel corso del film si alterneranno e si incroceranno durante le diverse ore della giornata.Telefono: 0461/420788 (Coordinamento Teatrale Trentino)Altri organizzatori: Coordinamento Teatrale Trentino - Comune di Tione di Trento",,,,Cinema,,,,0,,,,,,http://www.trentinospettacoli.it|Coordinamento Teatrale Trentino - Comune di Tione di Trento,,46.037056,10.727519,,Redazione Trentino Cultura
pat_2394978,2012-01-31T17:38:54+01:00,2012-02-14T22:11:26+01:00,Miracolo a Le Havre,,,,,2012-02-29T00:00:00+01:00,2012-02-29T00:00:00+01:00,,,ore 21.00,"Cinema Comunale, , Tione di Trento",,"
Note: Il piacere del cinema
Germania/Francia/Finlandia, 2011 
Titolo originale: Le Havre 
Genere: Drammatico 
Durata: 93' 
Regia: Aki Kaurismäki 
Cast: André Wilms, Kati Outinen, Jean-Pierre Darroussin, Elina Salo, Evelyne Didi, Quoc Dung Nguyen Marcel Marx, un ex scrittore rinomato e bohemien, volontariamente si trasferisce in esilio nella città portuale di Le Havre, dove la sua professione onorevole, ma non redditizia, di lustrascarpe, gli dona la sensazione di essere più vicino alla gente. Mantiene viva la sua ambizione letteraria e conduce una vita soddisfacente nel triangolo formato dal pub dell'angolo, il suo lavoro e sua moglie Arletty, quando il destino mette improvvisamente nella sua vita un bambino immigrato proveniente dall'Africa nera.Telefono: 0461/420788 (Coordinamento Teatrale Trentino)Altri organizzatori: Coordinamento Teatrale Trentino - Comune di Tione di Trento",,,,Cinema,,,,0,,,,,,http://www.trentinospettacoli.it|Coordinamento Teatrale Trentino - Comune di Tione di Trento,,46.037056,10.727519,,Redazione Trentino Cultura
pat_2396247,2012-01-31T17:38:53+01:00,2012-02-14T22:11:23+01:00,Gran Carnevale Asburgico / Hasburger  Karneval,,,,,2012-02-18T00:00:00+01:00,2012-02-18T00:00:00+01:00,,,,"Forte Larino, , Lardaro",,"
Note: La Schützen Kompanie Roncone e la Böhmische Judicarien vi invitano presso le sale di Forte Larino a Lardaro al Gran Carnevale Asburgico / Hasburger Karneval.
Inizio alle ore 19.30 Sfilata storica a Lardaro
Alle ore 20.30 Concerto della Böhmische Judicarien
Alle ore 21.30 Inizio Ballo Asburgico
Costo entrata  10,00 con bevanda, sarà a disposizione spaccio e bar
Si prega di partecipare possibilmente in costumi tradizionaliEventuale pernottamento presso Albergo Genzianella 0465 901035Telefono: 0465/685033",,,,Manifestazioni ed eventi,,,,0,,,,,,http://www.visitchiese.it,,45.971278,10.66237,,Redazione Trentino Cultura
pat_2395161,2012-01-31T17:38:36+01:00,2012-02-14T22:10:34+01:00,"Molto forte, incredibilmente vicino",,,,,2012-03-24T00:00:00+01:00,2012-03-24T00:00:00+01:00,,,ore 21.15,"Paladolomiti , , Pinzolo",,"
Note: Usa, 2012
Titolo originale: Extremely Loud and Incredibly Close
Genere: Drammatico
Durata: 
Regia: Stephen Daldry
Cast: Tom Hanks, Thomas Horn, Sandra Bullock, Zoe Caldwell, Dennis Hearn, Paul Klementowicz, Julian Tepper
Tratto dal romanzo &quot,Molto forte, incredibilmente vicino&quot, di Jonathan Safran Foer edito in Italia da Guanda&quot,Molto forte, incredibilmente vicino&quot, racconta la storia di un bambino di nove anni, Oskar. Dopo aver ritrovato tra le cose del padre morto nel crollo delle Torri Gemelle una misteriosa chiave, Oskar si mette in testa di scoprire a quale serratura appartiene e cosa cè dentro quel &quot,qualcosa&quot, di chiuso, dando il via ad una piccola, grande odissea, sorprendente e dai toni esilaranti e commoventi al tempo stesso.",,,,Cinema,,,,0,,,,,,http://www.trentinospettacoli.it,,46.160026,10.765421,,
pat_2394735,2012-01-31T17:38:22+01:00,2012-02-14T22:09:43+01:00,War Horse,,,,,2012-03-10T00:00:00+01:00,2012-03-10T00:00:00+01:00,,,ore 21.15,"Paladolomiti , , Pinzolo",,"
Note: Usa, 2012 
Titolo originale: War Horse 
Genere: Guerra/Avventura 
Durata: 
Regia: Steven Spielberg 
Cast: Jeremy Irvine, Peter Mullan, Emily Watson, David Thewlis, Benedict Cumberbatch 
Dal romanzo omonimo di Michael Morpurgo. Durante la I Guerra Mondiale Albert, un giovane ragazzo inglese, parte per il fronte francese alla ricerca del suo amato cavallo Joey, venduto dal padre alla cavalleria britannica per far fronte ai problemi economici della famiglia. Sarà l'inizio di una lunga e travagliata avventura",,,,Cinema,,,,0,,,,,,http://www.trentinospettacoli.it,,46.160026,10.765421,,
pat_2394734,2012-01-31T17:38:21+01:00,2012-02-14T22:09:43+01:00,Come è bello far l'amore,,,,,2012-03-01T00:00:00+01:00,2012-03-01T00:00:00+01:00,,,ore 21.15,"Paladolomiti , , Pinzolo",,"
Note: Italia, 2012
Titolo originale: Come è bello far l'amore
Genere: Commedia
Durata: 97'
Regia: Fausto Brizzi 
Cast: Filippo Timi, Claudia Gerini, Giorgia Wurth, Fabio De Luigi, Alessandro SperdutiAndrea e Giulia sono una solida coppia di quarantenni, con un figlio adorabile, una bella casa e una tranquilla vita coniugale. Forse un filino troppo tranquilla... Andrea e Giulia, infatti, come tutte le coppie della loro età con figli grandi, non fanno sesso. Ma nella loro vita tutto cambia il giorno in cui in casa piomba Max, un vecchio e caro amico di Giulia, che di professione fa il pornodivo. Max stravolge subito i ritmi sonnacchiosi della casa e Giulia lo nomina da subito suo consigliere personale, nel tentativo disperato di rivitalizzare il suo matrimonio con Andrea. Quando Andrea scopre che Giulia ha raccontato tutto a Max della loro intimità, decisamente non la prende bene, ma Giulia lo fa ragionare: così non possono andare avanti, quantomeno non per tutta la vita. E Andrea, piano piano, si convince. ",,,,Cinema,,,,0,,,,,,http://www.trentinospettacoli.it,,46.160026,10.765421,,
pat_2394733,2012-01-31T17:38:21+01:00,2012-02-14T22:09:42+01:00,War Horse,,,,,2012-02-23T00:00:00+01:00,2012-02-23T00:00:00+01:00,,,ore 21.15,"Paladolomiti , , Pinzolo",,"
Note: Usa, 2012
Titolo originale: War Horse 
Genere: Guerra/Avventura
Durata: 
Regia: Steven Spielberg
Cast: Jeremy Irvine, Peter Mullan, Emily Watson, David Thewlis, Benedict Cumberbatch
Dal romanzo omonimo di Michael Morpurgo.Durante la I Guerra Mondiale Albert, un giovane ragazzo inglese, parte per il fronte francese alla ricerca del suo amato cavallo Joey, venduto dal padre alla cavalleria britannica per far fronte ai problemi economici della famiglia. Sarà l'inizio di una lunga e travagliata avventura.",,,,Cinema,,,,0,,,,,,http://www.trentinospettacoli.it,,46.160026,10.765421,,
pat_2395045,2012-01-31T17:38:13+01:00,2012-02-14T22:09:37+01:00,The Iron Lady,,,,,2012-03-07T00:00:00+01:00,2012-03-07T00:00:00+01:00,,,ore 21.00,"Cinema Comunale, , Tione di Trento",,"
Note: Il piacere del cinema
Gran Bretagna, 2011
Titolo originale: The Iron Lady
Genere: Biografico
Durata: 105'
Regia: Phyllida Lloyd
Cast: Meryl Streep, Jim Broadbent, Harry Lloyd, Anthony Head, Richard E. Grant
Sito internet: www.theironladymovie.co.ukMargaret Thatcher, ex Primo Ministro britannico, ormai ottantenne, fa colazione nella sua casa in Chester Square, a Londra. Malgrado suo marito Denis sia morto da diversi anni, la decisione di sgombrare finalmente il suo guardaroba risveglia in lei un'enorme ondata di ricordi. Al punto che, proprio mentre si accinge a dare inizio alla sua giornata, Denis le appare, vero come quando era in vita: leale, amorevole e dispettoso. Lo staff di Margaret manifesta preoccupazione a sua figlia, Carol Thatcher, per l'apparente confusione tra passato e presente dell'anziana donna. Preoccupazione che non fa che aumentare quando, durante la cena che ha organizzato quella sera, Margaret intrattiene i suoi ospiti incantandoli come sempre, ma a un bel momento si distrae rievocando la cena durante la quale conobbe Denis 60 anni prima. Il giorno dopo, Carol convince sua madre a farsi vedere da un dottore. Margaret sostiene di stare benissimo e non rivela al medico che i vividi ricordi dei momenti salienti della sua vita stanno invadendo le sue giornate nelle ore di veglia.Telefono: 0461/420788 (Coordinamento Teatrale Trentino)Altri organizzatori: Coordinamento Teatrale Trentino - Comune di Tione di Trento",,,,Cinema,,,,0,,,,,,http://www.trentinospettacoli.it|Coordinamento Teatrale Trentino - Comune di Tione di Trento,,46.037056,10.727519,,Redazione Trentino Cultura
pat_2395909,2012-01-31T17:38:08+01:00,2012-02-14T22:09:35+01:00,Lorax. Il guardiano della foresta,,,,,2012-04-07T00:00:00+02:00,2012-04-07T00:00:00+02:00,,,ore 21.30,"Paladolomiti , , Pinzolo",,"
Note: Usa, 2012
Titolo originale: Dr. Seuss' The Lorax
Genere: Animazione
Durata: 
Regia: Ken Daurio, Cinco Paul, Chris Renaud
Sito internet: www.theloraxmovie.com
Basato sul libro per bambini del Dr. Seuss pubblicato nel 1971.L'avventura animata segue il viaggio di un ragazzo e la sua ricerca dell'unica cosa che riuscirà a fargli conquistare l'attenzione della ragazza dei suoi sogni. Per scovarla dovrà scoprire la storia di Lorax, la brontolona e magica creatura che lotta per proteggere il suo mondo.",,,,Cinema,,,,0,,,,,,http://www.trentinospettacoli.it,,46.160026,10.765421,,
pat_2395908,2012-01-31T17:38:08+01:00,2012-02-14T22:09:34+01:00,Paradiso amaro,,,,,2012-02-25T00:00:00+01:00,2012-02-25T00:00:00+01:00,,,ore 21.15,"Paladolomiti , , Pinzolo",,"
Note: Usa, 2012
Titolo originale: The Descendants
Genere: Drammatico
Durata: 110'
Regia: Alexander Payne
Cast: George Clooney, Judy Greer, Shailene Woodley, Matthew Lillard, Beau Bridges, Robert Forster
Dal romanzo di Kaui Hart Hemmings.Matt King è un marito e padre da sempre indifferente e distante dalla famiglia. Ma quando la moglie rimane vittima di un incidente in barca nel mare di Waikiki è costretto a riavvicinarsi alle due figlie: e quindi a riconsiderare il suo passato e valutare un nuovo futuro. Mentre i loro rapporti si ricompatteranno, Matt è anche alle prese con la difficile decisione legata alla vendita di un terreno di famiglia, richiesto dalle elite delle Hawaii ma anche da un gruppo di missionari.",,,,Cinema,,,,0,,,,,,http://www.trentinospettacoli.it,,46.160026,10.765421,,
pat_2394503,2012-01-31T17:38:05+01:00,2012-02-14T22:09:30+01:00,Un giorno questo dolore ti sarà utile,,,,,2012-04-11T00:00:00+02:00,2012-04-11T00:00:00+02:00,,,ore 21.00,"Cinema Comunale, , Tione di Trento",,"
Note: Il piacere del cinema
Usa/Italia, 2011
Titolo originale: Someday this pain will be useful to you
Genere: Drammatico
Durata: 98'
Regia: Roberto Faenza
Cast: Toby Regbo, Deborah Ann Woll, Stephen Lang, Lucy Liu, Aubrey Plaza, Ellen Burstyn, Marcia Gay Harden, Siobhan Fallon, Peter Gallagher
Tratto dall'omonimo libro di Peter Cameron.James Sveck ha diciassette anni e nessuna voglia di essere raggiunto. Dal cellulare, che butta in un bidone artistico, e dagli adulti che lo vorrebbero consumatore di oggetti e affetti. Figlio di genitori separati e fratello minore di una sorella maggiore invaghitasi di un professore di teoria del linguaggio, James rifugge il mondo e comunica soltanto con Nanette, nonna di buon senso e di buon cuore, e Miró, un cagnetto nero che si crede umano. Deciso a non frequentare l'università e ad acquistare una vecchia casa nel Midwest in cui leggere libri e lavorare il legno per il resto della vita, il ragazzo è incalzato da mamma e papà che lo vogliono cool e realizzato. Gallerista con tre matrimoni falliti alle spalle, la madre, Peter Pan incallito col vizio della chirurgia estetica, il padre, i genitori di James corrono ai ripari e lo invitano a incontrare una life coach che gli indichi la via per il successo (sociale). Sensibile e umana la sua terapista ne accerterà la grande sensibilità, esortandolo a vivere secondo le regole del suo cuore.Telefono: 0461/420788 (Coordinamento Teatrale Trentino)Altri organizzatori: Coordinamento Teatrale Trentino - Comune di Tione di Trento",,,,Cinema,,,,0,,,,,,http://www.trentinospettacoli.it|Coordinamento Teatrale Trentino - Comune di Tione di Trento,,46.037056,10.727519,,Redazione Trentino Cultura
pat_2394738,2012-01-31T17:38:04+01:00,2012-02-14T22:09:27+01:00,The Help,,,,,2012-03-14T00:00:00+01:00,2012-03-14T00:00:00+01:00,,,ore 21.00,"Cinema Comunale, , Tione di Trento",,"
Note: Il piacere del cinema
Usa, 2011
Titolo originale: The Help
Genere: Drammatico
Durata: 137'
Regia: Tate Taylor
Cast: Emma Stone, Bryce Dallas Howard, Mike Vogel, Sissy Spacek, Allison Janney, Jessica Chastain
Sito internet: thehelpmovie.comAmbientata a Jackson, Mississippi, nei primi anni Sessanta, la storia esplora i temi del razzismo e del perbenismo di facciata delle famiglie del Sud, quando una aspirante scrittrice intervista una cameriera che racconta la verità sulle sue esperienze nelle case dei bianchi.Telefono: 0461/420788 (Coordinamento Teatrale Trentino)Altri organizzatori: Coordinamento Teatrale Trentino - Comune di Tione di Trento",,,,Cinema,,,,0,,,,,,http://www.trentinospettacoli.it|Coordinamento Teatrale Trentino - Comune di Tione di Trento,,46.037056,10.727519,,Redazione Trentino Cultura
pat_2394737,2012-01-31T17:38:04+01:00,2012-02-14T22:09:27+01:00,Millennium. Uomini che odiano le donne,,,,,2012-02-25T00:00:00+01:00,2012-02-26T00:00:00+01:00,,,ore 21.00,"Cinema Comunale, , Tione di Trento",,"
Note: Usa, 2012
Titolo originale: The Girl with the Dragon Tattoo
Genere: Drammatico/Thriller
Durata: 158'
Regia: David Fincher
Cast: Daniel Craig, Stellan Skarsgård, Rooney Mara, Robin Wright, Christopher Plummer, Steven Berkoff, Goran Visnjic, Yorick van Wageningen, Joely Richardson
Sito italiano: millenniumilfilm.tumblr.com
Remake americano tratto dal primo libro della serie Millennium scritto da Stieg Larsson.Il giornalista di successo Mikael Blomkvist (Daniel Craig), aiutato della giovane e ribelle hacker Lisbeth Salander (Rooney Mara,) accetta un incarico dal ricco industriale H. Vanger: indagare sulla scomparsa della nipote Harriet, avvenuta quarant'anni prima. Da allora, ogni anno un misterioso dono anonimo riapre la vicenda. Dopo mesi di ricerche, Blomkvist e Salander scopriranno la sconvolgente ed inaspettata verità. Telefono: 0461/420788 (Coordinamento Teatrale Trentino)Altri organizzatori: Coordinamento Teatrale Trentino - Comune di Tione di Trento",,,,Cinema,,,,0,,,,,,http://www.trentinospettacoli.it|Coordinamento Teatrale Trentino - Comune di Tione di Trento,,46.037056,10.727519,,Redazione Trentino Cultura
pat_2395017,2012-01-31T17:37:40+01:00,2012-02-14T22:08:57+01:00,Almanya. La mia famiglia va in Germania,,,,,2012-03-21T00:00:00+01:00,2012-03-21T00:00:00+01:00,,,ore 21.00,"Cinema Comunale, , Tione di Trento",,"
Note: Il piacere del cinema
Germania, 2011 
Titolo originale: Almanya - Willkommen in Deutschland 
Genere: Commedia 
Durata: 97' 
Regia: Yasemin Samdereli 
Cast: Vedat Erincin, Fahri Ogün Yardim, Lilay Huser, Demet Gül, Aylin Tezel, Denis Moschitto, Petra Schmidt-Schaller, Rafael Koussouris, Aliya Artuc, Kaan Aydogdu Protagonista del film è la famiglia Yilmaz, emigrata in Germania dalla Turchia negli anni 60 e giunta ormai alla terza generazione. Dopo una vita di sacrifici, il patriarca Hüseyin ha finalmente realizzato il sogno di comprare una casa in Turchia e ora vorrebbe farsi accompagnare fin lì da figli e nipoti per risistemarla. Malgrado lo scetticismo iniziale, la famiglia al completo si mette in viaggio e alle nuove avventure nella terra dorigine si intrecciano i ricordi tragicomici dei primi anni in Germania (Almanya in turco), quando la nuova patria sembrava un posto assurdo in cui vivere. Lungo il tragitto, però, vengono a galla molti segreti del passato e del presente e tutta la famiglia si troverà ad affrontare la sfida più ardua: quella di restare unita.Telefono: 0461/420788 (Coordinamento Teatrale Trentino)Altri organizzatori: Coordinamento Teatrale Trentino - Comune di Tione di Trento",,,,Cinema,,,,0,,,,,,http://www.trentinospettacoli.it|Coordinamento Teatrale Trentino - Comune di Tione di Trento,,46.037056,10.727519,,Redazione Trentino Cultura
pat_2396243,2012-01-31T17:37:30+01:00,2012-02-14T22:08:50+01:00,Gran Carnevale di Storo,,,,,2012-02-18T00:00:00+01:00,2012-02-25T00:00:00+01:00,,,,"Teatro Tenda, Località Piane, Storo",,"
Note: 45ª edizione
Il Gran Carnevale di Storo è lappuntamento clou dei festeggiamenti in maschera, e anche questanno si propone con tante novità, innestate su un impianto rodato di grande successo che ha richiamato migliaia di persone negli ultimi anni nel grande teatro tenda in Località le Piane. 
Da qualche anno lappuntamento è organizzato dai Mati Quadrati, un gruppo di giovanissimi, di età compresa tra i 23 e i 26 anni, che si presenta quest'anno nella nuova veste di Pro loco di Storo M2.
Giunto quest'anno alla 45ª edizione, il Gran Carnevale di Storo 2012 propone un ricco programma con divertimento assicurato per grandi e piccini!
Sabato 18 febbraio
Opening Carnival Party
 Dalle ore 22.00 Direttamente da Radio DeeJay ALBERTINO 
Dj set: Paolo Pellegrino (Baia Imperiale  Riccione)
Resident: David Monfri, Stop L.A., Anto EVO
In collaborazione con le NOTTI DI MAGGIO (Coredo Tn )
Ingresso  5 fino a Mezzanotte -  8 dopo Mezzanotte
Domenica 19 febbraio
Carnevale dei ragazzi  Giornata No Alcool
 Ore 14.00 Ritrovo presso il piazzale delloratorio e sfilata in maschera per le vie del paese
 Ore 15.30 Arrivo al Teatro Tenda presso piazzale caserma VVF. Intrattenimento con giochi, animazione e musica
 Ore 20.30 Serata di ballo liscio al Teatro Tenda presso piazzale caserma VVF con l'orchestra di CLAUDIO AMADORI
Ingresso libero
Martedì 21 febbraio
Carnevale dei Piccoli
 Ore 10.30 Sfilata dei bambini della scuola materna per le vie del centro storico. A seguire ritrovo al Teatro Tenda presso piazzale caserma VVF. Intrattenimento con giochi e animazione
Inizio Gran Carnevale
 Ore 14.30 Prima esibizione dei carri allegorici e gruppi mascherati lungo il classico percorso ad anello
 Ore 17.00 Chiusura spettacoli presso il teatro tenda piazzale caserma VVF. Degustazione della tipica polenta CARBONERA.e SPIEDO - Prenotazioni spiedo: 335-8144674. Intrattenimento disco con. Dj Catta
Ingresso libero
Gran Ballo Mascherato
 Ore 21.00 Presso il Teatro Tenda in località Piane, Musica live con i RADIO SHOCK
Durante la serata PREMIAZIONI dei carri e dei gruppi che hanno partecipato al Martedi di Carnevale .
Assegnazione del trofeo MatiQuadrati 
A seguire:
Special VOICE: ALBERTO RUFFO
Dj Set: STOP L.A.
Funzionerà ottimo bar ristoro
Ingresso  5,00
Sabato 25 febbraio
Chiusura Gran Carnevale
 Ore 14.30 seconda grande esibizione dei carri allegorici e gruppi mascherati lungo il classico percorso ad anello
 Ore 17.00 Chiusura spettacoli presso il teatro tenda piazzale caserma VVF. Degustazione della tipica polenta CARBONERA.e SPIEDO. Intrattenimento disco con Dj Catta.
Ingresso libero.
 
Gran Ballo Mascherato
 Ore 21.00 Presso il Teatro Tenda in località Piane, Musica live con i mitici SHOULDER.
 Ore 24.00 Durante la serata PREMIAZIONI dei carri e dei gruppi che hanno partecipato al Gran Carnevale di Storo. Assegnazione del TROFEO GRAN CARNEVALE e del TROFEO HERMANN. Estrazione lotteria.
A seguire: Dj Set 
Direttamente da Radio 105 e dalla trasmissione &quot,Tutto Esaurito&quot, MITCH
Guest Dj: ALEX TOZZO
Resident: David Monfri, Anto EVO
Ingresso  10.Servizio Bus Navetta da Tione, Vestone e Bezzecca.Telefono: 0465/685033 (Ufficio Turistico Lodrone)",,,,Manifestazioni ed eventi,,,,0,,,,,,http://www.visitchiese.it,,0.0,0.0,,Redazione Trentino Cultura
pat_2395925,2012-01-31T17:37:10+01:00,2012-02-14T22:08:31+01:00,Lorax. Il guardiano della foresta,,,,,2012-04-14T00:00:00+02:00,2012-04-15T00:00:00+02:00,,,ore 16.30,"Cinema Comunale, , Tione di Trento",,"
Note: Usa, 2012
Titolo originale: Dr. Seuss' The Lorax
Genere: Animazione
Durata: 
Regia: Ken Daurio, Cinco Paul, Chris Renaud
Sito internet: www.theloraxmovie.com
Basato sul libro per bambini del Dr. Seuss pubblicato nel 1971.L'avventura animata segue il viaggio di un ragazzo e la sua ricerca dell'unica cosa che riuscirà a fargli conquistare l'attenzione della ragazza dei suoi sogni. Per scovarla dovrà scoprire la storia di Lorax, la brontolona e magica creatura che lotta per proteggere il suo mondo.Telefono: 0461/420788 (Coordinamento Teatrale Trentino)Altri organizzatori: Coordinamento Teatrale Trentino - Comune di Tione di Trento",,,,Cinema,,,,0,,,,,,http://www.trentinospettacoli.it|Coordinamento Teatrale Trentino - Comune di Tione di Trento,,46.037056,10.727519,,Redazione Trentino Cultura
pat_2396359,2012-01-31T17:37:01+01:00,2012-02-14T22:08:21+01:00,Pù de qua che de là,,,,,2012-02-19T00:00:00+01:00,2012-02-19T00:00:00+01:00,,,ore 20.45,"Cavrasto - Teatro parrocchiale, , Bleggio Superiore",,Note: Rappresentazione teatrale della filodrammatica di Cavrasto Telefono: 0465/702626Fax: 0465/702281,,,,Teatro,,,,0,,,,,,http://www.visitacomano.it,,46.025236,10.837429,,
pat_2394125,2012-01-31T17:36:58+01:00,2012-02-14T22:08:19+01:00,La chiave di Sara,,,,,2012-02-15T00:00:00+01:00,2012-02-15T00:00:00+01:00,,,ore 21.00,"Cinema Comunale, , Tione di Trento",,"
Note: Il piacere del cinema
Francia, 2010
Titolo originale: Elle s'appelait Sarah
Genere: Drammatico
Durata: 110'
Regia: Gilles Paquet-Brenner
Cast: Kristin Scott Thomas, Mélusine Mayance, Niels Arestrup, Frédéric Pierrot, Michel Duchaussoy, Dominique Frot, Gisèle Casadesus, Aidan Quinn, Natasha Mashkevich, Arben Bajraktaraj
Tratto dal best seller di Tatiana de Rosnay.Julia Jarmond è una giornalista americana, moglie di un architetto francese e madre di una figlia adolescente. Da vent'anni vive a Parigi e scrive articoli impegnati e saggi partecipi. Indagando su uno degli episodi più ignobili della storia francese, il rastrellamento di tredicimila ebrei, arrestati e poi concentrati dalla polizia francese nel Vélodrome d'Hiver nel luglio del 1942, 'incrocia' Sara e apprende la sua storia, quella di una bambina di pochi anni e ostinata resistenza che sopravviverà alla sua famiglia e agli orrori della guerra. Impressionata e coinvolta, Julia approfondirà la sua inchiesta scoprendo di essere coinvolta suo malgrado e da vicino nella tragedia di Sara. Con pazienza e determinazione ricostruirà l'odissea di una bambina, colmando i debiti morali, rifondendo il passato e provando a immaginare un futuro migliore. Telefono: 0461/420788 (Coordinamento Teatrale Trentino)Altri organizzatori: Coordinamento Teatrale Trentino - Comune di Tione di Trento",,,,Cinema,,,,0,,,,,,http://www.trentinospettacoli.it|Coordinamento Teatrale Trentino - Comune di Tione di Trento,,46.037056,10.727519,,Redazione Trentino Cultura
pat_2394967,2012-01-31T17:36:55+01:00,2012-02-14T22:08:16+01:00,Hysteria,,,,,2012-04-04T00:00:00+02:00,2012-04-04T00:00:00+02:00,,,ore 21.00,"Cinema Comunale, , Tione di Trento",,"
Note: Il piacere del cinema
Gran Bretagna, 2011
Titolo originale: Hysteria
Genere: Commedia/Romantico
Durata: 
Regia: Tanya Wexler 
Cast: Hugh Dancy, Maggie Gyllenhaal, Rupert Everett, Jonathan Pryce, Felicity Jones, Ashley Jensen1880. Nella pudica Londra vittoriana, il brillante giovane dottore Mortimer Granville è in cerca di un nuovo lavoro. Lo trova presso il Dottor Dalrymple, specializzato nel trattamento dei casi di isteria. Dalrymple è convinto che la causa del malanno sia anche la repressione sessuale imperante in quell'epoca, e cura le &quot,isteriche&quot, con una terapia scandalosamente efficace: il &quot,massaggio manuale&quot, sotto le gonne delle sue pazienti. Il dottore, però, deve lottare contro la fiera disapprovazione della figlia Charlotte, sostenitrice dei diritti delle donne più deboli. Mortimer decide di affinare il metodo terapeutico: quando il suo lungimirante amico Edmund gli rivela il progetto del suo nuovo spolverino elettrico, gli viene in mente un'idea irresistibile.Telefono: 0461/420788 (Coordinamento Teatrale Trentino)Altri organizzatori: Coordinamento Teatrale Trentino - Comune di Tione di Trento",,,,Cinema,,,,0,,,,,,http://www.trentinospettacoli.it|Coordinamento Teatrale Trentino - Comune di Tione di Trento,,46.037056,10.727519,,Redazione Trentino Cultura
pat_2394732,2012-01-31T17:36:02+01:00,2012-02-14T22:07:30+01:00,Come è bello far l'amore,,,,,2012-02-18T00:00:00+01:00,2012-02-18T00:00:00+01:00,,,ore 21.15,"Paladolomiti , , Pinzolo",,"
Note: Italia, 2012
Titolo originale: Come è bello far l'amore
Genere: Commedia
Durata: 97'
Regia: Fausto Brizzi 
Cast: Filippo Timi, Claudia Gerini, Giorgia Wurth, Fabio De Luigi, Alessandro SperdutiAndrea e Giulia sono una solida coppia di quarantenni, con un figlio adorabile, una bella casa e una tranquilla vita coniugale. Forse un filino troppo tranquilla... Andrea e Giulia, infatti, come tutte le coppie della loro età con figli grandi, non fanno sesso. Ma nella loro vita tutto cambia il giorno in cui in casa piomba Max, un vecchio e caro amico di Giulia, che di professione fa il pornodivo. Max stravolge subito i ritmi sonnacchiosi della casa e Giulia lo nomina da subito suo consigliere personale, nel tentativo disperato di rivitalizzare il suo matrimonio con Andrea. Quando Andrea scopre che Giulia ha raccontato tutto a Max della loro intimità, decisamente non la prende bene, ma Giulia lo fa ragionare: così non possono andare avanti, quantomeno non per tutta la vita. E Andrea, piano piano, si convince. ",,,,Cinema,,,,0,,,,,,http://www.trentinospettacoli.it,,46.160026,10.765421,,
pat_2395296,2012-01-31T17:35:26+01:00,2012-02-14T22:06:53+01:00,La talpa,,,,,2012-02-11T00:00:00+01:00,2012-02-12T00:00:00+01:00,,,ore 21.00,"Cinema Comunale, , Tione di Trento",,"
Note: Gran Bretagna, 2011
Titolo originale: Tinker, Tailor, Soldier, Spy
Genere: Spionaggio
Durata: 127'
Regia: Tomas Alfredson
Cast: Gary Oldman, Colin Firth, Tom Hardy, Mark Strong, Ciarán Hinds, John Hurt, Benedict Cumberbatch, David Dencik, Stephen Graham, Simon McBurney, Toby Jones, Kathy Burke, Konstantin Khabensky
Adattamento di uno dei romanzi più celebri di John Le Carré, &quot,La talpa&quot,, primo volume della cosiddetta Trilogia di Karla. Ambientata negli anni 70, è la storia di George Smiley, un ex agente del MI6 ormai in pensione, alle prese con la nuova vita fuori dai servizi segreti. Quando un agente caduto in disgrazia gli rivela la presenza di una talpa nel cuore del Circus, Smiley è costretto a rientrare nel torbido mondo dello spionaggio. Incaricato di scoprire quale tra i suoi ex colleghi abbia deciso di tradire lui e il paese, Smiley restringe la ricerca a quattro possibili sospetti.Telefono: 0461/420788 (Coordinamento Teatrale Trentino)Altri organizzatori: Coordinamento Teatrale Trentino - Comune di Tione di Trento",,,,Cinema,,,,0,,,,,,http://www.trentinospettacoli.it|Coordinamento Teatrale Trentino - Comune di Tione di Trento,,46.037056,10.727519,,Redazione Trentino Cultura
pat_2394495,2012-01-31T17:35:10+01:00,2012-02-14T22:10:48+01:00,Hugo Cabret,,,,,2012-03-17T00:00:00+01:00,2012-03-17T00:00:00+01:00,,,ore 21.15,"Paladolomiti , , Pinzolo",,"
Note: Usa, 2011
Titolo originale: Hugo
Genere: Avventura/Fantastico
Durata: 126'
Regia: Martin Scorsese
Cast: Chloe Moretz, Asa Butterfield, Sacha Baron Cohen, Ben Kingsley, Jude Law
Sito internet: www.hugomovie.comPrende spunto dal racconto illustrato di oltre 500 pagine di David Selznick il nuovo film di Martin Scorsese. Il libro, vincitore del prestigioso Randolph Caldecott Medal nel 2008, illustra la storia di un orfano che vive nella stazione dei treni a Parigi intorno al 1930. Hugo ha 12 anni e per mantenersi è costretto a rubare e vivere nell'anonimato. Quando però conosce una ragazza eccentrica e il proprietario di un negozio di giocattoli molto speciale, il suo mondo entra in pericolo e si ritrova a fare i conti con un uomo meccanico, chiavi rubate e disegni misteriosi. Tutto questo è più che comprensibile se il proprietario del negozio di giocattoli è George Méliès.",,,,Cinema,,,,0,,,,,,http://www.trentinospettacoli.it,,46.160026,10.765421,,
pat_2395050,2012-01-31T17:35:04+01:00,2012-02-14T22:06:30+01:00,The Artist,,,,,2012-02-22T00:00:00+01:00,2012-02-22T00:00:00+01:00,,,ore 21.00,"Cinema Comunale, , Tione di Trento",,"
Note: Il piacere del cinema
Francia, 2011
Titolo originale: The Artist
Genere: Drammatico
Durata: 100'
Regia: Michel Hazanavicius
Cast: Jean Dujardin, Bérénice Bejo, John Goodman, James Cromwell, Missi Pyle, Penelope Ann Miller, Malcolm McDowell
Sito internet: www.warnerbros.frNella Hollywood del 1927 George Valentin è una star di prima grandezza del mondo del cinema muto che però deve fare i conti con lavvento del sonoro. La sua carriera rischia unimprovvisa e prematura conclusione mentre quella della sua amata, la giovane comparsa Peppy Miller, sta per trasformarsi in quella di una diva.Telefono: 0461/420788 (Coordinamento Teatrale Trentino)Altri organizzatori: Coordinamento Teatrale Trentino - Comune di Tione di Trento",,,,Cinema,,,,0,,,,,,http://www.trentinospettacoli.it|Coordinamento Teatrale Trentino - Comune di Tione di Trento,,46.037056,10.727519,,Redazione Trentino Cultura
pat_2393075,2012-01-31T17:34:59+01:00,2012-02-14T22:06:24+01:00,Arthur e la Guerra dei Due Mondi,,,,,2012-02-21T00:00:00+01:00,2012-02-21T00:00:00+01:00,,,ore 16.30,"Cinema Comunale, , Tione di Trento",,"
Note: Francia, 2010
Titolo originale: Arthur 3 La guerre des deux mondes
Genere: Animazione
Durata: 100'
Regia: Luc Besson
Sito internet: arthuretlesminimoys.com
Tratto dall'omonimo romanzo di Luc Besson scritto nel 2005.
Terzo capitolo della saga fantasy ideata da Luc BessonMaltazard è ormai alto 2 metri e 10, e vuole dominare il mondo. Solo Arthur e i suoi amici Sélénia e Bétamèche, tutti e tre in versione Minimei, possono fermarlo. Dall' &quot,alto&quot, dei loro 2 millimetri di altezza dovranno fare ricorso a tutta la loro immaginazione ed ingegno per contrastare i machiavellici piani di Maltazard e ristabilire l'armonia tra i due mondi.Telefono: 0461/420788 (Coordinamento Teatrale Trentino)Altri organizzatori: Coordinamento Teatrale Trentino - Comune di Tione di Trento",,,,Cinema,,,,0,,,,,,http://www.trentinospettacoli.it|Coordinamento Teatrale Trentino - Comune di Tione di Trento,,46.037056,10.727519,,Redazione Trentino Cultura
pat_2393203,2012-01-31T17:34:56+01:00,2012-02-14T22:06:20+01:00,I Muppet,,,,,2012-03-03T00:00:00+01:00,2012-03-04T00:00:00+01:00,,,"sabato ore 21.00

domenica ore 16.30 - 21.00","Cinema Comunale, , Tione di Trento",,"
Note: Usa, 2012
Titolo originale: The Muppets
Genere: Commedia
Durata: 103'
Regia: James Bobin
Cast: Emily Blunt, Ricky Gervais, Amy Adams, Zach Galifianakis, Rashida Jones, Chris Cooper, Alan Arkin
Sito internet: disney.go.com/muppetsIn vacanza a Los Angeles con i suoi amici Gary e Mary da Smalltown, Walter, il più grande fan dei Muppet, scopre il malvagio piano del petroliere Tex Richman di radere al suolo il teatro dei Muppet per scavare nel suo sottosuolo e recuperare il petrolio scoperto di recente. Per mettere in piedi il più grande Muppet Telethon di sempre e raccogliere i 10 milioni di dollari necessari per salvare il teatro, Walter, Mary e Gary aiutano Kermit a riunire i Muppet, che hanno intrapreso strade diverse: Fozzie ora si esibisce a Reno in una band tributo chiamata Moopets, Miss Piggy è una redattrice di moda di Vogue Parigi, Animal è a Santa Monica in una clinica per manager infuriati e Gonzo è un potente magnate di impianti idraulici.Telefono: 0461/420788 (Coordinamento Teatrale Trentino)Altri organizzatori: Coordinamento Teatrale Trentino - Comune di Tione di Trento",,,,Cinema,,,,0,,,,,,http://www.trentinospettacoli.it|Coordinamento Teatrale Trentino - Comune di Tione di Trento,,46.037056,10.727519,,Redazione Trentino Cultura
pat_2393204,2012-01-31T17:34:56+01:00,2012-02-14T22:06:21+01:00,Posti in piedi in paradiso,,,,,2012-03-17T00:00:00+01:00,2012-03-18T00:00:00+01:00,,,ore 21.00,"Cinema Comunale, , Tione di Trento",,"
Note: Italia, 2012
Titolo originale: Posti in piedi in paradiso
Genere: Commedia
Durata: 
Regia: Carlo Verdone
Cast: Carlo Verdone, Micaela Ramazzotti, Pierfrancesco Favino, Marco Giallini
Sito internet: www.postinpiediinparadiso.itUlisse, un ex discografico di successo, vive nel retro del suo negozio di vinili e arrotonda le scarse entrate vendendo &quot,memorabilia&quot, su e-bay. Ha una figlia, Agnese, che vive a Parigi con la madre Claire, un'ex cantante. Fulvio, ex critico cinematografico, scrive di gossip e vive presso un convitto di religiose. Anche lui ha una bambina, di tre anni, che non vede quasi mai a causa del pessimo rapporto con l'ex moglie Lorenza. Domenico, in passato ricco imprenditore, è oggi un agente immobiliare che dorme sulla barca di un amico e, per mantenere ben due famiglie, fa il gigolo con le signore di una certa età. Ha un rapporto conflittuale con i due figli più grandi ed è perennemente in ritardo con gli alimenti da versare alla sua ex moglie e all'ex amante Marisa, da cui ha avuto un'altra figlia. Dopo un incontro casuale, durante la ricerca di una casa in affitto, Domenico realizza di avere incontrato due poveracci come lui e propone ad Ulisse e Fulvio di andare a vivere insieme per dividere le spese di un appartamento. Inizia così la loro convivenza e la loro amicizia.Telefono: 0461/420788 (Coordinamento Teatrale Trentino)Altri organizzatori: Coordinamento Teatrale Trentino - Comune di Tione di Trento",,,,Cinema,,,,0,,,,,,http://www.trentinospettacoli.it|Coordinamento Teatrale Trentino - Comune di Tione di Trento,,46.037056,10.727519,,Redazione Trentino Cultura
pat_2393202,2012-01-31T17:34:52+01:00,2012-02-14T22:06:17+01:00,L'arte di vincere,,,,,2012-02-18T00:00:00+01:00,2012-02-19T00:00:00+01:00,,,ore 21.00,"Cinema Comunale, , Tione di Trento",,"
Note: Usa, 2011
Titolo originale: Moneyball
Genere: Drammatico
Durata: 126'
Regia: Bennett Miller
Cast: Brad Pitt, Jonah Hill, Robin Wright Penn, Philip Seymour Hoffman, Chris Pratt
Sito internet: www.moneyball-movie.netGli Oakland Athletics sono una buona squadra di baseball che però non può competere con i budget stratosferici di squadre come ad esempio i New York Yankees. Quando al termine di una buona stagione il general manager Billy Beane si vede portar via i suoi tre migliori giocatori, la loro sostituzione diventa impossibile, soprattutto con i pochissimi soldi a disposizione. A questo punto però Beane incontra Peter Brand, giovane laureato in economia che gli dimostra come si possa costruire una squadra vincente basandosi sulle statistiche invece che sui nomi altisonanti. Beane abbraccia la filosofia del ragazzo e rifonda la squadra con nomi sconosciuti o apparenti scarti, lasciando basiti tutti i collaboratori degli Oakland Athletics, compreso l'allenatore Art Howe. All'inizio le cose non sembrano funzionare, ma pian piano il &quot,sistema&quot, messo in piedi da Beane Brand comincia a dare frutti insperati Telefono: 0461/420788 (Coordinamento Teatrale Trentino)Altri organizzatori: Coordinamento Teatrale Trentino - Comune di Tione di Trento",,,,Cinema,,,,0,,,,,,http://www.trentinospettacoli.it|Coordinamento Teatrale Trentino - Comune di Tione di Trento,,46.037056,10.727519,,Redazione Trentino Cultura
pat_2393201,2012-01-31T17:34:52+01:00,2012-02-14T22:06:16+01:00,L'incredibile storia di Winter il delfino,,,,,2012-02-18T00:00:00+01:00,2012-02-19T00:00:00+01:00,,,ore 16.30,"Cinema Comunale, , Tione di Trento",,"
Note: Usa, 2011
Titolo originale: Dolphin Tale
Genere: Drammatico
Durata: 113'
Regia: Charles Martin Smith
Cast: Morgan Freeman, Ashley Judd, Kris Kristofferson, Harry Connick Jr., Ray McKinnon, Nathan Gamble, Rus Blackwell, Marc Macaulay, Frances Sternhagen, Jim Fitzpatrick, Austin Stowell, Richard Libertini, Mike Pniewski
Sito internet: www.winterildelfino.itIl film è ispirato alla storia vera del delfino Winter e della comunità che si unisce per salvargli la vita: mentre nuota libero, un giovane delfino rimane impigliato in una trappola per granchi e riporta gravi ferite alla coda, viene soccorso e trasportato al Clearwater Marine Hospital, dove gli viene dato il nome Winter. Ma la sua lotta per sopravvivere è solo all'inizio. La perdita della coda può costargli la vita e saranno necessarie l'esperienza di un appassionato biologo marino, l'ingegno di un brillante medico esperto di prostetica e l'incrollabile devozione di un ragazzo per portare a compimento un miracolo - un miracolo che non solo ha salvato Winter, ma è riuscito ad aiutare migliaia di persone in tutto il mondo.Telefono: 0461/420788 (Coordinamento Teatrale Trentino)Altri organizzatori: Coordinamento Teatrale Trentino - Comune di Tione di Trento",,,,Cinema,,,,0,,,,,,http://www.trentinospettacoli.it|Coordinamento Teatrale Trentino - Comune di Tione di Trento,,46.037056,10.727519,,Redazione Trentino Cultura
pat_2393178,2012-01-31T17:34:32+01:00,2012-02-14T22:05:59+01:00,Posti in piedi in paradiso,,,,,2012-03-15T00:00:00+01:00,2012-03-15T00:00:00+01:00,,,ore 21.15,"Paladolomiti , , Pinzolo",,"
Note: Italia, 2012
Titolo originale: Posti in piedi in paradiso
Genere: Commedia
Durata: 
Regia: Carlo Verdone
Cast: Carlo Verdone, Micaela Ramazzotti, Pierfrancesco Favino, Marco Giallini
Sito internet: www.postinpiediinparadiso.itUlisse, un ex discografico di successo, vive nel retro del suo negozio di vinili e arrotonda le scarse entrate vendendo &quot,memorabilia&quot, su e-bay. Ha una figlia, Agnese, che vive a Parigi con la madre Claire, un'ex cantante. Fulvio, ex critico cinematografico, scrive di gossip e vive presso un convitto di religiose. Anche lui ha una bambina, di tre anni, che non vede quasi mai a causa del pessimo rapporto con l'ex moglie Lorenza. Domenico, in passato ricco imprenditore, è oggi un agente immobiliare che dorme sulla barca di un amico e, per mantenere ben due famiglie, fa il gigolo con le signore di una certa età. Ha un rapporto conflittuale con i due figli più grandi ed è perennemente in ritardo con gli alimenti da versare alla sua ex moglie e all'ex amante Marisa, da cui ha avuto un'altra figlia. Dopo un incontro casuale, durante la ricerca di una casa in affitto, Domenico realizza di avere incontrato due poveracci come lui e propone ad Ulisse e Fulvio di andare a vivere insieme per dividere le spese di un appartamento. Inizia così la loro convivenza e la loro amicizia.",,,,Cinema,,,,0,,,,,,http://www.trentinospettacoli.it,,46.160026,10.765421,,
pat_2393177,2012-01-31T17:34:31+01:00,2012-02-14T22:05:58+01:00,I Muppet,,,,,2012-03-11T00:00:00+01:00,2012-03-11T00:00:00+01:00,,,ore 17.30,"Paladolomiti , , Pinzolo",,"
Note: Usa, 2012
Titolo originale: The Muppets
Genere: Commedia
Durata: 103'
Regia: James Bobin
Cast: Emily Blunt, Ricky Gervais, Amy Adams, Zach Galifianakis, Rashida Jones, Chris Cooper, Alan Arkin
Sito internet: disney.go.com/muppetsIn vacanza a Los Angeles con i suoi amici Gary e Mary da Smalltown, Walter, il più grande fan dei Muppet, scopre il malvagio piano del petroliere Tex Richman di radere al suolo il teatro dei Muppet per scavare nel suo sottosuolo e recuperare il petrolio scoperto di recente. Per mettere in piedi il più grande Muppet Telethon di sempre e raccogliere i 10 milioni di dollari necessari per salvare il teatro, Walter, Mary e Gary aiutano Kermit a riunire i Muppet, che hanno intrapreso strade diverse: Fozzie ora si esibisce a Reno in una band tributo chiamata Moopets, Miss Piggy è una redattrice di moda di Vogue Parigi, Animal è a Santa Monica in una clinica per manager infuriati e Gonzo è un potente magnate di impianti idraulici.",,,,Cinema,,,,0,,,,,,http://www.trentinospettacoli.it,,46.160026,10.765421,,
pat_2393176,2012-01-31T17:34:31+01:00,2012-02-14T22:05:58+01:00,Posti in piedi in paradiso,,,,,2012-03-08T00:00:00+01:00,2012-03-08T00:00:00+01:00,,,ore 21.15,"Paladolomiti , , Pinzolo",,"
Note: Italia, 2012
Titolo originale: Posti in piedi in paradiso
Genere: Commedia
Durata: 
Regia: Carlo Verdone
Cast: Carlo Verdone, Micaela Ramazzotti, Pierfrancesco Favino, Marco Giallini
Sito internet: www.postinpiediinparadiso.itUlisse, un ex discografico di successo, vive nel retro del suo negozio di vinili e arrotonda le scarse entrate vendendo &quot,memorabilia&quot, su e-bay. Ha una figlia, Agnese, che vive a Parigi con la madre Claire, un'ex cantante. Fulvio, ex critico cinematografico, scrive di gossip e vive presso un convitto di religiose. Anche lui ha una bambina, di tre anni, che non vede quasi mai a causa del pessimo rapporto con l'ex moglie Lorenza. Domenico, in passato ricco imprenditore, è oggi un agente immobiliare che dorme sulla barca di un amico e, per mantenere ben due famiglie, fa il gigolo con le signore di una certa età. Ha un rapporto conflittuale con i due figli più grandi ed è perennemente in ritardo con gli alimenti da versare alla sua ex moglie e all'ex amante Marisa, da cui ha avuto un'altra figlia. Dopo un incontro casuale, durante la ricerca di una casa in affitto, Domenico realizza di avere incontrato due poveracci come lui e propone ad Ulisse e Fulvio di andare a vivere insieme per dividere le spese di un appartamento. Inizia così la loro convivenza e la loro amicizia.",,,,Cinema,,,,0,,,,,,http://www.trentinospettacoli.it,,46.160026,10.765421,,
pat_2393175,2012-01-31T17:34:23+01:00,2012-02-14T22:05:52+01:00,L'arte di vincere,,,,,2012-02-16T00:00:00+01:00,2012-02-16T00:00:00+01:00,,,ore 21.15,"Paladolomiti , , Pinzolo",,"
Note: Usa, 2011
Titolo originale: Moneyball
Genere: Drammatico
Durata: 126'
Regia: Bennett Miller
Cast: Brad Pitt, Jonah Hill, Robin Wright Penn, Philip Seymour Hoffman, Chris Pratt
Sito internet: www.moneyball-movie.netGli Oakland Athletics sono una buona squadra di baseball che però non può competere con i budget stratosferici di squadre come ad esempio i New York Yankees. Quando al termine di una buona stagione il general manager Billy Beane si vede portar via i suoi tre migliori giocatori, la loro sostituzione diventa impossibile, soprattutto con i pochissimi soldi a disposizione. A questo punto però Beane incontra Peter Brand, giovane laureato in economia che gli dimostra come si possa costruire una squadra vincente basandosi sulle statistiche invece che sui nomi altisonanti. Beane abbraccia la filosofia del ragazzo e rifonda la squadra con nomi sconosciuti o apparenti scarti, lasciando basiti tutti i collaboratori degli Oakland Athletics, compreso l'allenatore Art Howe. All'inizio le cose non sembrano funzionare, ma pian piano il &quot,sistema&quot, messo in piedi da Beane Brand comincia a dare frutti insperati ",,,,Cinema,,,,0,,,,,,http://www.trentinospettacoli.it,,46.160026,10.765421,,
pat_2392216,2012-01-31T17:34:01+01:00,2012-02-14T22:05:32+01:00,Hugo Cabret,,,,,2012-03-10T00:00:00+01:00,2012-03-11T00:00:00+01:00,,,"sabato ore 21.00

domenica ore 16.30 - 21.00","Cinema Comunale, , Tione di Trento",,"
Note: Usa, 2011
Titolo originale: Hugo
Genere: Avventura/Fantastico
Durata: 126'
Regia: Martin Scorsese
Cast: Chloe Moretz, Asa Butterfield, Sacha Baron Cohen, Ben Kingsley, Jude Law
Sito internet: www.hugomovie.comPrende spunto dal racconto illustrato di oltre 500 pagine di David Selznick il nuovo film di Martin Scorsese. Il libro, vincitore del prestigioso Randolph Caldecott Medal nel 2008, illustra la storia di un orfano che vive nella stazione dei treni a Parigi intorno al 1930. Hugo ha 12 anni e per mantenersi è costretto a rubare e vivere nell'anonimato. Quando però conosce una ragazza eccentrica e il proprietario di un negozio di giocattoli molto speciale, il suo mondo entra in pericolo e si ritrova a fare i conti con un uomo meccanico, chiavi rubate e disegni misteriosi. Tutto questo è più che comprensibile se il proprietario del negozio di giocattoli è George Méliès.Telefono: 0461/420788 (Coordinamento Teatrale Trentino)Altri organizzatori: Coordinamento Teatrale Trentino - Comune di Tione di Trento",,,,Cinema,,,,0,,,,,,http://www.trentinospettacoli.it|Coordinamento Teatrale Trentino - Comune di Tione di Trento,,46.037056,10.727519,,Redazione Trentino Cultura
pat_2376992,2012-01-31T17:33:31+01:00,2012-02-14T22:05:03+01:00,Nella vecchia fattoria,,,,,2012-03-13T00:00:00+01:00,2012-03-13T00:00:00+01:00,,,ore 10.15,"Auditorium dell'Istituto D. L. Guetti, , Tione di Trento",,"
Note: La scuola va a teatro
Scuola primaria 
Il teatro delle quisquilie 
Nella vecchia fattoria
La storia di zio Tobia (e di zia Maria!) fatta di canzoni, pupazzi e attori
con Adele Pardi e Andrea Coppi 
pupazzi di Nadezhda Simeonova 
scenografie e luci di Andrea Coppi 
canzoni originali, drammaturgia e regia di Massimo Lazzeri 
Una giornata di sole, che inizia con il canto del gallo, come tutte le giornate nella fattoria di zio Tobia, che appena alzato provvede a sistemare la stalla e a nutrire i suoi animali: le galline, la capra, lasino, il cane, il gatto, le oche, 
La fattoria è vecchia, ma non si può dire altrettanto di Zio Tobia, che non è un vecchietto con la pipa in bocca che cammina a passi lenti, ma un ragazzo alto, riccio e sorridente, con un cappello di paglia che toglie solo -quando si ricorda- per andare a dormire. Manda avanti da solo la fattoria, coltiva i campi, vende il latte e le uova. Parla con le sue bestie come se capisse quello che dicono e, soprattutto, canta con gioia. 
Ogni giornata è straordinaria e riserva delle sorprese. Questa volta la sorpresa ha un nome: Maria. Lingresso di Maria nella vita di Tobia è improvviso, inaspettato e, a dir poco, irruento: con la sua bicicletta entra dritta nel fienile senza riuscire a frenare, e si ferma in un mucchio di fieno. È una pasticciona, una cittadina, una curiosona che non sa nulla della vita di campagna e che, a Tobia, risulta subito antipatica. Finché non scopre i suoi talenti: ha una voce meravigliosa e cucina dei dolci squisiti. Ed ecco che, tra una canzone e una fetta di torta, al termine della giornata, con la complicità della luna e delle stelle, scocca finalmente lamore tra Maria e Tobia. 
Le canzoni sono cantate rigorosamente dal vivo, la scenografia è semplice ed efficace, gli animali sono dei colorati pupazzi, animati dagli attori. Ad ognuno la sua canzone, il suo numero, il suo momento di gloria, in questo spettacolo che è un musical in miniatura, dove i pupazzi e gli attori formano una grande, chiassosa e allegra famiglia, unita e animata da mattina a sera dalla musica e dai suoni, dal canto del gallo a quello delle cicale. Altri organizzatori: Teatro delle Quisquilie",,,,Teatro,,,,0,,,,,,http://www.teatrosanmarco.it/|Teatro delle Quisquilie,,46.037056,10.727519,,
pat_2376994,2012-01-31T17:33:22+01:00,2012-02-14T22:04:58+01:00,Le città invisibili,,,,,2012-03-22T00:00:00+01:00,2012-03-22T00:00:00+01:00,,,ore 10.15,"Auditorium dell'Istituto D. L. Guetti, , Tione di Trento",,"
Note: La scuola va a teatro
Scuola secondaria di primo grado
Ex-Format 
Le città invisibili
tratto dal romanzo di Italo Calvino 
con Irene Guadagnini 
scene e costumi di Sara Parisi 
elaborazioni audiovisive di Corrado Measso 
regia di Nuccio Ambrosino 
Le città invisibili, spettacolo tratto dal libro di Italo Calvino, racconta il viaggio di Marco Polo alla scoperta delle città dell'impero: città immaginarie, strane, poetiche, divertenti, ognuna con una caratteristica che la rende unica: c'è la città appesa a un filo e sospesa sopra un precipizio, la città nella quale abitano dèi piccoli come gnomi, chiacchieroni e indisponenti, la città dove al posto dell'aria c'è la terra, la città costruita sull'acqua. Il viaggio di Marco Polo è raccontato come una favola, attraverso l'uso delle ombre cinesi, che riportano l'atmosfera magica, quasi di sogno, della storia, punteggiato dall'apparizione di queste città fantastiche, non lette ma vissute e rappresentate sulla scena, attraverso suggestioni, fascinazioni, immagini, costumi, oggetti. La parola di Calvino, così ricercata, precisa e allo stesso tempo originale e fantasiosa, viene rispettata e portata sulla scena così com'è, con la sua bellezza e suggestione. Sono le luci, le videoproiezioni, i movimenti, gli abiti a darle corpo e significato, giocando con la fantasia e la poesia dell'immaginazione, e con lo sguardo e l'ascolto del pubblico, che possa riscoprire in queste strane città un pezzo della propria, reale o desiderata che sia. Altri organizzatori: Teatro delle Quisquilie",,,,Teatro,,,,0,,,,,,http://www.teatrosanmarco.it/|Teatro delle Quisquilie,,46.037056,10.727519,,
pat_2376996,2012-01-31T17:33:22+01:00,2012-02-14T22:04:59+01:00,Il giuoco delle parti,,,,,2012-03-28T00:00:00+02:00,2012-03-28T00:00:00+02:00,,,ore 10.15,"Auditorium dell'Istituto D. L. Guetti, , Tione di Trento",,"
Note: La scuola va a teatro
Scuola secondaria di primo grado 
Emit Flesti 
Il giuoco delle parti
di Luigi Pirandello 
con Alessio Dalla Costa, Massimo Lazzeri, Maria Rossi 
luci di Marco Pegoretti 
scenografie di Andrea Coppi 
regia di Rocco Sestito 
Lo spettacolo inizia con la prima scena dei Sei personaggi in cerca dautore, nella quale una compagnia teatrale sta iniziando le prove della seconda scena del Giuoco delle parti. Prendendo spunto dal meccanismo del Teatro nel Teatro, caro a Pirandello, e utilizzando alcuni brani tratti da due piéces della trilogia con lo stesso nome, lo spettacolo prosegue mantenendo il medesimo meccanismo: gli attori proveranno le principali scene dello stesso testo. 
Sul palcoscenico, in una scenografia abbozzata e non definita, che si rifà alla metafora delluovo, presente nel testo (il dentro è il contenuto, la vita, che si prende, si beve, il guscio è la forma vana ed esteriore delle cose, che va buttata via), si confronteranno solo i tre personaggi principali, Leone Gala, Silia Gala e Guido Avanzi, mentre le parti degli altri personaggi, come del resto le didascalie o i riassunti della trama necessari per fare avanzare la vicenda, saranno recitati e/o letti dal regista, dal capocomico che prenderemo a prestito dallaltra piéce della Trilogia, Questa sera si recita a soggetto, il dottor Hinkfuss. Questi, inoltre, soprattutto nella parte iniziale, si abbandonerà alle sue considerazioni sul teatro, la messinscena, il testo, gli attori: le tematiche care a Pirandello e che lo stesso vuole scandagliare con la sua Trilogia. Il pubblico, senza minimamente essere degnato di attenzione da parte degli attori, quindi come se non esistesse, in pratica, assisterà a una prova del Giuoco delle parti, venendo così a conoscere dallinterno i meccanismi della messincena e la magia della trasformazione di quanto sta scritto in un copione in una delle tante possibili realtà teatrali. Altri organizzatori: Teatro delle Quisquilie",,,,Teatro,,,,0,,,,,,http://www.teatrosanmarco.it/|Teatro delle Quisquilie,,46.037056,10.727519,,
pat_2373692,2012-01-31T17:33:09+01:00,2012-02-14T22:04:50+01:00,Ben Hur,,,,,2012-03-31T00:00:00+02:00,2012-03-31T00:00:00+02:00,,,ore 21.00,"Teatro Parrocchiale, , Spiazzo",,"
Note: Stagione di prosa di Tione, Pinzolo e Spiazzo 2011/2012
Neraonda
Ben Hur
di Gianni Clementi
con Nicola Pistoia, Paolo Triestino, Elisabetta De Vito
regia di Nicola Pistoia
In Ben Hur si affronta il tema dellimmigrazione e del razzismo in modo nuovo e brillante. Gianni Clementi riesce a presentare temi di attualità con grande semplicità suscitando nel pubblico momenti di profonda riflessione,ma anche di grande ilarità.
Sergio, interpretato magistralmente da Nicola Pistoia, che firma la regia dello spettacolo, è uno stuntman caduto in disgrazia dopo un avvio eccellente niente dimeno che con Spielberg nel film Salvate il soldato Ryan. Oggi si ritrova infortunato e in attesa di risarcimento, così per sbarcare il lunario si arrangia a posare vestito da centurione per i turisti che passano davanti al Colosseo. Sua sorella Maria (Elisabetta De Vito) è separata, per arrotondare gli spiccioli del fratello è costretta a lavorare in una chat erotica. A rompere il tran tran quotidiano arriva Milan (Paolo Triestino), ingegnere bielorusso con tanta voglia di lavorare. Per mandare soldi alla sua famiglia, Milan si arrangia a far tutto, anche a sostituire Sergio nel ruolo di centurione.La coppia Triestino - Pistoia bissa il successo dello scorso anno ottenuto con Grisù, Giuseppe e Maria dello stesso Clementi in una pièce scritta appositamente per loro.Telefono: 0465/322018 (Biblioteca Tione)Altri organizzatori: Coordinamento Teatrale Trentino - Comune di Tione - Comune di Pinzolo - Comune di Spiazzo",,,,Teatro,,,,0,,,,,,http://www.trentinospettacoli.it|Coordinamento Teatrale Trentino - Comune di Tione - Comune di Pinzolo - Comune di Spiazzo,,46.10314,10.736538,,Redazione Trentino Cultura
pat_2373690,2012-01-31T17:33:07+01:00,2012-02-14T22:04:47+01:00,... È così anche tua suocera?,,,,,2012-02-25T00:00:00+01:00,2012-02-25T00:00:00+01:00,,,ore 21.00,"Teatro Parrocchiale, , Spiazzo",,"
Note: Stagione di prosa di Tione, Pinzolo e Spiazzo 2011/2012
Compagnia dellAttimo
... È così anche tua suocera?
di Diane Grant
con Arianna Grossi, Elisa Da Costa, Melissa Boni,Matteo Cortelletti
regia di Gabriella Pedrai
Quando una mamma ci tiene, si vede. Anche troppo, a volte. Specialmente se la mamma ci tiene a far fidanzare il figlio con una ragazza di suo (di lei) gusto. Ed ha una spiccata preferenza per lo shopping, la vita facile e le bevande con una dignitosa gradazione. Il figlio può anche cercare di ribellarsi, perché ha gusti diversi, ma come si fa a forzare troppo le cose quando la povera madre ha un sospetto mal di cuore diagnosticato da un medico ancora più sospetto, dedito al golf e alle bottiglie di buona annata, sostenendo che sono una mano santa per la circolazione? Perciò non resta che guardare come va a finire questa commedia che nasconde piccole tragedie famigliari delle quali è meglio ridere e sperare che accadano soltanto agli altri.
Come diceva Wilde: «Il dovere è quella cosa alla quale gli altri non possono sottrarsi».Diane Grant è una sceneggiatrice cinematografica di Los Angeles - che significa Hollywood - e ogni tanto si diverte a scrivere un testo teatrale. Alcuni anni fa un suo lavoro è stato premiato con la Palma dOro al Festival di Cannes ottenendo il riconoscimento come Migliore Sceneggiatura. La sua scrittura è vivace e spumeggiante come il miglior vino e colpisce subito lo spettatore. Racconta storie contemporanee, in qualche caso interpretando lei stessa uno dei ruoli. Ha un grande amore per lItalia, dove viene spesso, e ha parenti nella zona di Belluno. Infatti nei suoi testi sono frequenti i richiami al Paese dello Stivale.Telefono: 0465/322018 (Biblioteca Tione)Altri organizzatori: Coordinamento Teatrale Trentino - Comune di Tione - Comune di Pinzolo - Comune di Spiazzo",,,,Teatro,,,,0,,,,,,http://www.trentinospettacoli.it|Coordinamento Teatrale Trentino - Comune di Tione - Comune di Pinzolo - Comune di Spiazzo,,46.10314,10.736538,,Redazione Trentino Cultura
pat_2373673,2012-01-31T17:32:57+01:00,2012-02-14T22:04:40+01:00,Avevo un bel pallone rosso,,,,,2012-03-05T00:00:00+01:00,2012-03-05T00:00:00+01:00,,,ore 21.00,"Teatro Comunale, via Roma, Tione di Trento",,"
Note: Stagione di prosa di Tione, Pinzolo e Spiazzo 2011/2012
Teatro Stabile di Bolzano
Avevo un bel pallone rosso
di Angela Demattè
con Andrea Castelli e Angela Demattè
regia di Carmelo Rifici
Avevo un bel pallone rosso è il testo che si è aggiudicato il Premio Riccione per il Teatro 2009, il più prestigioso riconoscimento italiano per la drammaturgia contemporanea. Il Teatro Stabile di Bolzano lo mette ora in scena per la prima volta, seguendo la sua vocazione alla promozione degli autori del nostro tempo.
Un padre e sua figlia, Margherita. Parlano e tentano di confrontarsi mese per mese, anno per anno sugli studi universitari, sulla passione di Margherita per la politica e su Renato, suo futuro marito. Una famiglia borghese e cattolica di Trento, un padre premuroso e allantica, una figlia che diventerà presto Mara Cagol, fondatrice delle Brigate Rosse. Uno spettacolo sorprendente e nuovo della giovane autrice e attrice trentina Angela Demattè, che affronta in maniera profonda e inconsueta la tragedia del terrorismo con le sue vittime innocenti, i furori giovanili, gli anni di piombo che hanno bruciato unintera generazione e lincomunicabilità tra padri e figli. Un dialogo a due voci, che si ascoltano senza riuscire mai a comprendersi fino in fondo, scandito dalla cronaca degli anni più bui del nostro recente passato. Come evidenziato dalla giuria del Premio Riccione, «la pièce attraverso il rapporto tra un padre e una figlia, Mara Cagol fondatrice delle BR, riesce ad affrontare uno snodo cruciale della storia italiana, che ha aperto una ferita non ancora rimarginata nella nostra coscienza civile. Il conflitto generazionale più classico tra supposta saggezza della tradizione e furori giovanili trova una singolare consistenza teatrale nel sapiente uso della lingua, in una dinamica di tensione tra limpianto dialettale, che permette la comunicazione familiare, e linadeguatezza di una lingua nazionale che la interrompe. Sorprendono la straordinaria capacità di trasmettere emozioni profonde e insieme lo studio documentaristico che la giovane autrice ha condotto proponendo alla nostra attenzione materiali parzialmente rimossi».
Dal 1965 al 1975: dieci anni in cui Margherita Cagol, studentessa di sociologia appassionata di politica, diventa Mara Cagol, si trasferisce a Milano, entra in clandestinità e fonda assieme al marito Renato Curcio le Brigate Rosse.Dieci anni in cui il rapporto tra Margherita e suo padre viene mano amano a dissolversi e le parole che padre e figlia si rivolgono nel dialetto della loro città, si svuotano in grandi silenzi privi di speranza, che verranno sopraffatti dallannuncio televisivo della morte della Cagol in uno scontro a fuoco con le forze dellordine il 5 giugno 1975.Andrea Castelli interpreta Carlo Cagol, il padre. A vestire i panni di Margherita - Mara Cagol, la stessa autrice, Angela Demattè. Telefono: 0465/322018 (Biblioteca Tione)Altri organizzatori: Coordinamento Teatrale Trentino - Comune di Tione - Comune di Pinzolo - Comune di Spiazzo",,,,Teatro,,,,0,,,,,,http://www.trentinospettacoli.it|Coordinamento Teatrale Trentino - Comune di Tione - Comune di Pinzolo - Comune di Spiazzo,,46.033404,10.725971,,Redazione Trentino Cultura
pat_2372632,2012-01-31T17:32:17+01:00,2012-04-30T18:17:16+02:00,Orchestra Haydn di Bolzano e Trento,,,,,2012-05-03T00:00:00+02:00,2012-05-03T00:00:00+02:00,,,ore 20.30,"Auditorium Istituto d'Istruzione L. Guetti, , Tione di Trento",,"
Note: Orchestra Haydn di Bolzano e Trento
Direttore Hansjörg Schellenberger 
R.Strauss,
Serenade op.7 
A.Dvorak, 
Serenade op.44 
W.A. Mozart, Gran PartitaPrevendite: La sera del concerto presso la biglietteria dellAuditorium
Info: Stagione Orchestra Haydn a Tione
Anche questanno lOrchestra Regionale Haydn di Bolzano e Trento ci offre un interessante stagione concertistica.
Oltre ai tradizionali appuntamenti a Tione la stagione 2011-2012 riserva una piacevole novità: infatti il 18 gennaio 2012 ci sarà la possibilità per gli abbonati e coloro che acquisteranno il bilglietto di poter assistere al concerto dellOrchestra Haydn presso lAuditorium di Trento &gt,&gt, con un programma principalmente dedicato a Wagner. Sarà loccasione per ascoltare la Haydn in versione sinfonica, con oltre 80 elementi, diretta dal M° Kuhn. Per il trasferimento verrà messo a disposizione un pullmann da Tione a Trento e ritorno.
A partire da mercoledì 05 ottobre 2011 fino al giorno del primo concerto (mercoledì 19 ottobre 2011) la segreteria della Scuola Musicale Giudicarie sarà a Vostra disposizione per consentirvi di sottoscrivere l'abbonamento alla stagione Sinfonica dell'Orchestra Haydn a Tione.
 
Orario di apertura al pubblico della segreteria SMG
Lunedì-martedì-mercoledì-giovedì 9.30-11.30 e 15.00-19.00
venerdì 9.30-11.30 e 14.00-17.30
info@scuolamusicalegiudicarie.it
Mercoledì 19 Ottobre
ore 20.30 Auditorium Istituto dIstruzione Superiore &quot,L.Guetti&quot,
DIRETTORE Luigi Azzolini
Ensemble Vocale Continuum
A. Pärt, Orient &amp, Occident per orchestra d'archi
G. Holst, St. Pauls Suite for string orchestra
G. Sollima, Canti Rocciosi per coro maschile e archi
 
Mercoledì 9 Novembre
ore 20.30 Auditorium Istituto dIstruzione Superiore &quot,L.Guetti&quot,&quot,
DIRETTORE Pieter-Jelle de Boer
Edoardo Zosi (violino)
G. Rossini, Ouverture LItaliana in Algeri
L. v. Beethoven, Concerto per violino
G. Bizet, Sinfonia nr 1 
 
Mercoledì 18 Gennaio
ore 20.30 Trento Teatro Auditorium
Per loccasione sarà messo a disposizione un autubus per il trasferimento a Trento. 
Prenotazioni del pullman entro mercoledì 11 gennaio 2012, presso la Scuola Musicale Giudicarie.
DIRETTORE Gustav Kuhn
Stefanie Irányi
R. Wagner, LOlandese volante, Ouverture
R. Wagner, Wesendonck-Lieder (orch. Gustav Kuhn)
F. Liszt, Les Préludes
R. Wagner, I Maestri Cantori di Norimberga, Preludio
Martedì 27 Marzo
ore 20.30 Auditorium Istituto dIstruzione Superiore &quot,L.Guetti&quot,
DIRETTORE Günther Pichler 
Markus Placci (Violino) 
W.A. Mozart, Serenade n. 2 KV 101
W.A. Mozart, Concerto per violino n. 2 KV 211
W.A. Mozart, Sinfonia n. 41 in do magg. Jupiter KV 551
Giovedì 3 Maggio
ore 20.30 Auditorium Istituto dIstruzione Superiore &quot,L.Guetti&quot,
DIRETTORE Hansjörg Schellenberger
R.Strauss, Serenade op.7
A.Dvorak, Serenade op.44 
W.A. Mozart, Gran Partita
 Abbonamento
intero  30,00
ridotto (studenti fino a 25 anni e over 65)  18,00
prezzo riservato allabbonato della Stagione di prosa Tione/Pinzolo/Spiazzo  22,00
 Biglietto
intero  15,00
ridotto (studenti fino a 25 anni e over 65)  8,00
 
VENDITA BIGLIETTI:
La sera del concerto presso la biglietteria dellAuditorium.Per il concerto del 18 gennaio 2012 si può acquistare il biglietto lunedì 09, martedì 10 e mercoledì 11 gennaio 2012 presso la segreteria della Scuola Musicale Giudicarie.",,,,Musica classica,,,,0,,,,,,http://www.haydn.it,,46.037056,10.727519,,Redazione Trentino Cultura
0f9ceb53cd2a5d1bc62205d7ffa52b7b,2016-08-16T09:00:00+02:00,2016-05-04T12:03:55+02:00,English Summer Camp Edizione 2016,,,"
Due settimane Full immersion nella lingua inglese presso la scuola media di Storo con insegnanti madrelingua qualificati e coinvolgenti in attività ludico-didattiche accattivanti .
Quest'anno il tema proposto We've got talent nel quale i bambini di divertiranno a mostrare il loro talento e creatività.
Anche quest'anno verranno proposte giornate all'aria aperta, uscite sul territorio e per i più audaci giornata in acqua nel torrente Palvico con il Kids - Canyoninng!Viste le continue richieste da parte dei genitori/adulti/adolescenti di avere la possibilità di esercitarsi nella conversazione con insegnanti madrelingua, quest'anno a settembre verrà attivato un percorso serale per i più grandi. Seguiranno info a riguardo.",,2016-08-16T09:00:00+02:00,2016-08-28T16:00:00+02:00,,dal 16/08/2016 al 26/08/2016 ,Dal lunedì al venerdì dalle 9.00 alle 16.00 _ La giornata di lunedì 15 agosto verrà recuperata Sabato 20 con un'attività divertente con i genitori,Storo  Scuola Media di Storo,interno,"
Per informazioni ed iscrizioni : contattare Domenica Fusi inviando una mail a domenicafusi@libero.it segnalando la seguente dicitura:Intendo iscrivere mio figlio all' English Summer Camp 2016,Modalità di iscrizione: La Partecipazione al campus è a numero chiuso per garantire un alto livello di apprendimento e qualitativo.
Referenti: 
Domenica Fusiemail domenicafusi@libero.it
A chi rivolgersi: 
Associazione Belle Epoque
Via XXIV Maggio 147 Storo
Tel. - Faxassociazionebelleepoque@gmail.com",3-6 anni | 7-10 anni | 11-14 anni - Dai 5 ai 14 anni - sia residenti che non residenti,"a pagamento senza integrazione. € 270.00 a bambino e comprende iscrizione, dieci giornate di attività, assicurazione, merenda a base di frutta",,,,,,0,,,,,,,,45.849892,10.579872,,
e179e85f2951ca5a7b6d193d6cb3ac20,2016-07-30T16:00:00+02:00,2016-05-04T10:09:23+02:00,Deutsches Sommer Camp,,"
La sede del soggiorno è presso la Casa Natura &quot,Villa Santi&quot, , nel paese di Montagne, situato nel Parco Naturale Adamaello Brenta. Completamente immersa nel verde, circondata da prati e masi, la casa è stata interamente ristrutturata secondo i criteri della bio-edilizia e del risparmio energetico.
Tutte le mattine lezioni di tedesco, utili e mirate in vista della ripresa della scuola, integrate con attività culturali e ricreative.Al pomeriggio tante attività in compagnia degli educatori ambientali del Parco.",,,2016-07-30T16:00:00+02:00,2016-09-03T09:30:00+02:00,,dal 30/07/2016 al 03/09/2016 Il soggiorno inizia la domenica pomeriggio e termina la domenica successiva. , Arrivo: domenica dalle 16.00 alle 17.00. Partenza: domenica entro le ore 9.30.,"Tre Ville  Casa Natura ""Villa Santi"" - Montagne (Tn)",interno,"
Iscrizioni presso CLM BELL:
Trento, Via Pozzo 30 tel: 0461 981733 - fax: 0461 981687 - e-mail: clm-bell@clm-bell.it
Riva del Garda, Viale Dante 68 tel e fax: 0464 554121 - e-mail: riva@clm-bell.it
Referenti: 
CLM BELL Trento
tel. 0461 981733
email clm-bell@clm-bell.it
CLM BELL Riva del Garda
tel. 0464 554121email riva@clm-bell.it
A chi rivolgersi: 
Parco Naturale Adamello Brenta
Via Nazionale, 24 Strembo
Tel. 0465/806666 - Fax 0465/806699info@pnab.it",11-14 anni - L'attività è rivolta a ragazzi dagli 11 ai 13 anni. Sia residenti che non residenti,"a pagamento con integrazione buoni di servizio FSE. Quota di partecipazione: Euro 640,00. Riduzione per tutti, grazie al contributo della Fondazione Cassa Rurale di Trento: Euro 100,00",,,,,,0,,,,,,,,46.062772,10.769024,,
0b29103e644f9656ab96553cfe699bd7,2016-07-30T08:00:00+02:00,2016-05-04T11:18:42+02:00,Deutsches Sommer Camp,,"
Soggiorno studio di lingua tedesca per bambini e ragazzi, per unire la vacanza e il ripasso della lingua tedesca in vista della ripresa della scuola.
La sede del soggiorno è presso la casa natura Villa Santi, a Montagne nel Parco Naturale Adamello Brenta, completamente immersa nel verde, circondata da prati e masi.Al mattino lezioni di tedesco e al pomeriggio tante attività ed escursioni nel parco in compagnia degli educatori ambientali.",,,2016-07-30T08:00:00+02:00,2016-09-03T17:00:00+02:00,,"dal 30/07/2016 al 03/09/2016 Tre turni settimanali in base all'età: 9-11 anni = 21 agosto-3 settembre, 11-13 anni = 30 luglio-6 agosto e 6-13 agosto.",,"Trento,  Valdaone  Casa Natura Villa Santi, loc. Daone.",interno,"Presso la segreteria di CLM BELL.
Referenti: 
Segreteria Trento
tel. 0461/981733
email clm-bell@clm-bell.it
Segreteria Riva del Garda
tel. 0464/554121email riva@clm-bell.it
A chi rivolgersi: 
Clm Bell srl
Via Pozzo, 30 Trento
Tel. 0461/981733 - Fax 0461/981687clm-bell@clm-bell.it",6-14 anni e 9-13 anni. Sia residenti che non residenti,"a pagamento con integrazione buoni di servizio FSE. € 640 a settimana (contributo Fondazione Cassa Rurale di Trento di € 50,00 per residenti in Provincia di Trento), sconto di € 25 per iscriz. entro 28/2/16 - € 25 per fratelli/sorelle. Contributi figli di Soci Casse Rurali convenzionate.",,,,,,0,,,,,,,,45.947769,10.611608,,
a20ef2897a9d899dbb18f314e95fa6e9,2016-07-17T14:00:00+02:00,2016-05-04T11:13:31+02:00,Campeggio Madòna del mont,,"Attività di campeggio, che prevede momenti formativi, ludici, passeggiate in montagna con esperti per conoscere il nostro ambiente, attività espressive, incontri con testimoni.",,,2016-07-17T14:00:00+02:00,2016-07-24T17:00:00+02:00,,dal 17/07/2016 al 24/07/2016 ,Partenza alle ore 14 del primo giorno e rientro alle ore 17 dell'ultimo giorno (orario indicativo).,"Tione di Trento  Madòna del Mont, località Tragole a mt 1250 slm.",interno,"
Per informazioni chiamare in parrocchia o la referente.
Referenti: 
Suor Giuseppina Vanazzi
tel. 3337556544email carita_Glibero.it
A chi rivolgersi: 
Parrocchia S.Maria Assunta e S.Giovanni Battista
Piazza A. da Corneto, 1 Tione di Trento
Tel. 0465/321057 - Faxolivoro@tin.it","11-14 anni - Prima, seconda e terza media.  Sia residenti che non residenti - Il campeggio è rivolto ai residenti a Tione e nella stessa Unità Pastorale.",a pagamento senza integrazione. € 130 a turno.,,,,,,0,,,,,,,,46.031342,10.722728,tione di trento,
d3e2ecc94fc2cc6553c9fc4ffe7a0edf,2016-07-09T14:00:00+02:00,2016-05-04T10:48:19+02:00,Campeggio Madòna del mont,,"Attività di campeggio, che prevede momenti formativi, ludici, passeggiate in montagna con esperti per conoscere il nostro ambiente, attività espressive, incontri con testimoni.",,,2016-07-09T14:00:00+02:00,2016-07-16T17:00:00+02:00,,dal 09/07/2016 al 16/07/2016 ,Partenza alle ore 14 del primo giorno e rientro alle ore 17 dell'ultimo giorno (orario indicativo).,Tione di Trento  Località Madonna del Monte-Tragole.,interno,"
Modalità di iscrizione: Dal 1 al 31 maggio 2016.
Referenti: 
Suor Giuseppina Vanazzi
tel. 3337556544
email carita_G@libero.it
A chi rivolgersi: 
Parrocchia S.Maria Assunta e S.Giovanni Battista
Piazza A. da Corneto, 1 Tione di Trento
Tel. 0465/321057 - Faxolivoro@tin.it",7-10 anni- Dalla terza alla quinta elementare. Sia residenti che non residenti - Il campeggio è rivolto a residenti a Tione o appartenenti alla stessa Unità Pastorale.,"a pagamento senza integrazione. € 130,00",,,,,,0,,,,,,,,46.048501,10.662132,,
a7ceb837e1d7e4165db721f89dee3162,2016-07-09T08:00:00+02:00,2016-05-03T16:17:45+02:00,Campeggio 2°-3° media,,Campeggio organizzato dal 9 al 16 luglio 2016 per i ragazzi della seconda e terza media.,,,2016-07-09T08:00:00+02:00,2016-07-16T18:00:00+02:00,,"dal 09/07/2016 al 16/07/2016 Residenziale, da sabato a sabato.",,San Lorenzo Dorsino  Loc. Deggia.,interno,"
Per iscrizioni telefonare al numero dell’Associazione/Parrocchia.
Si darà la precedenza ai residenti.
Referenti: 
Baobab Nuovo Oratorio Villazzanotel. 0461.920293
A chi rivolgersi: 
Baobab - Nuovo Oratorio Villazzano
Passaggio Zulian, 1 Trento
Tel. 0461 920293 - Fax 0461 920293baobab_nov@yahoo.it",11-14 anni- Seconda e terza media.Sia residenti che non residenti,a pagamento senza integrazione. € 160.,,,,,,0,,,,,,,,0.0,0.0,,
1506785291043cc883ddd813779f3e3d,2016-07-06T10:00:00+02:00,2016-05-04T10:02:47+02:00,Trekking con gli asini,,"Facile passeggiata dal &quot,sapore antico&quot,in compagnia degli asini. Partendo da Casa Natura Villa Santi il lento passo dell'asino accompagnerà i visitatori per tutta la giornata a conoscere la natura del Parco, ad osservare il paesaggio e a riscoprire l'anima rurale della montagna. Rientro per le 15.30 circa.",,,2016-07-06T10:00:00+02:00,2016-08-31T18:00:00+02:00,,dal 06/07/2016 al 31/08/2016 Tutti i mercoledì dal 6 luglio al 31 agosto., Ritrovo ore 10.00 Montagne - Casa Natura Villa Santi,Montagne - Casa Natura Villa Santi,interno,,,,,,,,,0,,,,,,,,44.929893,-0.12871,ragoli,
1be3824ba1c204666c14a787d875d632,2016-07-04T14:00:00+02:00,2016-05-04T11:41:15+02:00,Estate in forma,,"
L'attività organizzata in collaborazione con l'associazione Sport Active vuole rispondere nel modo più coerente possibile alle richieste emerse dalle famiglie e dai ragazzi ovvero proporre un punto di aggregazione estivo per preadolescenti ed adolescenti con la presenza di educatori di riferimento, mantenendo una partecipazione libera alle varie attività proposte ed aperta a tutti. 
Verranno proposte diverse attività , quali il trekking,uscite in piscina,giochi di squadra , biciclettate e uscite in parchi avventura della zona.L’originalità del progetto rispetto ad altre iniziative offerte dal contesto locale sta nel proporre azioni volte a coinvolgere adolescenti e preadolescenti attraverso attività ludico- sportive pedagogicamente orientate, che mirano ad attivare potenzialità presenti nei ragazzi.",,,2016-07-04T14:00:00+02:00,2016-07-15T18:00:00+02:00,,dal 04/07/2016 al 15/07/2016 ,Lunedì - martedì - giovedì- venerdì dalle 14.00 alle 18.00. Mercoledì dalle 9.00 alle 18.00.,"Storo  Progetto giovani in via Roma, 47.",interno,"A partire da aprile tutti i giorni dalle 17.30 alle 18.30 presso il centro diurno l'Arca entro il 17 giugno.
Referenti: 
Ilaria Girardini
tel. 04650296868email cdlarca@murialdo.taa.it
A chi rivolgersi: 
Comunità Murialdo Casa Gen.Pia Soc.Torinese San Giuseppe
Corso 3 Novembre, 36 Trento
Tel. 0461/231320 - Fax 0461/236036info@murialdo.taa.it",11-14 anni - sia residenti che non residenti,a pagamento senza integrazione. 60 € a settimana.,,,,,,0,,,,,,,,45.848245,10.579026,STORO,
706e22d1ccfb5fc86527fdb9c02291b1,2016-07-04T08:30:00+02:00,2016-05-03T17:10:00+02:00,rEstate SPLASH!,,"
L'attività è proposta da L'Ancora s.c.s. e da U.S. Carisolo.
Il progetto prevede attività sportiva al mattino, il pranzo e al pomeriggio attività ludico/ricreativa.
Per due settimane sarà attivata una proposta linguistica in inglese al mattino (per i ragazzi dalla 5^ elementare alla seconda media) e al pomeriggio (per i bambini dall'ultimo anno della scuola dell'infanzia alla quarta elementare). Mercoledì gita di una giornata intera.Per l'intero periodo sarà garantito il servizio di trasporto.",,,2016-07-04T08:30:00+02:00,2016-08-05T17:30:00+02:00,,dal 04/07/2016 al 05/08/2016 ,Mattino 8.30 - 12.00. Pomeriggio 14.00 - 17.30. Pranzo 12.00 - 14.00. Mercoledì gita di una giornata intera 8.30 - 17.30.,Carisolo  Palazzetto dello Sport e Scuola Primaria.,interno,"Consegnare modulo di iscrizione e copia del bonifico presso la sede de L'Ancora di Pinzolo o la Pro Loco di Carisolo.
Referenti: 
Benedetta Dallavalletel. 0465/880452
A chi rivolgersi: 
L'Ancora Società Cooperativa Sociale
Via Roma, 9 Tione di Trento
Tel. 0465/324727 - Fax 0465/329086animazione@lancora.it",3-6 anni | 7-10 anni | 11-14 anni | 6-14 anni Dal terzo anno di scuola dell'infanzia alla seconda media. sia residenti che non residenti,a pagamento con integrazione buoni di servizio FSE. La tabella delle quote supera il numero massimo dei caratteri. Per ulteriori informazioni consultare il sito www.lancora.it.,,,,,,0,,,,,,,,46.167276,10.756866,carisolo,
c1a2c3f81c7c9db933cc3421dea4994c,2016-07-04T08:00:00+02:00,2016-06-10T14:36:04+02:00,Estate piccolissimi a Storo ,,,Attraverso piccole esperienze quotidiane ogni bambino potrà imparare a conoscere e salvaguardare l'ambiente che ci circonda.,,2016-07-04T08:00:00+02:00,2016-07-29T16:00:00+02:00,,dal 04/07/2016 al 29/07/2016,dalle ore 8.00 alle ore 12.00 lunedì-mercoledì-giovedì dalle ore 8.00 alle ore 16.00 martedì-venerdì  Possibilità di scegliere se frequentare solo al mattino o all' intera proposta,"Storo  Scuola dell' infanzia I.Cima ,via S.Floriano 24 Storo",interno,"
Chiara Bugna
tel. 0465296868email cdlarca@murialdo.taa.itComunità Murialdo Casa Gen.Pia Soc.Torinese San GiuseppeCorso 3 Novembre, 36 TrentoTel. 0461/231320 - Fax 0461/236036info@murialdo.taa.it","3-6 anni - sia residenti che non residenti

Note sull'età:	i bambini di 3 anni devono aver frequentato la scuola dell' infanzia ","a pagamento senza integrazione. da definire, tariffe differenziate tra i residenti nel Comune di Storo e non.",,,,,,0,,,,,,,,45.851518,10.576797,via S.Floriano 24 Storo,
ff2ee565821f0643218cd36f799c43e7,2016-07-04T08:00:00+02:00,2016-05-04T10:40:37+02:00,Scuola Materna Estiva di Tione di Trento,,"
L'Ancora propone in collaborazione con la Scuola Materna Don G. Failoni, attività estiva per i bambini dai 3 ai 6 anni.
Ogni anno viene deciso un tema sul quale si sviluppa una programmazione che lasci però largo spazio alla fantasia ed alla libera organizzazione da parte dei bambini. Nel pieno rispetto dei ritmi estivi il tema serve a dare un filo conduttore ai momenti laboratoriali e di cornice (accoglienza saluti).
La Scuola Materna estiva è una proposta che già da diversi anni risquote l'interesse delle famiglie della zona della Busa di Tione.
I bambini vengono seguiti per il periodo indicato con proposte manuali, ludiche e motorie. Rispetto al tema si individuano dei percorsi settimanali di sviluppo che stimolano la fantasia.
Per ogni settimana sono previsti dei momenti di uscita (passeggiata) e di attività psico-motorie.Il personale è qualificato nel seguire i bambini di questa fascia d'età e flessibile alle esigenze del gruppo.",,,2016-07-04T08:00:00+02:00,2016-08-05T17:00:00+02:00,,dal 04/07/2016 al 05/08/2016 ,"Mattino 8.00-12.30, mattino più pranzo 8.00-14.00, giornata intera 8.00-17.00.",Tione di Trento  Scuola Materna Don G. Failoni.,interno,"Compilando apposito modulo e presentando copia bonifico bancario presso la sede di Tione de L'Ancora.
Referenti: 
Susan Molinari
tel. 345/6598376email susan.molinari@lancora.it
A chi rivolgersi: 
L'Ancora Società Cooperativa Sociale
Via Roma, 9 Tione di Trento
Tel. 0465/324727 - Fax 0465/329086animazione@lancora.it",3-6 anni - sia residenti che non residenti,a pagamento con integrazione buoni di servizio FSE. La tabella delle quote supera il numero massimo di caratteri. Per maggiori informazioni consultare il sito www.lancora.it ,,,,,,0,,,,,,,,46.030165,10.722879,,
f38a14ef017f554b8acb2baed95de530,2016-07-02T12:00:00+02:00,2016-05-03T16:43:50+02:00,"Campeggio, 1°-2° superiore",,"Campeggio organizzato dal 2 al 9 luglio 2016 in loc. Deggia, rivolto ai ragazzi della prima e seconda superiore.",,,2016-07-02T12:00:00+02:00,2016-07-09T18:00:00+02:00,,"dal 02/07/2016 al 09/07/2016 Residenziale, da sabato a sabato.",,San Lorenzo Dorsino  Loc. Deggia.,interno,"
Per iscrizioni telefonare al numero dell’Associazione/Parrocchia.Si darà la precedenza ai residenti.
Referenti: 
Baobab Nuovo Oratorio Villazzanotel. 0461.920293
A chi rivolgersi: 
Baobab - Nuovo Oratorio Villazzano
Passaggio Zulian, 1 Trento
Tel. 0461 920293 - Fax 0461 920293baobab_nov@yahoo.it","11-14 anni | 15-18 anni

Prima e seconda superiore.	Sia residenti che non residenti",a pagamento senza integrazione. € 160.,,,,,,0,,,,,,,,0.0,0.0,,
9883ed6d9a934608173d18092c2753fe,2016-06-27T09:30:00+02:00,2016-04-26T12:18:33+02:00,Alla scoperta delle bellezze e delle tradizioni della Valle del Chiese con ..l' A BiCi,,,"
Tre settimane (dal lunedì al venerdì, dalle 9.30 alle 17.00) all'insegna del divertimento, dello sport a contatto con la natura ed il nostro territorio. 
Utilizzando la bicicletta raggiungeremo ogni giorno una nuova località per praticare attività sportive, giochi, laboratori didattici, escursioni in montagna, al lago,al Breg Adventure Park di Breguzzo, il Parco Le Fucine di Casto, a Castel San Giovanni a Bondone. Giornate a contatto con gli animali, escursioni accompagnate da esperti guide e infine laboratori di cucina per poi degustare e imparare i piatti tipici della nostra valle. 
Per due giorni a settimana saremo ospiti di strutture ricettive che incontreremo lungo il nostro tragitto in bicicletta.Dato l'entusiasmante riscontro ottenuto dalle uscite dello scorso anno, verrà riproposta ogni settimana l'uscita di Kids Canyoning. Grazie agli amici dell' Associazione Mountain Live verrà dedicata un'uscita ( facoltativa) nel Torrente Palvico, camminando lungo il fiume, tra salti, tuffi il tutto in massima sicurezza garantita dalla presenza di guide alpine abilitate. Questi solo alcuni spunti delle tre interessanti settimane offerte per i bambini della scuola primaria ( dai 6 agli 11 anni).",http://www.comunitadellegiudicarie.it/content/download/173243/2777981/1/LA+BI+CI++40+MAIL+(3).pdf,2016-06-27T09:30:00+02:00,2016-07-15T17:00:00+02:00,, settimanale dal lunedì al venerdì dal 27/06/2016 al 15/07/2016 Dal Lunedì al venerdì dalle 9.30 alle 17.00.,9.30 alle 17.00.,Storo  Punto di Partenza Centro Sportivo Polivalente Darzo.,interno,"Modalità di iscrizione: Iscrizioni a numero chiuso massimo 50 partecipanti a settimana.
Referenti: 
Consorzio Turistico Della Valle del Chiese
tel. 0465-901217
email info@visitchiese.it
A chi rivolgersi: 
Associazione Belle Epoque
Via XXIV Maggio 147 Storo
Tel. - Faxassociazionebelleepoque@gmail.com","3-6 anni | 7-10 anni

Note sull'età:	Dai 6 agli 11 anni.

Tipologia di utenza:	sia residenti che non residenti",a pagamento con sconto dal 2° figlio. Quota settimanale: € 75.00 per l'iscrizione ad una sola settimana € 70.00 per l'iscrizione a due o più settimane o fratelli Per i bambini residenti nel Comune di Storo grazie al contributo dell'ente quota scontata € 65.00 per l'iscrizione ad una sola settimana € 60.00 per l'iscrizione a due o più settimane o fratelli.,,,,,,0,,,,,,,,0.0,0.0,,
1921ca5a51cdd2bb0ee18f8ef3f679fd,2016-06-26T08:00:00+02:00,2016-04-26T12:15:14+02:00,Soggiorni estivi alla Casa Alpina don Vigilio Flabbi di Faserno,,,"
Soggiorno estivi a Faserno di Storo a 1500 metri di altitudine.
Ai ragazzi vengono proposte varie attività, dal calcio alla pallavolo, dai giochi di abilità alle passeggiate, dalle animazioni alle serate in allegria seguendo dei percorsi formativi a tema. 
I ragazzi sono seguiti da assistenti/animatori, che li aiuteranno a conoscere e rispettare le regole e i compiti della vita comunitaria, acquisendo così indipendenza e autonomia. Una vita di gruppo dove si antepone all’individualismo, il piacere di condividere con gli altri emozioni, gioie e dispiaceri. Durante i turni ai ragazzi vengono proposte varie attività, dal calcio alla pallavolo, dai giochi di abilità alle passeggiate, dalle animazioni alle serate in allegria. Gli obiettivi dei turni estivi sono: crescita umana e culturale, formazione sociale e personale del ragazzo, socializzazione, il servizio per gli altri, il rispetto del prossimo e dell’ambiente, impegno in iniziative formative, ricreative e di educazione alla non violenza, con precise responsabilità nell’organizzazione della Casa Alpina. Durante il soggiorno sono previste attività ricreative, culturali, giochi di squadra, attività manuali, incontri con esperti e visite guidate.",,2016-06-26T08:00:00+02:00,2016-08-25T17:00:00+02:00,settimanale (7 / 7 giorni),"dal 26/06/2016 al 25/08/2016 1° Turno dal 26 giugno al 9 luglio 2016, 2° Turno dal 10 al 23 luglio 2016, 3° Turno dal 24 luglio al 6 agosto 2016. Turno adolescenti dal 16 al 25 agosto.",,"Storo  Casa Alpina don Vigilio Flabbi di Faserno, alt. 1500 metri.",interno,"
Modalità di iscrizione: Dall'8 marzo fino all'esaurimento dei posti disponibili.
Referenti: 
Salvatore Poletti
tel. 348 3814899
email salvatore.poletti@cedisnet.it
A chi rivolgersi: 
Circolo Oratorio Parrocchiale Storo
Salita al Proes, 4 Storo
Tel. 0465 686557 - Faxoratoriostoro@libero.it","7-10 anni | 11-14 anni | 15-18 anni | 6-14 anni

Note sull'età:	Dai 6 ai 18 anni.

Tipologia di utenza:	Sia residenti che non residenti","a pagamento con sconto dal 2° figlio. Turni di 14 giorni:  per i residenti nei comuni di Storo e Bondone € 210. per i residenti negli altri comuni del BIM del Chiese € 235 per i residenti negli altri comuni della provincia di Trento € 260.  per i residente fuori provincia di Trento € 335. Turno adolescenti: residenti nel comune di Storo € 160, residenti negli altri comuni € 200.",,,,,,0,,,,,,,,0.0,0.0,,
e89a64f2a6b4b4ae72ff01d51bc7c1d2,2016-06-22T08:00:00+02:00,2016-05-03T16:57:30+02:00,Detective Fish,,"Attività per bambini dai 6 ai 10 anni. Dopo la visita alla Casa del Parco Acqua Life, ci trasformeremo in detective per seguire le tracce e interpretare gli indizi che ci condurranno a scovare gli animali nei loro ambienti acquatici.",,,2016-06-22T08:00:00+02:00,2016-09-14T18:00:00+02:00,,,,Spiazzo  Spiazzo Rendena - Casa del Parco Acqua Life,interno,"
Iscrizione obbligatoria entro le ore 18.00 del giorno precedente presso:
Parco Naturale Adamello Brenta, via Nazionale 24, 38080 Strembo (Tn). 0465 806666 info@pnab.itAziende per il Turismo aderenti all'iniziativa
Referenti: 
Catia Hvala
tel. 0465 806632
email catia@pnab.it
Iris Mosca
tel. 0465 806630email iris.mosca@pnab.it
A chi rivolgersi: 
Parco Naturale Adamello Brenta
Via Nazionale, 24 Strembo
Tel. 0465/806666 - Fax 0465/806699info@pnab.it",7-10 anni sia residenti che non residenti,"a pagamento con sconto dal 2° figlio. bambini fino ai 12 anni 3,50 € - gratis con Parco Card e DoloMeetCard",,,,,,0,,,,,,,,0.0,0.0,,
f3d4523b7531b91a4eafd41dff43db17,2016-06-21T14:15:00+02:00,2016-05-04T09:48:11+02:00,Click che spettacolo!,,"Le foto di paesaggi e di particolari curiosi condurranno alla ricerca di suggestivi panorami e scorci nel Parco, suggerendo sorpresa e meraviglia. In un percorso a tappe, i bambini proveranno esperimenti e strategie divertenti per terminare la giornata con gioco finale. Non dimenticate la macchina fotografica!",,,2016-06-21T14:15:00+02:00,2016-09-13T17:30:00+02:00,,dal 21/06/2016 al 13/09/2016 Tutti i martedì dal 21 giugno al 13 settembre. ,Ritrovo ore 14.15 a Pinzolo o Madonna di Campiglio.,Pinzolo  Pinzolo - Prà Rodont oppure Madonna di Campiglio - Monte Spinale a date alterne.,esterno,"
Iscrizione obbligatoria entro le 12.00 dello stesso giorno presso:
Parco Naturale Adamello Brenta, via Nazionale 24, 38080 Strembo (Tn). 0465 806666 - info@pnab.itAziende per il Turismo aderenti all'iniziativa
Referenti: 
Catia Hvala
tel. 0465 806632
email catia@pnab.it
Iris Mosca
tel. 0465 806630email iris.mosca@pnab.it
A chi rivolgersi: 
Parco Naturale Adamello Brenta
Via Nazionale, 24 Strembo
Tel. 0465/806666 - Fax 0465/806699info@pnab.it",7-10 anni - sia residenti che non residenti,"a pagamento con sconto dal 2° figlio. bambini fino ai 12 anni 3,50 € - gratis con Parco Card e DoloMeetCard",,,,,,0,,,,,,,,46.165715,10.777043,,
79118ac6e89fd298d38daf8f3b4a35f0,2016-06-20T09:30:00+02:00,2016-05-04T09:29:33+02:00,Panorama sulle Dolomiti UNESCO,,"Escursione nei dintorni di Madonna di Campiglio lungo un percorso panoramico per ammirare, in tutta la loro bellezza e maestosità, le Dolomiti di Brenta. Pranzo al sacco a carico dei partecipanti. Possibilità di utilizzare il trenino gratuito del Parco per tornare al parcheggio Patascoss.",,,2016-06-20T09:30:00+02:00,2016-09-12T17:00:00+02:00,,dal 20/06/2016 al 12/09/2016 Tutti i lunedì dal 20 giugno al 12 settembre. ,Ritrovo ore 9.30 Madonna di Campiglio - parcheggio Patascoss.,Madonna di Campiglio - parcheggio Patascoss.,interno,"Iscrizione obbligatoria presso Parco Naturale Adamello Brenta, via Nazionale 24, 38080 Strembo (TN). 0465 8066666 o info@pnab.it o presso le Aziende per il il Turismo aderenti all'iniziativa.
Referenti: 
Catia Hvala
tel. 0465 806632
email catia@pnab.it
Iris Mosca
tel. 0465 806630email iris.mosca@pnab.it
A chi rivolgersi: 
Parco Naturale Adamello Brenta
Via Nazionale, 24 Strembo
Tel. 0465/806666 - Fax 0465/806699info@pnab.it",0-2 anni | 3-6 anni | 7-10 anni | 11-14 anni | 15-18 anni | 5-16 anni | 6-14 anni - sia residenti che non residenti,"a pagamento con sconto dal 2° figlio. 10,00 € - bambini fino ai 12 anni 5,00 € - tariffa famiglia 20,00 € - gratis con Parco Card e DoloMeetCard",,,,,,0,,,,,,,,0.0,0.0,,
dda260e89e3785c3fbb3dca466846176,2016-06-20T08:30:00+02:00,2016-04-26T12:03:41+02:00,ESTATE A TUTTO... GAS - Valle del Chiese,,"Attività di animazione estiva per bambini e ragazzi, residenti e ospiti, nei comuni della Valle del Chiese.","BAMBINI… a tutto GAS!
Destinatari: i bambini dal terzo anno della scuola dell’infanzia (2010) alla prima media (2004).
Le attività del mattino saranno gestite da Sport Active ASD che proporrà attività sportiva di vario tipo: calcio, basket, pallavolo, danza, bike, atletica, baseball, nuoto. 
Nei pomeriggi verranno invece proposte da L’Ancora attività ludico – educative.Per il 2016 il tema individuato è “SIAMO PROPRIO FATTI COSÌ… viaggia assieme a noi attraverso il corpo umano”.
RAGAZZI… a tutto GAS!
Destinatari: i ragazzi dalla seconda media (2003) alla seconda superiore (2000)
Le attività proposte saranno le seguenti:
1^ Dal 20 al 24 giugno 2016: DANZA E CALCIO
2^ Dal 4 all’8 luglio 2016: MULTISPORT3^ Dal 18 al 22 luglio 2016: CACCIA E PESCA: EMOZIONANTI GIORNI IN MONTAGNA.",,2016-06-20T08:30:00+02:00,2016-07-29T17:30:00+02:00,dal 20/06/2016 al 29/07/2016 ,dal 20/06/2016 al 29/07/2016 settimanale dal lunedì al venerdì . ,"Dalle 8.30 alle 17.30 con il seguente programma: mattino 8.30-12.00, pranzo 12.00-14.00, pomeriggio 14.00-17.30. Mercoledì gita giornaliera 8.30 - 17.30.",Pieve di Bono-Prezzo  Centro scolastico e campo sportivo. Per l'intero periodo di svolgimento verrà garantito il trasporto per i Comuni che si convenzioneranno.,interno,"
Modalità di iscrizione: Entro il 25 maggio presso la sede di Tione de L'Ancora.
Referenti: 
Susan Molinari
tel. 345/6598376
email susan.molinari@lancora.it
A chi rivolgersi: 
L'Ancora Società Cooperativa Sociale
Via Roma, 9 Tione di Trento
Tel. 0465/324727 - Fax 0465/329086animazione@lancora.it","5-16 anni

Note sull'età:	Dall'ultimo anno della scuola del'infanzia alla seconda superiore.

Tipologia di utenza:	sia residenti che non residenti",a pagamento con integrazione buoni di servizio FSE. La tabella delle quote supera il numero massimo dei caratteri. Per ulteriori informazioni consultare il sito www.lancora.it.,,,,,,0,,,,,,,,0.0,0.0,,
52bbc5cfa61a02dfef0e90bca671a324,2016-06-20T08:00:00+02:00,2016-04-26T11:44:44+02:00,Virtuo...samente Insieme,,,"
Attività di animazione che unisce lo sport ad attività ricreative artistiche e ludiche. Nasce dall'unione delle attività pre-esistenti della società sportiva Virtus e dell'Ancora. Progetto che si presenta come sovra-comunale e territoriale in quanto supportato dalle amministrazioni locali della busa di Tione e Rendena che mira a coinvolgere associazioni e protagonisti del territorio.
Le attività sportive saranno gestite da personale qualificato in ambito sportivo e adeguate alle diverse fasce d'età alternando bike, piscina, calcio, basket, pesca, tiro con l'arco, ecc. Nel pomeriggio verranno sviluppati i temi della natura, della scienza, conoscenza del territorio e per 5 settimane il tema individuato è “SIAMO PROPRIO FATTI COSÌ… viaggia assieme a noi attraverso il corpo umano”. Verranno proposti laboratori manuali e giochi cooperativi.
Alla base di tutta la programmazione sta la voglia di divertirsi e di trascorrere insieme l'estate giocando e stringendo nuove amicizie.
Il mercoledì verranno organizzate attività in collaborazione con le guide alpine Mountain Friends e l'Associazione Pescatori Alto Sarca.
L'attività copre le 10 settimane estive. Il calendario e la programmazione variano a seconda delle età.
Dall'ultimo anno della scuola dell'infanzia alla prima media:
Lunedì, martedì, giovedì e venerdì: attività sportiva al mattino, pranzo, attività ludico ricreativa al pomeriggio.
Dalla seconda media alla seconda superiore: 
Lunedì, martedì, giovedì, venerdì: pranzo facoltativo attività sportiva il pomeriggio. Novità 2aranno organizzate alcune settimane di approfondimento di sport come vela, sub e salvamento e sport della montagna.Saranno organizzati i trasporti ed è previsto anche il pranzo.",,2016-06-20T08:00:00+02:00,2016-09-02T18:00:00+02:00,settimanale dal lunedì al venerdì,dal 20/06/2016 al 02/09/2016  Mercoledì giornata intera con iscrizione a parte. L'attività rimarrà chiusa dal 10 al 14 agosto.,"Mattino 8.00-12.00, pranzo 12.00 - 14.00 e pomeriggio 14.00-18.00.","Tre Ville  Sede principale: Parco al Poz di Preore, Sede di Tione de L'Ancora, Piscina di Spiazzo Rendena, Palestre di Tione, Zuclo e Ragoli.",interno,"Iscrizioni:Entro il 13 maggio presentando modulo d'iscrizione, copia bonifico e certificato di buona salute presso L'Ancora di Tione. Iscrizione a minimo 3 settimane anche non consecutive. Iscrizione alla gita del mercoledì da fare a parte per ogni singola giornata.
Susan Molinari
tel. 345/6598376
email susan.molinari@lancora.it
A chi rivolgersi: 
L'Ancora Società Cooperativa Sociale
Via Roma, 9 Tione di Trento
Tel. 0465/324727 - Fax 0465/329086animazione@lancora.it","3-6 anni | 15-18 anni | 6-14 anni

(Dall'ultimo anno della scuola dell'infanzia alla seconda superiore.)

sia residenti che non residenti",a pagamento con integrazione buoni di servizio FSE. Vedi sito de L'Ancora www.lancora.it perchè la tabella con l'articolazione delle quote supera il numero massimo di caratteri.,,,,,,0,,,,,,,,0.0,0.0,,
fbd461e5895fe28a364fe692c0d3c31a,2016-06-20T08:00:00+02:00,2016-05-04T09:58:52+02:00,Virtuo...samente Insieme,,"
Attività di animazione che unisce lo sport ad attività ricreative artistiche e ludiche. Nasce dall'unione delle attività pre-esistenti della società sportiva Virtus e dell'Ancora. Progetto che si presenta come sovra-comunale e territoriale in quanto supportato dalle amministrazioni locali della busa di Tione e Rendena che mira a coinvolgere associazioni e protagonisti del territorio.
Le attività sportive saranno gestite da personale qualificato in ambito sportivo e adeguate alle diverse fasce d'età alternando bike, piscina, calcio, basket, pesca, tiro con l'arco, ecc. Nel pomeriggio verranno sviluppati i temi della natura, della scienza, conoscenza del territorio e per 5 settimane il tema individuato è “SIAMO PROPRIO FATTI COSÌ… viaggia assieme a noi attraverso il corpo umano”. Verranno proposti laboratori manuali e giochi cooperativi.
Alla base di tutta la programmazione sta la voglia di divertirsi e di trascorrere insieme l'estate giocando e stringendo nuove amicizie.
Il mercoledì verranno organizzate attività in collaborazione con le guide alpine Mountain Friends e l'Associazione Pescatori Alto Sarca.
L'attività copre le 10 settimane estive. Il calendario e la programmazione variano a seconda delle età.
Dall'ultimo anno della scuola dell'infanzia alla prima media:
Lunedì, martedì, giovedì e venerdì: attività sportiva al mattino, pranzo, attività ludico ricreativa al pomeriggio.
Dalla seconda media alla seconda superiore: 
Lunedì, martedì, giovedì, venerdì: pranzo facoltativo attività sportiva il pomeriggio. Novità 2aranno organizzate alcune settimane di approfondimento di sport come vela, sub e salvamento e sport della montagna.Saranno organizzati i trasporti ed è previsto anche il pranzo.",,,2016-06-20T08:00:00+02:00,2016-09-02T18:00:00+02:00,,dal 20/06/2016 al 02/09/2016. L'attività rimarrà chiusa dal 10 al 14 agosto.,"Mattino 8.00-12.00, pranzo 12.00 - 14.00 e pomeriggio 14.00-18.00. Mercoledì giornata intera con iscrizione a parte. ","Tre Ville  Sede principale: Parco al Poz di Preore, Sede di Tione de L'Ancora, Piscina di Spiazzo Rendena, Palestre di Tione, Zuclo e Ragoli.",interno,"Entro il 13 maggio presentando modulo d'iscrizione, copia bonifico e certificato di buona salute presso L'Ancora di Tione. Iscrizione a minimo 3 settimane anche non consecutive. Iscrizione alla gita del mercoledì da fare a parte per ogni singola giornata.
Referenti: 
Susan Molinari
tel. 345/6598376email susan.molinari@lancora.it
A chi rivolgersi: 
L'Ancora Società Cooperativa Sociale
Via Roma, 9 Tione di Trento
Tel. 0465/324727 - Fax 0465/329086animazione@lancora.it","3-6 anni | 15-18 anni | 6-14 anni

Dall'ultimo anno della scuola dell'infanzia alla seconda superiore. sia residenti che non residenti",a pagamento con integrazione buoni di servizio FSE. Vedi sito de L'Ancora www.lancora.it perchè la tabella con l'articolazione delle quote supera il numero massimo di caratteri,,,,,,0,,,,,,,,0.0,0.0,,
9f5f2b4c5d1e02c82a62ac89cf57e356,2016-06-19T15:00:00+02:00,2016-05-03T17:07:15+02:00,Esplora e crea alla Casa del Geopark,,Piacevole pomeriggio per bambini e famiglie alla Casa del Geopark durante il quale si realizzerà un lavoretto nel geolaboratorio con la sabbia di fiume e le terre colorate.,,,2016-06-19T15:00:00+02:00,2016-09-18T19:00:00+02:00,,dal 19/06/2016 al 18/09/2016 Tutte le domeniche dal 19 giugno al 18 settembre., ritrovo ore 15.00 presso la casa del Geopark a Carisolo,Carisolo  Casa del Geopark - Carisolo,interno,"
Iscrizione obbligatoria entro le ore 18.00 del giorno precedente presso:
Parco Naturale Adamello Brenta, via Nazionale 24, 38080 Strembo (Tn). 0465 806666 info@pnab.itAziende per il Turismo aderenti all'iniziativa
Referenti: 
Catia Hvala
tel. 0465 806632
email catia@pnab.it
Iris Mosca
tel. 0465 806630email iris.mosca@pnab.it
A chi rivolgersi: 
Parco Naturale Adamello Brenta
Via Nazionale, 24 Strembo
Tel. 0465/806666 - Fax 0465/806699info@pnab.it",3-6 anni | 7-10 anni sia residenti che non residenti,"a pagamento con sconto dal 2° figlio. 7,00 € - bambini fino ai 12 anni 3,50 € - tariffa famiglia 14,00 € - gratis con Parco Card e DoloMeetCard",,,,,,0,,,,,,,,0.0,0.0,,
477b3f381ed0a883a3bb1fa8331283b5,2016-06-13T09:00:00+02:00,2016-04-26T12:08:47+02:00,Un'estate geniale & Play Camp,,,"Animazione estiva per bambini dai 6-10 anni con attività educative inerenti la valorizzazione delle capacità e delle qualità dei bambini in base alla teoria delle intelligenze multiple, con azioni diversificate per garantire opportunità di successo a tutti. Saranno previsti: laboratori, uscite nel bosco,giochi e sport.",,2016-06-13T09:00:00+02:00,2016-06-24T17:00:00+02:00,dal 13/06/2016 al 24/06/2016 ,settimanale dal lunedì al venerdì,Scegliendo fra tutto il giorno (pranzo compreso) dalle 9.00 alle 17.00 oppure solo la mattina dalle 9 alle 12 (Play Camp) oppure solo il pomeriggio dalle 14.00 alle 17.00 (Centro Aperto).,"Storo  Presso l'oratorio, salita al rio Proas 4 e presso il Campo sportivo Grilli.",interno,"Giovedì 14 aprile 2016 dalle 17 alle 19 presso l' oratorio di Storo oppure dal lunedì al venerdì dalle 14 alle 19 c/o Oratorio di Storo.Per chi fosse interessato ai Buoni di Servizio è necessario contattare il n° 333-2713194 entro lunedì 4 aprile e prendere appuntamento per la compilazione dei moduli .
Referenti: 
Sandra Beltramolli
tel. 0465/296868
email cdlarca@murialdo.taa.it
A chi rivolgersi: 
Comunità Murialdo Casa Gen.Pia Soc.Torinese San Giuseppe
Corso 3 Novembre, 36 Trento
Tel. 0461/231320 - Fax 0461/236036info@murialdo.taa.it","7-10 anni

Tipologia di utenza:	sia residenti che non residenti","a pagamento senza integrazione. 100 € a settimana giornata intera compreso il pasto (Centro Aperto), 100 € a settimana giornata intera compreso il pasto (Play Camp & Centro Aperto), 40 € a settimana solo la mattina (Play Camp), 40 € a settimana solo il pomeriggio (Centro Aperto).",,,,,/var/comunitagiudicarie/storage/images/comunita-delle-giudicarie/eventi/un-estate-geniale-play-camp/2777896-1-ita-IT/Un-estate-geniale-Play-Camp.jpg,0,,,,,,,,0.0,0.0,,
