remoteId;published;modified;Titolo;"Titolo breve";Sottotitolo;Descrizione;Testo;Inizio;Termine;Durata;Quando;Orario;Dove;Location;Informazioni;Destinatari;Costi;Stato;Tipologia;Materia;"Tipo evento";Immagine;"Manifestazione collegata (numero)";"Manifestazione collegata (testo)";Manifestazione;Associazione;"Immagine correlata";Progressivo;Link;Comune;lat;lon;address;Fonte
pat_2587440;2014-11-29T00:00:00+01:00;2014-11-02T01:08:31+01:00;"Saving Mr. Banks";;;;;2014-11-29T00:00:00+01:00;2014-11-29T00:00:00+01:00;;;"ore 20.30";"Cinema Teatro Dolomiti, , Lavarone";;"
Note: A che punto è la notte?
Usa, 2013
Titolo originale: Saving Mr. Banks
Genere: Commedia
Durata: 120'
Regia: John Lee Hancock
Cast: Tom Hanks, Emma Thompson, Colin Farrell, Paul Giamatti, Jason Schwartzman
Sito internet: www.disney.itPamela Lyndon Travers è una scrittrice di romanzi per l'infanzia che vive a Londra e fa impazzire il suo editore. Da vent'anni Mr. Russell prova a convincerla a cedere i diritti di &quot;Mary Poppins&quot; a Walt Disney. Ossessionato dalla promessa fatta alle sue figlie, Mr. Disney sogna di realizzarne un musical in technicolor con pinguini animati e spazzacamini volteggianti. Cocciuta e ostinata a rendere la vita un inferno a chiunque, Miss Travers si persuade a partire per la California. Impermeabile agli ossequi e all'amabilità di Walt Disney e dei suoi assistenti, Pamela si siede in cattedra e passa in rassegna lo script e la sua infanzia, sublimata nei suoi romanzi. Cresciuta in Australia da una madre fragile e un padre sognatore, costretto a lavorare in banca e deciso ad affogare la propria vita nell'alcol, Pamela ha inventato Mary Poppins per salvare il suo papà e i Mr. Banks del mondo. Assediata dai ricordi e dal corteggiamento di Disney, che intuisce il dolore radicato nell'infanzia, Pamela dovrà infine decidere del suo futuro e di quello della sua celebre governante.";;;;Cinema;;;;0;;;;;;;"Comune di Lavarone";0;0;;
pat_2587438;2014-11-22T00:00:00+01:00;2014-11-02T01:08:28+01:00;L'intrepido;;;;;2014-11-22T00:00:00+01:00;2014-11-22T00:00:00+01:00;;;"ore 20.30";"Cinema Teatro Dolomiti, , Lavarone";;"
Note: A che punto è la notte?
Italia, 2013
Titolo originale: L'intrepido
Genere: Commedia
Durata: 104'
Regia: Gianni Amelio
Cast: Antonio Albanese, Livia Rossi, Sandra Ceccarelli, Alfonso Santagata, Gabriele RendinaAntonio Pane vive a Milano e ha un lavoro particolare: fa il 'rimpiazzo' cioè sostituisce gli assenti in qualsiasi tipo di attività; un giorno può essere muratore, in quello successivo tramviere e così via. Antonio è un uomo fondamentalmente solo: la moglie lo ha lasciato per unirsi a un uomo dalle fortune decisamente più certe e il figlio studia sassofono contralto al Conservatorio e cerca in qualche modo di aiutare il genitore. Un giorno, a un esame di Stato, Antonio conosce una giovane donna, Lucia, a cui offre un aiuto disinteressato.";;;;Cinema;;;;0;;;;;;;"Comune di Lavarone";0;0;;
pat_2587436;2014-11-15T00:00:00+01:00;2014-11-02T01:08:26+01:00;"Se chiudo gli occhi non sono più qui";;;;;2014-11-15T00:00:00+01:00;2014-11-15T00:00:00+01:00;;;"ore 20.30";"Cinema Teatro Dolomiti, , Lavarone";;"
Note: A che punto è la notte?
Italia, 2013
Titolo originale: Se chiudo gli occhi non sono più qui
Genere: Drammatico
Durata: 100'
Regia: Vittorio Moroni
Cast: Giorgio Colangeli, Beppe Fiorello, Mark Manaloto, Hazel MorilloKiko ha 16 anni. Suo padre, defunto, era italiano. Sua madre Marilou è filippina. Vivono con Ennio, il nuovo compagno della mamma, un caporale che sfrutta immigrati clandestini. Ogni giorno, dopo la scuola, Kiko è costretto a lavorare nei cantieri edili di Ennio. Sente di vivere nel pianeta sbagliato. C'è un solo posto dove è possibile sognare: un vecchio bus abbandonato in una discarica che Kiko ha trasformato nel suo rifugio. Un giorno un vecchio amico del padre, Ettore, viene a cambiare il suo destino: lo cerca e si offre di diventare il suo maestro. Ma quell'uomo nasconde un segreto.";;;;Cinema;;;;0;;;;;;;"Comune di Lavarone";0;0;;
pat_2588041;2014-11-08T00:00:00+01:00;2014-11-06T01:15:21+01:00;"La Grande Guerra meschina";;;;;2014-11-08T00:00:00+01:00;2014-11-08T00:00:00+01:00;;;"ore 16.00";"Sala Josef Bacher, Via Costalta - Pön, Luserna";;"
Note: Dalle lettere dei soldati dal fronte:
«Mi scrivono dallItalia. E io che risposta devo dare? Che è semplicemente un grande macello e che questi assassini non vogliono finirla.» Uno spettacolo duro, che affronta argomenti negati in ogni guerra. La paura, la diserzione, lodio nei confronti dei propri superiori. Uno spettacolo che non può essere chiamato spettacolo perché racconta lindicibile; la guerra, ogni guerra non è fatta dai popoli, ma contro i popoli, contro tutti i popoli. Ogni guerra è combattuta contro lumanità. Parole e canti, Bertold Brecht e Ivano Fossati e le melodie dettatendai cuori straziati di chi la guerra ha visto e non sa dimenticare; Disertore e Stelutis Alpinis.
Alessandro Anderloni, narrazione
Raffaella Benetti, canto
Thomas Sinigaglia, fisarmonica
Drammaturgia, testi e regia di Alessandro Anderloni
Ricerca musicale di Raffaella Benetti e Thomas Sinigagliawww.aissamaissa.itTelefono: 0464/789638Altri organizzatori: Istituto Cimbro Luserna";;;;Teatro;;;;0;;;;;;"http://www.lusern.it|Istituto Cimbro Luserna";"Comune di Luserna";0;0;;"Redazione Trentino Cultura"
pat_2587434;2014-11-08T00:00:00+01:00;2014-11-02T01:08:23+01:00;"Smetto quando voglio";;;;;2014-11-08T00:00:00+01:00;2014-11-08T00:00:00+01:00;;;"ore 20.30";"Cinema Teatro Dolomiti, , Lavarone";;"
Note: A che punto è la notte?
Italia, 2013
Titolo originale: Smetto quando voglio
Genere: Commedia
Durata: 100'
Regia: Sydney Sibilia
Cast: Edoardo Leo, Valeria Solarino, Valerio Aprea, Paolo Calabresi, Libero de RienzoRoma, i nostri tempi. A un ricercatore universitario viene negato il rinnovo dell'assegno di ricerca; ha 37 anni, una casa da pagare, una fidanzata da soddisfare, molti amici accademici finiti per strada, stesso destino. Pietro Zinni, un chimico, non vuole fare la loro stessa fine, non vuole essere umiliato facendo il lavapiatti in un ristorante cinese, né il benzinaio per un gestore bengalese. Le sue qualifiche e il suo talento non possono essere buttati al vento. Si ingegna e scopre una possibilità ai limiti della legalità: sintetizza con l'aiuto di un suo amico chimico una nuova sostanza stupefacente tra quelle non ancora messe al bando dal ministero. La cosa in sé è legale, lo spaccio e il lucro che ne derivano no. Ma fa lo stesso, i tempi sono questi. Pietro recluta così tutti i suoi amici accademici finiti in rovina, eccellenti latinisti, antropologi e quant'altro e mette su una banda. Lo scopo è fare i soldi e vedersi restituita un briciolo di dignità. Le cose poi prendono un'altra piega...";;;;Cinema;;;;0;;;;;;;"Comune di Lavarone";0;0;;
pat_2587432;2014-10-31T00:00:00+01:00;2014-11-01T01:01:18+01:00;"Evoluzione del turismo montano";;;;;2014-10-31T00:00:00+01:00;2014-10-31T00:00:00+01:00;;;"ore 20.30";"Biblioteca Comunale , via Battisti, 38, Folgaria";;"
Note: Come sta cambiando il turismo montano? Cosa cerca il turista? Quali strategie si possono adottare? Il professor Umberto Martini presentera' le tendenze del turismo montano, con particolare riferimento ai cambiamenti in atto nei mercati e nella domanda. Saranno discusse le possibili strategie di risposta da parte delle destinazioni. 
BiografiaUmberto Martini è professore ordinario di Economia e gestione delle imprese presso il Dipartimento di Economia e Management dellUniversità di Trento, dove è titolare dei corsi di Marketing del turismo e di Marketing progredito. Dal 1997 si occupa di ricerca sui temi del destination management e del destination marketing. E membro della International Association of Scientific Experts in Tourism (AIEST), Università del San Gallo (CH). Dal 2003 al 2009 è stato direttore del Master of Tourism Management presso Trentino School of Management - tsm, Master universitario di primo livello della facoltà di Economia, e responsabile dell'area didattica Destination Management. Sempre nellambito della collaborazione con tsm ha seguito progetti formativi e di ricerca intervento in tutto il territorio del Trentino.Altri organizzatori: Scuola di formazione politica e culturale &quot;Alexander Langer&quot; - in collaborazione con la sezione SAT di Folgaria";;;;Convegno;;;;0;;;;;;;"Comune di Folgaria";0;0;;
pat_2552939;2014-09-04T00:00:00+02:00;2014-07-09T01:17:55+02:00;"Cent'anni fa la Guerra";;;;;2014-09-04T00:00:00+02:00;2014-09-04T00:00:00+02:00;;;"ore 21.00";"Biblioteca Comunale, , Lavarone";;"
Note: Altipiani Cimbri. Centenario 1914-18
Conferenze e commemorazioni
Gli Altipiani nel Grande Conflittoa cura di Fernando LarcherTelefono: 0464/724100 ";;;;Convegno;;;;0;;;;;;http://centenario.alpecimbra.it/;"Comune di Lavarone";0;0;;
pat_2552994;2014-09-03T00:00:00+02:00;2014-07-10T01:04:43+02:00;"Escursione a Forte Cherle e alla Scala dell'Imperatore";;;;;2014-09-03T00:00:00+02:00;2014-09-03T00:00:00+02:00;;;;"Ritrovo c/o parcheggio Vigili del Fuoco, , Folgaria";;"
Note: Altipiani Cimbri. Centenario 1914-18
Escursioni a forti e trincee
Escursione a Forte Cherle e alla Scala dell'Imperatore
con gli accompagnatori del territorio
Ritrovo ore 15.00 parcheggio Vigili del Fuoco
Trasferimento con mezzi propri
Facile. Bambini + 6 accompagnati
Rientro ore 18.00
Costo  5,00, con Guest Card Trentino  3,00Iscrizioni in APT entro ore 18.00 del giorno precedenteTelefono: 0464/724100 ";;;;"Manifestazioni ed eventi";;;;0;;;;;;http://centenario.alpecimbra.it/;"Comune di Folgaria";0;0;;
pat_2552938;2014-09-02T00:00:00+02:00;2014-07-09T01:17:35+02:00;"Cent'anni fa la Guerra";;;;;2014-09-02T00:00:00+02:00;2014-09-02T00:00:00+02:00;;;"ore 21.00";"Sala APT, , Folgaria";;"
Note: Altipiani Cimbri. Centenario 1914-18
Conferenze e commemorazioni
Gli Altipiani nel Grande Conflittoa cura di Fernando LarcherTelefono: 0464/724100 ";;;;Convegno;;;;0;;;;;;http://centenario.alpecimbra.it/;"Comune di Folgaria";0;0;;
Montagna_di_latte_evento_4255;2014-08-31T10:00:00+02:00;2014-08-28T01:04:00+02:00;"POLENTA E VEZZENA I SAPORI DI UNA VOLTA";;"degustazione di formaggio Vezzena e polenta";;;2014-08-31T10:00:00+02:00;2014-08-31T12:30:00+02:00;;;"Dalle 10.00 alle 12.30";"38046 Lavarone TN, Italia";;"Caseificio degli Altipiani e del Vezzena";;;;;;;/var/comunitaalticimbri/storage/images/magnifica-comunita-degli-altipiani-cimbri/archivio/polenta-e-vezzena-i-sapori-di-una-volta3/2192947-1-ita-IT/POLENTA-E-VEZZENA-I-SAPORI-DI-UNA-VOLTA.jpg;0;;;;;;;"Comune di Lavarone";45.921696;11.264628;;
pat_2552969;2014-08-29T00:00:00+02:00;2014-07-09T01:28:53+02:00;"I recuperanti";;;;;2014-08-29T00:00:00+02:00;2014-08-29T00:00:00+02:00;;;"ore 21.00";"Cinema Teatro Dolomiti, , Lavarone";;"
Note: Altipiani Cimbri. Centenario 1914-18
Film e video
La guerra va al cinema
Ingresso libero
In collaborazione con Fondazione Cineteca Italiana
Italia, 1970
Titolo originale: I recuperanti
Genere: Drammatico
Durata: 96' 
Regia: Ermanno Olmi
Cast: Antonio Lunardi, Andreino Carli, Alessandra Micheletto, Pietro Tolin, Marilena RossiTornato a casa sull'altopiano di Asiago nel 1945 dopo la prigionia, Gianni fatica a trovar lavoro. Il vecchio Du lo invita ad aiutarlo a recuperare i residuati metallici (bombe inesplose) della guerra 1915-18. Profondamente radicato nella realtà dell'altipiano dei Sette Comuni, di cui restituisce la dimensione dell'avventura (e della libertà nell'avventura), ma anche riflessione sulla demenza tragica della guerra, è il raro caso di un film d'autore che nasce da un'esperienza collettiva, tagliato su misura sul favoloso personaggio del vecchio Du (Toni Lunardi) che è perno, motore, anima della storia. Questo gran vecchio non ha interpretato il film da attore occasionale: se ne è impadronito fino a diventare lui stesso il film. Scritto con Mario Rigoni Stern e Tullio Kezich. Prodotto e trasmesso dalla RAI.Telefono: 0464/724100 ";;;;Cinema;;;;0;;;;;;http://centenario.alpecimbra.it/;"Comune di Lavarone";0;0;;
pat_2544173;2014-08-28T00:00:00+02:00;2014-06-20T01:01:09+02:00;"Torbiera Ecchen";;;;;2014-08-28T00:00:00+02:00;2014-08-28T00:00:00+02:00;;;;"Santuario della Madonna delle Grazie , , Folgaria";;"
Note: Vivi l'Ambiente
Percorso in natura, martedì 17 e 24 giugno, 1, 8, 15, 22 e 29 luglio, giovedì 28 agosto
Lorigine e la storia evolutiva della Torbiera Ecchen sono molto antiche e già di per sé sarebbero elementi sufficienti a decretarne lunicità e la preziosità. Questa zona umida, bacino glacio-carsico rivela unorigine e una struttura attribuibili alla concomitanza di fenomeni glaciali e fenomeni carsici. La torbiera mantiene un interessante legame con il territorio, che scopriremo durante il percorso.
Destinatari: tutti
Educatore ambientale: Monica Santini T. 333 6770557
Luogo: Folgaria
Orario e ritrovo: ore 09.00 c/o il piazzale del Santuario della Madonna delle Grazie - località Colpi.
Termine attività ore 14.00
Info e prenotazioni: APT Folgaria, Lavarone e Luserna, ufficio di Folgaria T. 0464 724100
Collaborazioni: Magnifica Comunità degli Altipiani Cimbri, Azienda per il Turismo Folgaria, Lavarone e Luserna, Provincia Autonoma di Trento  Servizio sviluppo sostenibile e aree protette  Ufficio biotopi e rete natura 2000.
**
LABORATORIO TERRITORIALE DI EDUCAZIONE AMBIENTALE DELLA VALLAGARINA E ALTIPIANI CIMBRI
c/o Complesso Intercity, Viale Trento 37D
38068 Rovereto
T. 0461 499890
e-mail: LT.EdAmb.vallagarina@provincia.tn.itOrario di apertura: venerdì ore 08.00 - 12.00 (chiuso dal 10 al 17 agosto 2014)Altri organizzatori: P.A.T. Assessorato ai lavori pubblici, ambiente e ai trasporti - Agenzia provinciale per la protezione dellambiente - Rete trentina di educazione ambientale per lo sviluppo sostenibile";;;;"Manifestazioni ed eventi";;;;0;;;;;;"http://www.appa.provincia.tn.it/educazioneambientale/|P.A.T. Assessorato ai lavori pubblici, ambiente e ai trasporti - Agenzia provinciale per la protezione dellambiente - Rete trentina di educazione ambientale per lo sviluppo sostenibile";"Comune di Folgaria";0;0;;
pat_2563629;2014-08-27T00:00:00+02:00;2014-07-18T01:01:30+02:00;"Leader come Francesco";;;;;2014-08-27T00:00:00+02:00;2014-08-27T00:00:00+02:00;;;"ore 17.00";"Centro Congressi a Gionghi, , Lavarone";;"
Note: Incontri d'autore
Bruno Ballardini
Leader come Francesco
Perché il Papa è un genio del marketing
Piemme, 2014
Modera: Sandro Scabello, giornalista
Dopo le dimissioni del precedente amministratore delegato  papa Ratzinger  la Chiesa ha terminato definitivamente la stagione dei saldi. Con papa Bergoglio ha aperto una nuova era, affrontando alla radice lormai riconosciuta obsolescenza del prodotto  la Dottrina cattolica  e una evidente inadeguatezza di fronte alle istanze della società moderna.
Per dare un segno di vicinanza con i suoi consumatori  i fedeli  papa Francesco ha dato avvio alla riforma dello IOR, alla costituzione di un Consiglio di Amministrazione di otto saggi cardinali, a un ripensamento globale della sua rete vendita di vescovi, sacerdoti e cardinali, giungendo addirittura a intraprendere linsolita iniziativa di un sondaggio a livello mondiale su come le parrocchie affrontano oggi questioni sensibili: controllo delle nascite, divorzio, unioni omosessuali.
La rivoluzione della Chiesa è in corso e le sorprese non mancheranno.Questo papa ha dimostrato non solo di essere un grande comunicatore, ma un maestro di leadership, uno stratega in grado di mettere in atto il marketing del significato: una grande operazione di recupero di valori autentici capace di scatenare una rivoluzione etica non solo in ambito ecclesiale, ma anche politico, economico e mediatico.Telefono: 0464/783832Altri organizzatori: Biblioteca Comunale &quot;S. Freud&quot;";;;;Convegno;;;;0;;;;;;"http://www.facebook.com/bibliotecalavarone|Biblioteca Comunale ""S. Freud""";"Comune di Lavarone";0;0;;
pat_2553069;2014-08-26T00:00:00+02:00;2014-07-10T01:05:03+02:00;"Escursione al Forte italiano di Campomoloa";;;;;2014-08-26T00:00:00+02:00;2014-08-26T00:00:00+02:00;;;;"Ritrovo c/o parcheggio Vigili del Fuoco, , Folgaria";;"
Note: Altipiani Cimbri. Centenario 1914-18
Escursioni a forti e trincee
Ritrovo ore 14.30 parcheggio Vigili del Fuoco
Trasferimento con mezzi propri fino a Sella Valbona
Facile. Bambini + 6 accompagnati
Rientro ore 18.30
Costo  5,00, con Guest Card Trentino  3,00Iscrizioni in APT entro ore 18.00 del giorno precedenteTelefono: 0464/724100 ";;;;"Manifestazioni ed eventi";;;;0;;;;;;http://centenario.alpecimbra.it/;"Comune di Folgaria";0;0;;
pat_2552954;2014-08-26T00:00:00+02:00;2014-07-09T01:28:12+02:00;"Forte Belvedere Gschwent, dagli archivi le nuove carte!";;;;;2014-08-26T00:00:00+02:00;2014-08-26T00:00:00+02:00;;;"ore 21.00";"Biblioteca Comunale, , Lavarone";;"
Note: Altipiani Cimbri. Centenario 1914-18
Conferenze e commemorazioniA cura di Leonardo MalatestaTelefono: 0464/724100 ";;;;Convegno;;;;0;;;;;;http://centenario.alpecimbra.it/;"Comune di Lavarone";0;0;;
pat_2544195;2014-08-26T00:00:00+02:00;2014-06-20T01:01:55+02:00;"Il respiro degli alberi";;;;;2014-08-26T00:00:00+02:00;2014-08-26T00:00:00+02:00;;;;"Frazione Lanzino, , Lavarone";;"
Note: Vivi l'Ambiente
Percorso in natura e laboratorio didattico, martedì 5 e 26 agosto
Lungo il sentiero Tomazol nella nuova area Respiro degli alberi adibita a mostra della natura, saranno effettuati dei laboratori al fine di stimolare la conoscenza dellalbero e della biodiversità nel bosco. I partecipanti dovranno cimentarsi in varie prove (caccia ai colori, associazioni tattili) per arrivare a realizzare una rappresentazione grafica tridimensionale con quanto raccolto nel bosco lungo il facile percorso.
Destinatari: dai 7 ai 10 anni
Educatore ambientale: Monica Santini T. 333 6770557
Luogo: Lavarone
Orario e ritrovo: ore 09.00 c/o la frazione Lanzino (poco prima della località Bertoldi). Termine attività ore
12.00
Info e prenotazioni: APT Folgaria, Lavarone e Luserna, ufficio di Folgaria T. 0464 724100
Collaborazioni: Magnifica Comunità degli Altipiani Cimbri, Comune di Lavarone, Azienda per il Turismo Folgaria, Lavarone e Luserna
**
LABORATORIO TERRITORIALE DI EDUCAZIONE AMBIENTALE DELLA VALLAGARINA E ALTIPIANI CIMBRI
c/o Complesso Intercity, Viale Trento 37D
38068 Rovereto
T. 0461 499890
e-mail: LT.EdAmb.vallagarina@provincia.tn.itOrario di apertura: venerdì ore 08.00 - 12.00 (chiuso dal 10 al 17 agosto 2014)Altri organizzatori: P.A.T. Assessorato ai lavori pubblici, ambiente e ai trasporti - Agenzia provinciale per la protezione dellambiente - Rete trentina di educazione ambientale per lo sviluppo sostenibile";;;;"Manifestazioni ed eventi";;;;0;;;;;;"http://www.appa.provincia.tn.it/educazioneambientale/|P.A.T. Assessorato ai lavori pubblici, ambiente e ai trasporti - Agenzia provinciale per la protezione dellambiente - Rete trentina di educazione ambientale per lo sviluppo sostenibile";"Comune di Lavarone";0;0;;
Montagna_di_latte_evento_4224;2014-08-24T10:00:00+02:00;2014-08-21T01:05:00+02:00;"PICCOLI ASSAGGI PER GRANDI SAPORI";;"degustazione di formaggio Vezzena e non solo...in collaborazione con l'azienda agricola Savinelli";;;2014-08-24T10:00:00+02:00;2014-08-24T12:30:00+02:00;;;"Dalle 10.00 alle 12.30";"38046 Lavarone TN, Italia";;"Caseificio degli Altipiani e del Vezzena";;;;;;;/var/comunitaalticimbri/storage/images/magnifica-comunita-degli-altipiani-cimbri/archivio/piccoli-assaggi-per-grandi-sapori7/2186210-2-ita-IT/PICCOLI-ASSAGGI-PER-GRANDI-SAPORI.jpg;0;;;;;;;"Comune di Lavarone";45.921696;11.264628;;
Montagna_di_latte_evento_4222;2014-08-23T17:00:00+02:00;2014-08-21T01:04:33+02:00;"POLENTA E VEZZENA I SAPORI DI UNA VOLTA";;"degustazione di formaggio Vezzena e polenta";;;2014-08-23T17:00:00+02:00;2014-08-23T19:30:00+02:00;;;"Dalle 17.00 alle 19.30";"38046 Lavarone TN, Italia";;"Caseificio degli Altipiani e del Vezzena";;;;;;;/var/comunitaalticimbri/storage/images/magnifica-comunita-degli-altipiani-cimbri/archivio/polenta-e-vezzena-i-sapori-di-una-volta2/2186150-2-ita-IT/POLENTA-E-VEZZENA-I-SAPORI-DI-UNA-VOLTA.jpg;0;;;;;;;"Comune di Lavarone";45.921696;11.264628;;
pat_2552971;2014-08-23T00:00:00+02:00;2014-07-09T01:36:20+02:00;"Dalle storie alla storia";;;;;2014-08-23T00:00:00+02:00;2014-08-23T00:00:00+02:00;;;;"Partenza da Piazza Marconi, , Luserna";;"
Note: Altipiani Cimbri. Centenario 1914-18
Animazioni
Animazione sul percorso tematico
Storie raccontate e danzate, a cura dell'associazione culturale MP.Ideograms Parma
Partenza da Piazza Marconi ore 17.30
Costo  10,00, compreso l'aperitivo al forteInfo e iscrizioni obbligatorie in APT entro il giorno precedente.Telefono: 0464/724100 ";;;;"Manifestazioni ed eventi";;;;0;;;;;;http://centenario.alpecimbra.it/;"Comune di Luserna";0;0;;
pat_2563627;2014-08-23T00:00:00+02:00;2014-07-18T01:01:49+02:00;"La memoria ambientale dell'Avez de Prinzep. Come è cambiato il clima in 230 anni";;;;;2014-08-23T00:00:00+02:00;2014-08-23T00:00:00+02:00;;;"ore 15.00";"Malga Laghetto, , Lavarone";;"
Note: Incontri d'autore
Luca Mercalli, Società Metereologica Italiana - Rai3 Che tempo che fa
La memoria ambientale dell'Avez de Prinzep. Come è cambiato il clima in 230 anniEvento in occasione dell'inaugurazione dell'area naturale di Malga LaghettoTelefono: 0464/783832Altri organizzatori: Biblioteca Comunale &quot;S. Freud&quot;";;;;Convegno;;;;0;;;;;;"http://www.facebook.com/bibliotecalavarone|Biblioteca Comunale ""S. Freud""";"Comune di Lavarone";0;0;;
pat_2553068;2014-08-22T00:00:00+02:00;2014-07-10T01:05:00+02:00;"Escursione a Forte Pozzacchio (Vallarsa)";;;;;2014-08-22T00:00:00+02:00;2014-08-22T00:00:00+02:00;;;;"Ritrovo c/o parcheggio Vigili del Fuoco, , Folgaria";;"
Note: Altipiani Cimbri. Centenario 1914-18
Escursioni a forti e trincee
Ritrovo ore 8.30 parcheggio Vigili del Fuoco
Trasferimento con mezzi propri (circa 30 km)
Medio/Facile. Bambini + 6 accompagnati
Rientro ore 12.30
Costo  5,00, con Guest Card Trentino  3,00Iscrizioni in APT entro ore 18.00 del giorno precedenteTelefono: 0464/724100 ";;;;"Manifestazioni ed eventi";;;;0;;;;;;http://centenario.alpecimbra.it/;"Comune di Folgaria";0;0;;
pat_2552958;2014-08-22T00:00:00+02:00;2014-07-09T01:35:20+02:00;"Altipiani Cimbri 1914";;;;;2014-08-22T00:00:00+02:00;2014-08-22T00:00:00+02:00;;;"ore 21.00";"Teatro, , Luserna";;"
Note: Altipiani Cimbri. Centenario 1914-18
Film e video
Cortometraggio a cura del Piano Giovani di Zona degli Altipiani Cimbri con la collaborazione delle associazioni di volontariato del territorio
Regia di Federico MaranerIngresso liberoTelefono: 0464/724100 ";;;;Cinema;;;;0;;;;;;http://centenario.alpecimbra.it/;"Comune di Luserna";0;0;;
pat_2552953;2014-08-22T00:00:00+02:00;2014-07-09T01:27:51+02:00;"Trentini in guerra sul fronte orientale. Il Trentino zona di guerra";;;;;2014-08-22T00:00:00+02:00;2014-08-22T00:00:00+02:00;;;"ore 21.00";"Casa della Cultura, , Folgaria";;"
Note: Altipiani Cimbri. Centenario 1914-18
Conferenze e commemorazioniA cura di don Marco MorelliTelefono: 0464/724100 ";;;;Convegno;;;;0;;;;;;http://centenario.alpecimbra.it/;"Comune di Folgaria";0;0;;
pat_2552966;2014-08-22T00:00:00+02:00;2014-07-09T01:25:49+02:00;"Uomini contro";;;;;2014-08-22T00:00:00+02:00;2014-08-22T00:00:00+02:00;;;"ore 21.00";"Cinema Teatro Dolomiti, , Lavarone";;"
Note: Altipiani Cimbri. Centenario 1914-18
Film e video
La guerra va al cinema
Ingresso libero
In collaborazione con Fondazione Cineteca Italiana
Italia, 1970
Titolo originale: Uomini contro
Genere: Guerra
Durata: 101' 
Regia: Francesco Rosi
Cast: Gian Maria Volonté, Pier Paolo Capponi, Alain Cuny, Franco Graziosi, Mark FrechetteSull'altopiano di Asiago tra il 1916 e il 1917 un giovane ufficiale italiano interventista scopre la follia della guerra e la disumana, insensata incompetenza degli alti comandi. Dal bel libro Un anno sull'altipiano (1938) di Emilio Lussu.Telefono: 0464/724100 ";;;;Cinema;;;;0;;;;;;http://centenario.alpecimbra.it/;"Comune di Lavarone";0;0;;
pat_2563626;2014-08-21T00:00:00+02:00;2014-07-18T01:01:47+02:00;"Le rose che non colsi";;;;;2014-08-21T00:00:00+02:00;2014-08-21T00:00:00+02:00;;;"ore 17.00";"Centro Congressi a Gionghi, , Lavarone";;"
Note: Incontri d'autore
Gianna Schelotto
Le rose che non colsi
Mondadori, 2014
Modera: Sandro Scabello, giornalistaAbbiamo la tendenza ad attribuire virtù e pregi straordinari alle scelte che non abbiamo fatto. Riviste con la lente del rimpianto, le occasioni perdute esercitano insidiose seduzioni. Non amo che le rose che non colsi diceva Guido Gozzano con tenerezza e suggeriva sommessamente che, se quel fiore mantiene nel ricordo tutto il suo splendore, è perché non è stato colto mai. Esistono molte persone che si caricano sulle spalle il proprio passato e se lo trascinano nella vita quotidiana, con la convinzione che il mondo in cui stanno vivendo non sia che linsignificante brutta copia di quello in cui avrebbero potuto vivere. In questo suo nuovo libro, Gianna Schelotto affronta il tema controverso dei rimpianti e delle occasioni perdute, con lo stile che lha fatta amare da molti lettori: racconti che viaggiano sul confine sottile tra la letteratura e la psicologia, storie che con le loro sfumature narrative toccano le corde più profonde di ognuno di noi. Telefono: 0464/783832Altri organizzatori: Biblioteca Comunale &quot;S. Freud&quot;";;;;Convegno;;;;0;;;;;;"http://www.facebook.com/bibliotecalavarone|Biblioteca Comunale ""S. Freud""";"Comune di Lavarone";0;0;;
pat_2552957;2014-08-20T00:00:00+02:00;2014-07-09T01:35:01+02:00;"Altipiani Cimbri 1914";;;;;2014-08-20T00:00:00+02:00;2014-08-20T00:00:00+02:00;;;"ore 21.00";"Centro Congressi, , Lavarone";;"
Note: Altipiani Cimbri. Centenario 1914-18
Film e video
Cortometraggio a cura del Piano Giovani di Zona degli Altipiani Cimbri con la collaborazione delle associazioni di volontariato del territorio
Regia di Federico MaranerIngresso liberoTelefono: 0464/724100 ";;;;Cinema;;;;0;;;;;;http://centenario.alpecimbra.it/;"Comune di Lavarone";0;0;;
pat_2552933;2014-08-20T00:00:00+02:00;2014-07-09T01:33:41+02:00;"Maledetta la guerra!";;;;;2014-08-20T00:00:00+02:00;2014-08-20T00:00:00+02:00;;;"ore 21.00";"Carbonare - Centro Civico, , Folgaria";;"
Note: Altipiani Cimbri. Centenario 1914-18
Spettacoli teatrali
Monologo teatrale di Alfonso MasiIngresso liberoTelefono: 0464/724100 ";;;;Teatro;;;;0;;;;;;http://centenario.alpecimbra.it/;"Comune di Folgaria";0;0;;
pat_2552967;2014-08-19T00:00:00+02:00;2014-07-09T01:26:09+02:00;"La Grande Guerra. Soldati trentini al fronte";;;;;2014-08-19T00:00:00+02:00;2014-08-19T00:00:00+02:00;;;"ore 21.00";"Casa della Cultura, , Folgaria";;"
Note: Altipiani Cimbri. Centenario 1914-18
Film e video
Video a cura di Sergio DaviIngresso liberoTelefono: 0464/724100 ";;;;Cinema;;;;0;;;;;;http://centenario.alpecimbra.it/;"Comune di Folgaria";0;0;;
pat_2552952;2014-08-18T00:00:00+02:00;2014-07-09T01:27:31+02:00;"Leonida Bissolati. Diario di guerra 1915-18";;;;;2014-08-18T00:00:00+02:00;2014-08-18T00:00:00+02:00;;;"ore 21.00";"Biblioteca Comunale, , Lavarone";;"
Note: Altipiani Cimbri. Centenario 1914-18
Conferenze e commemorazioniA cura di Alessandro TortatoTelefono: 0464/724100 ";;;;Convegno;;;;0;;;;;;http://centenario.alpecimbra.it/;"Comune di Lavarone";0;0;;
pat_2563625;2014-08-18T00:00:00+02:00;2014-07-18T01:01:45+02:00;"Io siamo";;;;;2014-08-18T00:00:00+02:00;2014-08-18T00:00:00+02:00;;;"ore 17.00";"Centro Congressi a Gionghi, , Lavarone";;"
Note: Incontri d'autore
Corrado Passera
Io siamo
Insieme per costruire un'Italia migliore
Rizzoli, 2014
Modera: Sandro Scabello, giornalistaSi può e si deve credere in un futuro migliore per il nostro Paese. È questa la sfida che Corrado Passera vuole impegnarsi a vincere, riportando la politica al ruolo di servizio che oggi ha perduto, asfissiata e umiliata comè dallinvadenza e dallottusità della partitocrazia. In Italia ci sono 10 milioni di persone che non hanno lavoro o sono così sfiduciate da aver smesso di cercarlo, sono in cassa integrazione o non guadagnano abbastanza da poter mantenere una famiglia. 10 milioni di persone che vivono con la paura del domani e langoscia della povertà non sono un dato statistico: sono un poderoso fattore di disagio sociale che rischia di far saltare lintero sistema. Per combattere lemergenza lavoro non bastano ripresine dello zero virgola o annunci altisonanti che, nella migliore delle ipotesi, hanno lefficacia delle cure palliative. Occorre una crescita costante del 2-3 per cento annuo, a cui non si può aspirare senza immettere nella nostra economia risorse per almeno 400 miliardi. Impossibile trovarle? No, così come non sono impossibili riforme profonde che riportino competitività nel sistema economico e semplicità nelle istituzioni, valorizzando merito, responsabilità, trasparenza, generosità, coraggio. A partire dal coraggio della verità: guardare le cose come stanno, non sfuggire ai problemi insoluti da decenni. In questo libro, Passera presenta unanalisi approfondita della nostra crisi e delle sue cause, una serie organica di proposte concrete per venirne fuori e una nuova visione della politica come progetto collettivo capace di interessare e coinvolgere i cittadini, quel progetto che lha spinto ad aprire il cantiere di un nuovo movimento, Italia Unica. Lobiettivo è uno solo: fare in modo che lItalia  ferma da ventanni e condannata al declino o alla rovina se non riprende in mano il proprio destino  torni a essere uno dei Paesi migliori in cui vivere.Telefono: 0464/783832Altri organizzatori: Biblioteca Comunale &quot;S. Freud&quot;";;;;Convegno;;;;0;;;;;;"http://www.facebook.com/bibliotecalavarone|Biblioteca Comunale ""S. Freud""";"Comune di Lavarone";0;0;;
Montagna_di_latte_evento_4186;2014-08-17T10:00:00+02:00;2014-08-16T01:01:27+02:00;"PICCOLI ASSAGGI PER GRANDI SAPORI";;"Degustazione di formaggio Vezzena e non solo ...in collaborazione con l'azienda agricola Debiasi";;;2014-08-17T10:00:00+02:00;2014-08-17T12:30:00+02:00;;;"Dalle 10.00 alle 12.30";"38046 Lavarone TN, Italia";;"Caseificio degli Altipiani e del Vezzena";;;;;;;/var/comunitaalticimbri/storage/images/magnifica-comunita-degli-altipiani-cimbri/archivio/piccoli-assaggi-per-grandi-sapori6/2182439-4-ita-IT/PICCOLI-ASSAGGI-PER-GRANDI-SAPORI.jpg;0;;;;;;;"Comune di Lavarone";45.921696;11.264628;;
Montagna_di_latte_evento_4187;2014-08-16T20:00:00+02:00;2014-08-15T01:01:18+02:00;"I VOLTI DEI GIONGHI";;"LAVORAZIONE DEL FORMAGGIO ALL'APERTO IN OCCASIONE DELLA MANIFESTAZIONE I VOLTI DEI GIONGHI";;;2014-08-16T20:00:00+02:00;2014-08-16T22:00:00+02:00;;;"Dalle 20.00 alle 22.00";"38046 Lavarone TN, Italia";;"Caseificio degli Altipiani e del Vezzena";;;;;;;/var/comunitaalticimbri/storage/images/magnifica-comunita-degli-altipiani-cimbri/archivio/i-volti-dei-gionghi/2182409-3-ita-IT/I-VOLTI-DEI-GIONGHI.jpg;0;;;;;;;"Comune di Lavarone";45.921696;11.264628;;
pat_2552992;2014-08-14T00:00:00+02:00;2014-07-09T01:26:50+02:00;"La Grande Guerra del Corriere dei Piccoli, 1914-19";;;;;2014-08-14T00:00:00+02:00;2014-09-28T00:00:00+02:00;;;"Inaugurazione 14 agosto ore 18.00

ore 10.00-12.30 e 16.00-19.00";"Sala ex scuole elementari di Cappella, , Lavarone";;"
Note: Altipiani Cimbri. Centenario 1914-18
Mostrea cura di Nicola Spagnolli, in collaborazione con l'Associazione Tra le Rocce e il CieloTelefono: 0464/724100 ";;;;Mostra;;;;0;;;;;;http://centenario.alpecimbra.it/;"Comune di Lavarone";0;0;;
pat_2552937;2014-08-14T00:00:00+02:00;2014-07-09T01:17:15+02:00;"Cent'anni fa la Guerra";;;;;2014-08-14T00:00:00+02:00;2014-08-14T00:00:00+02:00;;;"ore 21.00";"San Sebastiano - Centro Civico, , Folgaria";;"
Note: Altipiani Cimbri. Centenario 1914-18
Conferenze e commemorazioni
Gli Altipiani nel Grande Conflittoa cura di Fernando LarcherTelefono: 0464/724100 ";;;;Convegno;;;;0;;;;;;http://centenario.alpecimbra.it/;"Comune di Folgaria";0;0;;
pat_2563624;2014-08-14T00:00:00+02:00;2014-07-18T01:01:28+02:00;"Bolli, sempre bolli, fortissimamente bolli";;;;;2014-08-14T00:00:00+02:00;2014-08-14T00:00:00+02:00;;;"ore 17.00";"Centro Congressi a Gionghi, , Lavarone";;"
Note: Incontri d'autore
Bolli, sempre bolli, fortissimamente bolli
Feltrinelli, 2014
Presentazione-spettacolo con l'autore Gian Antonio Stella e la partecipazione di Natalino BalassoUna donna cieca dalla nascita riacquista la vista dopo un viaggio a Lourdes: chiede di rinunciare alla pensione dinvalidità ma lo Stato si oppone eroicamente al miracolo. Dove si è svolta una storia simile? In Italia naturalmente, Paese di santi, poeti e complicatori che perde il tempo dei suoi funzionari e il denaro dei contribuenti fra timbri e marche da bollo, interrogazioni parlamentari sulla mucca Clarabella, concessioni di vincoli paesaggistici per la coltivazione del pitosforo e leggi regionali ad personam per allevatori di cardellini. Se la Germania traina leconomia dellintera eurozona, lItalia ha un altro primato invidiabile: paga i suoi dirigenti dodici volte il reddito medio dei suoi cittadini (i colleghi tedeschi solo quattro volte). Ma per affrontare il nemico occorre conoscerlo e scendere negli inferi delle leggi inutili e delle pubbliche assurdità, come fa Gian Antonio Stella, nel suo nuovo libro, che traccia un allucinante e spietato itinerario alla scoperta della patologia endemica del Bel Paese, tra capziose ordinanze comunali e improbabili direttive dellUnione europea. Per comprendere come la peggior giungla legislativa possa uccidere anche la più florida economia e lasciarci in cambio, come consolazione, momenti dirresistibile, involontario umorismo.Telefono: 0464/783832Altri organizzatori: Biblioteca Comunale &quot;S. Freud&quot;";;;;Convegno;;;;0;;;;;;"http://www.facebook.com/bibliotecalavarone|Biblioteca Comunale ""S. Freud""";"Comune di Lavarone";0;0;;
pat_2552951;2014-08-13T00:00:00+02:00;2014-07-09T01:19:58+02:00;"Esordi della Prima Guerra Mondiale. I ruoli dei forti Belvedere, Campolongo e Verena";;;;;2014-08-13T00:00:00+02:00;2014-08-13T00:00:00+02:00;;;"ore 20.30";"Sala Istituto Cimbro, , Luserna";;"
Note: Altipiani Cimbri. Centenario 1914-18
Conferenze e commemorazioniA cura di Leonardo Malatesta con proiezione video del regista Diego Retis e lettura di testi dell'attore Claudio Manuzzato.Telefono: 0464/724100 ";;;;Convegno;;;;0;;;;;;http://centenario.alpecimbra.it/;"Comune di Luserna";0;0;;
pat_2563623;2014-08-13T00:00:00+02:00;2014-07-18T01:00:53+02:00;"La rivolta del correntista";;;;;2014-08-13T00:00:00+02:00;2014-08-13T00:00:00+02:00;;;"ore 17.00";"Centro Congressi a Gionghi, , Lavarone";;"
Note: Incontri d'autore
Mario Bortoletto
La rivolta del correntista
ome difendersi dalle banche e non farsi fregare
Chiarelettere, 2014
Modera: Sandro Scabello, giornalista&quot;Quella raccontata da Mario Bortoletto è una storia di straordinaria resistenza personale. Bortoletto, da solo, è riuscito a mettere in luce i meccanismi nascosti con i quali le banche lucrano sui conti correnti dei cittadini. E ha aperto un mondo, prima sconosciuto.&quot; (Riccardo Iacona) &quot;Un giorno ti svegli e non hai più niente. Tutto quello che avevi ottenuto con i sacrifici di una vita diventa proprietà della banca. Disperazione e notti insonni, non ti rimane altro, nemmeno l'età per ricominciare. Ti prendono tutto, anche quello che in realtà non gli è dovuto. Molte persone credono di essere debitrici nei confronti delle banche mentre in realtà sono creditrici. Mi auguro che questo libro possa aiutarle ad avere giustizia.&quot; (Mario Bortoletto)Telefono: 0464/783832Altri organizzatori: Biblioteca Comunale &quot;S. Freud&quot;";;;;Convegno;;;;0;;;;;;"http://www.facebook.com/bibliotecalavarone|Biblioteca Comunale ""S. Freud""";"Comune di Lavarone";0;0;;
pat_2552950;2014-08-12T00:00:00+02:00;2014-07-09T01:19:37+02:00;"Narzario Sauro. Storia di un marinaio";;;;;2014-08-12T00:00:00+02:00;2014-08-12T00:00:00+02:00;;;"ore 21.00";"Centro Congressi, , Lavarone";;"
Note: Altipiani Cimbri. Centenario 1914-18
Conferenze e commemorazioniA cura di Romano SauroTelefono: 0464/724100 ";;;;Convegno;;;;0;;;;;;http://centenario.alpecimbra.it/;"Comune di Lavarone";0;0;;
pat_2552932;2014-08-11T00:00:00+02:00;2014-07-09T01:33:21+02:00;"Addio alle armi";;;;;2014-08-11T00:00:00+02:00;2014-08-11T00:00:00+02:00;;;"ore 21.00";"Teatro, , Luserna";;"
Note: Altipiani Cimbri. Centenario 1914-18
Spettacoli teatrali
di Ernest Hemingway
Spettacolo con Maura Pettorruso e Stefano DetassisIngresso libeoTelefono: 0464/724100 ";;;;Teatro;;;;0;;;;;;http://centenario.alpecimbra.it/;"Comune di Luserna";0;0;;
Montagna_di_latte_evento_4142;2014-08-10T10:00:00+02:00;2014-08-09T01:01:21+02:00;"PICCOLI ASSAGGI PER GRANDI SAPORI";;"degustazione di formaggio Vezzena e non solo..in collaborazione con l'azienda agricola La Fonte";;;2014-08-10T10:00:00+02:00;2014-08-10T12:30:00+02:00;;;"Dalle 10.00 alle 12.30";"38046 Lavarone TN, Italia";;"Caseificio degli Altipiani e del Vezzena";;;;;;;/var/comunitaalticimbri/storage/images/magnifica-comunita-degli-altipiani-cimbri/archivio/piccoli-assaggi-per-grandi-sapori5/2178117-3-ita-IT/PICCOLI-ASSAGGI-PER-GRANDI-SAPORI.jpg;0;;;;;;;"Comune di Lavarone";45.921696;11.264628;;
pat_2552917;2014-08-10T00:00:00+02:00;2014-07-09T01:03:04+02:00;"Concerto per la Pace";;;;;2014-08-10T00:00:00+02:00;2014-08-10T00:00:00+02:00;;;"ore 16.00";"Lago di Passo Coe, Alpe di Folgaria, Folgaria";;"
Note: Altipiani Cimbri. Centenario 1914-18
Concerti
Per i Suoni del Centenario della Prima Guerra Mondiale
I Nomadi in concertoIngresso liberoTelefono: 0464/724100 ";;;;Musica;;;;0;;;;;;http://centenario.alpecimbra.it/;"Comune di Folgaria";0;0;;
pat_2552931;2014-08-09T00:00:00+02:00;2014-07-09T01:33:01+02:00;"Storia di Tönle";;;;;2014-08-09T00:00:00+02:00;2014-08-09T00:00:00+02:00;;;"ore 21.00";"Piazza San Lorenzo, , Folgaria";;"
Note: Altipiani Cimbri. Centenario 1914-18
Spettacoli teatrali
di Mario Rigoni Stern
spettacolo teatrale con Pino PetruzzelliIngresso liberoTelefono: 0464/724100 ";;;;Teatro;;;;0;;;;;;http://centenario.alpecimbra.it/;"Comune di Folgaria";0;0;;
pat_2552991;2014-08-09T00:00:00+02:00;2014-07-09T01:26:31+02:00;"Eserciti di carta della Prima Guerra Mondiale";;;;;2014-08-09T00:00:00+02:00;2014-08-31T00:00:00+02:00;;;"Inaugurazione 9 agosto ore 18.00

ore 10.00-12.30 e 16.00-19.00";"Sala Mostre, , Lavarone";;"
Note: Altipiani Cimbri. Centenario 1914-18
MostreCartoline reggimentali, soldatini e macchinine belliche da ritagliare, a cura di Carlo VicarioTelefono: 0464/724100 ";;;;Mostra;;;;0;;;;;;http://centenario.alpecimbra.it/;"Comune di Lavarone";0;0;;
pat_2553067;2014-08-08T00:00:00+02:00;2014-07-10T01:04:58+02:00;"Visita guidata alle Trincee del Nagià Grom (Mori)";;;;;2014-08-08T00:00:00+02:00;2014-08-08T00:00:00+02:00;;;;"Ritrovo c/o parcheggio Vigili del Fuoco, , Folgaria";;"
Note: Altipiani Cimbri. Centenario 1914-18
Escursioni a forti e trincee
Ritrovo ore 8.30 parcheggio Vigili del Fuoco
Trasferimento con mezzi propri (circa 40 km)
Medio/Facile. Bambini + 6 accompagnati
Rientro ore 12.30
Costo  5,00, con Guest Card Trentino  3,00Iscrizioni in APT entro ore 18.00 del giorno precedenteTelefono: 0464/724100 ";;;;"Manifestazioni ed eventi";;;;0;;;;;;http://centenario.alpecimbra.it/;"Comune di Folgaria";0;0;;
pat_2552930;2014-08-08T00:00:00+02:00;2014-07-09T01:32:41+02:00;"Storia di Tönle";;;;;2014-08-08T00:00:00+02:00;2014-08-08T00:00:00+02:00;;;"ore 21.00";"Centro Congressi, , Lavarone";;"
Note: Altipiani Cimbri. Centenario 1914-18
Spettacoli teatrali
di Mario Rigoni Stern
spettacolo teatrale con Pino PetruzzelliIngresso liberoTelefono: 0464/724100 ";;;;Teatro;;;;0;;;;;;http://centenario.alpecimbra.it/;"Comune di Lavarone";0;0;;
pat_2552949;2014-08-08T00:00:00+02:00;2014-07-09T01:19:17+02:00;"La Grande Guerra. Soldati trentini al fronte";;;;;2014-08-08T00:00:00+02:00;2014-08-08T00:00:00+02:00;;;"ore 21.00";"Serrada - Teatro, , Folgaria";;"
Note: Altipiani Cimbri. Centenario 1914-18
Conferenze e commemorazioni
Settimana del CentenarioVideo a cura di Sergio DaviTelefono: 0464/724100 ";;;;Convegno;;;;0;;;;;;http://centenario.alpecimbra.it/;"Comune di Folgaria";0;0;;
pat_2563622;2014-08-08T00:00:00+02:00;2014-07-18T01:01:06+02:00;"Non vale una lira";;;;;2014-08-08T00:00:00+02:00;2014-08-08T00:00:00+02:00;;;"ore 17.00";"Centro Congressi a Gionghi, , Lavarone";;"
Note: Incontri d'autore
Mario Giordano
Non vale una lira
Come e perché dire addio all'euro
Mondadori, 2014
Modera: Sandro Scabello, giornalistaL'errore &quot;euro&quot; è l'errore &quot;Europa&quot;: l'idea di costruire l'Unione sulla base economica, pensando che la politica potesse essere trascinata, sta infatti rivelandosi un fallimento. L'Europa economica, l'Europa dei parametri di bilancio, l'Europa dei finanzieri sta soffocando le singole economie. E distrugge il sogno europeo dei nostri padri. Oggi manca una politica sociale europea, una politica dell'immigrazione europea, manca persino una politica di difesa comune. L'Europa non ha portato nessun beneficio ai cittadini, alle famiglie o alle imprese. Non a caso in tutta Europa crescono i movimenti no euro, che però vengono zittiti dal conformismo del pensiero dominante e accusati di &quot;populismo&quot;. In questo modo l'establishment si arrocca nella difesa di una scelta sbagliata. &quot;Non vale una lira&quot; fornirà ragioni e motivi per dire basta alla schiavitù dell'euro.Telefono: 0464/783832Altri organizzatori: Biblioteca Comunale &quot;S. Freud&quot;";;;;Convegno;;;;0;;;;;;"http://www.facebook.com/bibliotecalavarone|Biblioteca Comunale ""S. Freud""";"Comune di Lavarone";0;0;;
pat_2552948;2014-08-07T00:00:00+02:00;2014-07-09T01:18:58+02:00;"Serrada e la Grande Guerra";;;;;2014-08-07T00:00:00+02:00;2014-08-07T00:00:00+02:00;;;"ore 21.00";"Serrada - Teatro, , Folgaria";;"
Note: Altipiani Cimbri. Centenario 1914-18
Conferenze e commemorazioni
Settimana del Centenario
Serrada e la Grande Guerra (profughi e scritture di guerra)A cura di Armando ValleTelefono: 0464/724100 ";;;;Convegno;;;;0;;;;;;http://centenario.alpecimbra.it/;"Comune di Folgaria";0;0;;
pat_2544193;2014-08-07T00:00:00+02:00;2014-06-20T01:01:52+02:00;"Alla scoperta del gigante nel bosco";;;;;2014-08-07T00:00:00+02:00;2014-08-07T00:00:00+02:00;;;;"Malga Laghetto, , Lavarone";;"
Note: Vivi l'Ambiente
Percorso in natura, giovedì 24 luglio e 7 agosto
Percorso naturalistico alla scoperta della biodiversità, che prende avvio nei pressi dellarea protetta Palù di Monte Rovere e Malga Laghetto, minuscolo specchio d'acqua, relitto di un antico bacino lacustre, in cui fioriscono ninfee e nannuferi. La malga si trova in un'ampia depressione prativa e pascoliva contornata da una fitta foresta di abete bianco, a poche decine di metri dallAvéz del Prìnzep labete bianco più alto dEuropa.
Destinatari: tutti
Educatore ambientale: Monica Santini T. 333 6770557
Luogo: Lavarone
Orario e ritrovo: ore 09.00 c/o il parcheggio di Malga Laghetto. Termine attività ore 12.00
Info e prenotazioni: APT Folgaria, Lavarone e Luserna, ufficio di Folgaria T. 0464 724100
Collaborazioni: Magnifica Comunità degli Altipiani Cimbri, Azienda per il Turismo Folgaria, Lavarone e Luserna
**
LABORATORIO TERRITORIALE DI EDUCAZIONE AMBIENTALE DELLA VALLAGARINA E ALTIPIANI CIMBRI
c/o Complesso Intercity, Viale Trento 37D
38068 Rovereto
T. 0461 499890
e-mail: LT.EdAmb.vallagarina@provincia.tn.itOrario di apertura: venerdì ore 08.00 - 12.00 (chiuso dal 10 al 17 agosto 2014)Altri organizzatori: P.A.T. Assessorato ai lavori pubblici, ambiente e ai trasporti - Agenzia provinciale per la protezione dellambiente - Rete trentina di educazione ambientale per lo sviluppo sostenibile";;;;"Manifestazioni ed eventi";;;;0;;;;;;"http://www.appa.provincia.tn.it/educazioneambientale/|P.A.T. Assessorato ai lavori pubblici, ambiente e ai trasporti - Agenzia provinciale per la protezione dellambiente - Rete trentina di educazione ambientale per lo sviluppo sostenibile";"Comune di Lavarone";0;0;;
pat_2552929;2014-08-06T00:00:00+02:00;2014-07-09T01:32:21+02:00;"Addio alle armi";;;;;2014-08-06T00:00:00+02:00;2014-08-06T00:00:00+02:00;;;"ore 21.00";"Serrada, , Folgaria";;"
Note: Altipiani Cimbri. Centenario 1914-18
Spettacoli teatrali
di Ernest Hemingway
Spettacolo con Maura Pettorruso e Stefano DetassisIngresso libeoTelefono: 0464/724100 ";;;;Teatro;;;;0;;;;;;http://centenario.alpecimbra.it/;"Comune di Folgaria";0;0;;
pat_2552947;2014-08-05T00:00:00+02:00;2014-07-09T01:34:21+02:00;"Forte Dosso delle Somme, il 'Werk Serrada'. La realizzazione";;;;;2014-08-05T00:00:00+02:00;2014-08-05T00:00:00+02:00;;;"ore 21.00";"Serrada - Teatro, , Folgaria";;"
Note: Altipiani Cimbri. Centenario 1914-18
Conferenze e commemorazioni
Settimana del CentenarioA cura di Arturo BusinTelefono: 0464/724100 ";;;;Convegno;;;;0;;;;;;http://centenario.alpecimbra.it/;"Comune di Folgaria";0;0;;
pat_2552993;2014-08-05T00:00:00+02:00;2014-07-09T01:27:10+02:00;"Escursione a Forte Dosso delle Somme";;;;;2014-08-05T00:00:00+02:00;2014-08-05T00:00:00+02:00;;;;"Forte Dosso delle Somme, , Folgaria";;"
Note: Altipiani Cimbri. Centenario 1914-18
Escursioni a forti e trincee
Ritrovo ore 9.30 parcheggio Vigili del Fuocop
Trasferimento con mezzi propri fino a Fondo Piccolo
Medio/facile, bambini + 6 accompagnati
Rientro ore 12.30
Costo  5,00, con Guest Card Trentino  3,00Iscrizioni in APT entro il giorno precedenteTelefono: 0464/724100 ";;;;"Manifestazioni ed eventi";;;;0;;;;;;http://centenario.alpecimbra.it/;"Comune di Folgaria";0;0;;
pat_2552927;2014-08-05T00:00:00+02:00;2014-07-09T01:21:39+02:00;"Concerto per il Centenario";;;;;2014-08-05T00:00:00+02:00;2014-08-05T00:00:00+02:00;;;"ore 21.00";"Forte Cherle, , Lavarone";;"
Note: Altipiani Cimbri. Centenario 1914-18
ConcertiIn una suggestiva cornice notturna, sotto una volta di stelle, concerto della Banda Musicale di Folgaria, con il Coro Stella Alpina di Lavarone e il Coro Martinella di Serrada.Telefono: 0464/724100 ";;;;Musica;;;;0;;;;;;http://centenario.alpecimbra.it/;"Comune di Lavarone";0;0;;
Montagna_di_latte_evento_4107;2014-08-03T10:00:00+02:00;2014-08-02T01:01:21+02:00;"PICCOLI ASSAGGI PER GRANDI SAPORI";;"degustazione di formaggio Vezzena e non solo ...in collaborazione con l'azienda agricola Gorga";;;2014-08-03T10:00:00+02:00;2014-08-03T12:30:00+02:00;;;"Dalle 10.00 alle 12.30";"38046 Lavarone TN, Italia";;"Caseificio degli Altipiani e del Vezzena";;;;;;;/var/comunitaalticimbri/storage/images/magnifica-comunita-degli-altipiani-cimbri/archivio/piccoli-assaggi-per-grandi-sapori4/2172878-3-ita-IT/PICCOLI-ASSAGGI-PER-GRANDI-SAPORI.jpg;0;;;;;;;"Comune di Lavarone";45.921696;11.264628;;
pat_2552988;2014-08-03T00:00:00+02:00;2014-07-09T01:37:00+02:00;"Soldati serradini al servizio del Kaiser";;;;;2014-08-03T00:00:00+02:00;2014-08-08T00:00:00+02:00;;;"Inaugurazione 3 agosto ore 18.45

ore 9.00-12.00 e 15.00-19.00";"Serrada - Casa dei Futuristi, , Folgaria";;"
Note: Altipiani Cimbri. Centenario 1914-18
MostreSoldati serradini al servizio del KaiserTelefono: 0464/724100 ";;;;Mostra;;;;0;;;;;;http://centenario.alpecimbra.it/;"Comune di Folgaria";0;0;;
pat_2552946;2014-08-03T00:00:00+02:00;2014-07-09T01:23:46+02:00;"Teleferiche dell'11ª Armata austro-ungarica, dall'Adige al Brenta (1915-18)";;;;;2014-08-03T00:00:00+02:00;2014-08-03T00:00:00+02:00;;;"ore 21.00";"Serrada - Teatro, , Folgaria";;"
Note: Altipiani Cimbri. Centenario 1914-18
Conferenze e commemorazioni
Settimana del CentenarioA cura di Antonio ZandonatiTelefono: 0464/724100 ";;;;Convegno;;;;0;;;;;;http://centenario.alpecimbra.it/;"Comune di Folgaria";0;0;;
pat_2544187;2014-08-02T00:00:00+02:00;2014-06-20T01:01:35+02:00;"Le energie del bosco e dell'acqua";;;;;2014-08-02T00:00:00+02:00;2014-08-02T00:00:00+02:00;;;;"Frazione San Sebastiano , , Folgaria";;"
Note: Vivi l'Ambiente
Percorso in natura, sabato 5 e 26 luglio, 2 agosto
Dal villaggio cimbro di Tèzzeli, dove si possono scorgere interessanti orti familiari, si raggiunge lantica segheria veneziana, che testimonia come nel corso del 900 gli abitanti dellaltipiano fossero legati alleconomica del bosco. Il percorso e la visita allo storico opificio permetteranno di osservare e parlare delle fonti di energia rinnovabili, utilizzate nel passato, confrontandole con quelle derivanti dallenergia fossile.
Destinatari: tutti
Educatore ambientale: Monica Santini T. 333 6770557
Luogo: frazione San Sebastiano (4 km da Folgaria)
Orario e ritrovo: ore 09.00 c/o il parcheggio di San Sebastiano. Termine attività ore 14.00
Info e prenotazioni: APT Folgaria, Lavarone e Luserna, ufficio di Folgaria T. 0464 724100
Collaborazioni: Magnifica Comunità degli Altipiani Cimbri, Comune di Folgaria, Azienda per il Turismo
Folgaria, Lavarone e Luserna
**
LABORATORIO TERRITORIALE DI EDUCAZIONE AMBIENTALE DELLA VALLAGARINA E ALTIPIANI CIMBRI
c/o Complesso Intercity, Viale Trento 37D
38068 Rovereto
T. 0461 499890
e-mail: LT.EdAmb.vallagarina@provincia.tn.itOrario di apertura: venerdì ore 08.00 - 12.00 (chiuso dal 10 al 17 agosto 2014)Altri organizzatori: P.A.T. Assessorato ai lavori pubblici, ambiente e ai trasporti - Agenzia provinciale per la protezione dellambiente - Rete trentina di educazione ambientale per lo sviluppo sostenibile";;;;"Manifestazioni ed eventi";;;;0;;;;;;"http://www.appa.provincia.tn.it/educazioneambientale/|P.A.T. Assessorato ai lavori pubblici, ambiente e ai trasporti - Agenzia provinciale per la protezione dellambiente - Rete trentina di educazione ambientale per lo sviluppo sostenibile";"Comune di Folgaria";0;0;;
pat_2552965;2014-08-01T00:00:00+02:00;2014-07-09T01:25:29+02:00;"La guerra va al cinema";;;;;2014-08-01T00:00:00+02:00;2014-08-01T00:00:00+02:00;;;"ore 21.00";"Cinema Teatro Dolomiti, , Lavarone";;"
Note: Altipiani Cimbri. Centenario 1914-18
Film e video
La guerra va al cinema
Ingresso libero
Proiezione dei film
Cerimonia militare
Guerra sull'Adamello
Guerra sulle Alpi
Dal Trentino al Rombon
La battaglia dall'Astico al Piave
con accompagnamento musicale di Francesca BadaliniIn collaborazione con Fondazione Cineteca Italian, presente il direttore Matteo Pavesi.Telefono: 0464/724100 ";;;;Cinema;;;;0;;;;;;http://centenario.alpecimbra.it/;"Comune di Lavarone";0;0;;
pat_2552945;2014-08-01T00:00:00+02:00;2014-07-09T01:23:26+02:00;"D'Annunzio aviatore";;;;;2014-08-01T00:00:00+02:00;2014-08-01T00:00:00+02:00;;;"ore 21.00";"Casa della Cultura, , Folgaria";;"
Note: Altipiani Cimbri. Centenario 1914-18
Conferenze e commemorazioniA cura del Gen. Basilio Di MartinoTelefono: 0464/724100 ";;;;Convegno;;;;0;;;;;;http://centenario.alpecimbra.it/;"Comune di Folgaria";0;0;;
pat_2543638;2014-08-01T00:00:00+02:00;2014-06-15T01:01:14+02:00;"#Albeinmalga: Malga Vallorsara";;;;;2014-08-01T00:00:00+02:00;2014-08-02T00:00:00+02:00;;;;"Malga Vallorsara , , Folgaria";;"
Note: #Albeinmalga
Malga Vallorsara  Vallorsara 1511 mt 1-2 Agosto 2014
 
Venerdì 1 agosto 
Paura della levataccia? Voglia di far compagnia alle nostre mucche? Per i 10 più veloci a prenotarsi, il ritrovo è il giorno prima
Ore 18.00 ritrovo presso loc. Ortesino dove lasceremo le automobili ed i pensieri e partenza verso Malga Vallorsara 
Ore 19.00 arrivo a destinazione: immersa in splendidi e rigogliosi pascoli, Malga Vallorsara risale storicamente ai primi anni del '900 ed è un simbolo della tradizione rurale folgaretana.
Ore 19.30 Tutti a tavola dove saremo deliziati da un menù ricercato che vi farà riscoprire il gusto e i sapori della tipica cucina trentina.
Ore 21.30 Sazi, ma elettrizzati dallatmosfera armati di telescopio tutti ad ammirare il cielo stellato con un esperto e poi tutti a nanna!
Sabato 2 agosto
Ore 6.00 Un po assonnati, ma ricchi di entusiasmo raduneremo le mucche al pascolo assieme alla signora Mirella e al marito Armando e inizieremo le attività dell'alba in malga con la mungitura. 
Ore 7.30 Dopo esserci destreggiati come dei veri malgari il giusto premio: una ricca colazione con formaggi di malga e salumi... tutti prodotti a km0! 
Ore 8.15 Una volta rifocillati le nostre attività proseguiranno: vi insegneremo a produrre il formaggio mettendovi alla prova nella procedura della caseificazione.
Ore 10.00 Si parte per lescursione in direzione Base Tuono a Passo Coe, per una visita guidata all'allestimento museale, dove sono conservate importanti testimonianze storiche relative alla Guerra Fredda.
Ore 12.30 Per una degna conclusione tutti a pranzo presso lOsteria Coe, dove potrete gustare un menù genuino da Christian e Dorina
Costo:
- Costo complessivo dellintero programma albe in malga è di 70 
- Per Bambini con età da 3 a 12 il costo è di 40 
- Bambini sotto i 3 anni (nel letto con i genitori) gratuiti;
Per i nostri ospiti che non possono essere presenti (Peccato!) ad entrambe le giornate, è possibile partecipare (su prenotazione) alla sola giornata di sabato. Il ritrovo è previsto alle ore 5.15 presso lOrtesino e da qui si partirà con un accompagnatore verso Malga Vallorsara che raggiungeremo in circa 45 minuti di camminata. Costo per le sole attività di albe in malga 12  a persona, gratuito per i bambini sotto i 12 anni. Per la proposta comprensiva di attività, escursione, visita a Base Tuono e pranzo allOsteria Coe il costo è di 32 .
Se volete condividere la vostra esperienza di albeinmalga prima, durante e dopo vi invitiamo ad utilizzare
Twitter - #ALBEINMALGA
Facebook - postate su www.facebook.com/visittrentino.it
 
Info e prenotazioni 
 
Apt Alpe Cimbra 
Via Roma, 67
38064 Folgaria (Tn)  Italy
Tel. 0464 724100info@alpecimbra.it";;;;"Manifestazioni ed eventi";;;;0;;;;;;http://www.visittrentino.it/albeinmalga;"Comune di Folgaria";0;0;;
pat_2553071;2014-07-31T00:00:00+02:00;2014-07-10T01:05:09+02:00;"Alla Forra del Lupo. Escursione in trincea";;;;;2014-07-31T00:00:00+02:00;2014-07-31T00:00:00+02:00;;;;"Ritrovo c/o parcheggio Vigili del Fuoco, , Folgaria";;"
Note: Altipiani Cimbri. Centenario 1914-18
Escursioni a forti e trincee
Ritrovo ore 8.30 parcheggio Vigili del Fuoco
Trasferimento con mezzi propri (5km)
Impegnativa (4,8km, disl 470m)
Rientro nel tardo pomeriggio. Pranzo al sacco o al Rifugio Baita Tonda a carico dei partecipanti
Costo  10,00, con Guest Card Trentino  8,00Iscrizioni in APT entro ore 18.00 del giorno precedenteTelefono: 0464/724100 ";;;;"Manifestazioni ed eventi";;;;0;;;;;;http://centenario.alpecimbra.it/;"Comune di Folgaria";0;0;;
pat_2544191;2014-07-31T00:00:00+02:00;2014-06-20T01:01:41+02:00;"Il sapore antico della terra: gli adattamenti vegetali ai diversi ambienti";;;;;2014-07-31T00:00:00+02:00;2014-07-31T00:00:00+02:00;;;;"Carbonare, , Folgaria";;"
Note: Vivi l'Ambiente
Percorso in natura e laboratorio didattico, giovedì 17 e 31 luglio
Le piante non finiscono mai di stupirci con la loro immensa varietà di forme, colori, dimensioni e con la straordinaria capacità di interagire con altri organismi e di adattarsi colonizzando anche gli ambienti più inospitali. Lungo un facile percorso ad anello che parte da Carbonare e si sviluppa nei pressi del Torrente Astico e della località Cùeli attraverso paesaggi diversi (bosco misto abete, latifoglie, vegetazione ambienti umidi) osserveremo e raccoglieremo elementi della vegetazione (foglie, cortecce, licheni, pigne). In seguito si procederà al loro riconoscimento con delle semplici chiavi dicotomiche.
Destinatari: dai 7 ai 10 anni
Educatore ambientale: Monica Santini T. 333 6770557
Luogo: Carbonare
Orario e ritrovo: ore 09.00 c/o il parcheggio in piazza di Carbonare. Termine attività ore 12.00
Info e prenotazioni: APT Folgaria, Lavarone e Luserna, ufficio di Folgaria T. 0464 724100
Note: portare una scatola di cartone
Collaborazioni: Magnifica Comunità degli Altipiani Cimbri, Azienda per il Turismo Folgaria, Lavarone e Luserna
**
LABORATORIO TERRITORIALE DI EDUCAZIONE AMBIENTALE DELLA VALLAGARINA E ALTIPIANI CIMBRI
c/o Complesso Intercity, Viale Trento 37D
38068 Rovereto
T. 0461 499890
e-mail: LT.EdAmb.vallagarina@provincia.tn.itOrario di apertura: venerdì ore 08.00 - 12.00 (chiuso dal 10 al 17 agosto 2014)Altri organizzatori: P.A.T. Assessorato ai lavori pubblici, ambiente e ai trasporti - Agenzia provinciale per la protezione dellambiente - Rete trentina di educazione ambientale per lo sviluppo sostenibile";;;;"Manifestazioni ed eventi";;;;0;;;;;;"http://www.appa.provincia.tn.it/educazioneambientale/|P.A.T. Assessorato ai lavori pubblici, ambiente e ai trasporti - Agenzia provinciale per la protezione dellambiente - Rete trentina di educazione ambientale per lo sviluppo sostenibile";"Comune di Folgaria";0;0;;
pat_2553070;2014-07-29T00:00:00+02:00;2014-07-10T01:05:06+02:00;"Escursione al Forte Sommo alto";;;;;2014-07-29T00:00:00+02:00;2014-07-29T00:00:00+02:00;;;;"Ritrovo c/o parcheggio Vigili del Fuoco, , Folgaria";;"
Note: Altipiani Cimbri. Centenario 1914-18
Escursioni a forti e trincee
con gli accompagnatori del territorio
Ritrovo ore 15.00 parcheggio Vigili del Fuoco
Trasferimento con mezzi propri fino al crocicchio dei Camini (9km)
Medio/Facile. Bambini + 6 accompagnati
Rientro ore 18.30
Costo  5,00, con Guest Card Trentino  3,00Iscrizioni in APT entro ore 18.00 del giorno precedenteTelefono: 0464/724100 ";;;;"Manifestazioni ed eventi";;;;0;;;;;;http://centenario.alpecimbra.it/;"Comune di Folgaria";0;0;;
pat_2552944;2014-07-29T00:00:00+02:00;2014-07-09T01:23:04+02:00;"Carlo I d'Austria e la pace sabotata";;;;;2014-07-29T00:00:00+02:00;2014-07-29T00:00:00+02:00;;;"ore 21.00";"Biblioteca Comunale, , Lavarone";;"
Note: Altipiani Cimbri. Centenario 1914-18
Conferenze e commemorazioniA cura di Mario CarotenutoTelefono: 0464/724100 ";;;;Convegno;;;;0;;;;;;http://centenario.alpecimbra.it/;"Comune di Lavarone";0;0;;
pat_2552990;2014-07-28T00:00:00+02:00;2014-07-09T01:37:44+02:00;"Testimoni del tempo";;;;;2014-07-28T00:00:00+02:00;2014-09-28T00:00:00+02:00;;;"Inaugurazione 28 luglio ore 11.00

ore 10.00-12.30 e 16.00-19.00";"Sala ex scuole elementari di Cappella, , Lavarone";;"
Note: Altipiani Cimbri. Centenario 1914-18
MostreOggetti e reperti della Collezione Osele di Forte Belvedere-GschwentTelefono: 0464/724100 ";;;;Mostra;;;;0;;;;;;http://centenario.alpecimbra.it/;"Comune di Lavarone";0;0;;
pat_2552928;2014-07-28T00:00:00+02:00;2014-07-09T01:21:59+02:00;Striaci;;;;;2014-07-28T00:00:00+02:00;2014-07-28T00:00:00+02:00;;;"ore 21.00";"Cinema Teatro Paradiso, , Folgaria";;"
Note: Altipiani Cimbri. Centenario 1914-18
Spettacoli teatrali
Spettacolo a cura dello Stavilimento Teatrale Officine PinelliIngresso liberoTelefono: 0464/724100 ";;;;Teatro;;;;0;;;;;;http://centenario.alpecimbra.it/;"Comune di Folgaria";0;0;;
Montagna_di_latte_evento_4058;2014-07-27T10:00:00+02:00;2014-07-26T01:01:21+02:00;"PICCOLI ASSAGGI PER GRANDI SAPORI";;"DEGUSTAZIONE DI FORMAGGIO VEZZENA E NON SOLO ..IN COLLABORAZIONE CON L'AZIENDA AGRICOLA DEBIASI";;;2014-07-27T10:00:00+02:00;2014-07-27T12:30:00+02:00;;;"Dalle 10.00 alle 12.30";"38046 Lavarone TN, Italia";;"Caseificio degli Altipiani e del Vezzena";;;;;;;/var/comunitaalticimbri/storage/images/magnifica-comunita-degli-altipiani-cimbri/archivio/piccoli-assaggi-per-grandi-sapori3/2159234-3-ita-IT/PICCOLI-ASSAGGI-PER-GRANDI-SAPORI.jpg;0;;;;;;;"Comune di Lavarone";45.921696;11.264628;;
pat_2541845;2014-07-27T00:00:00+02:00;2014-05-29T01:04:37+02:00;"Scampagnate in fattoria e in città";;;;;2014-07-27T00:00:00+02:00;2014-07-27T00:00:00+02:00;;;"ore 10.00-17.00";"La Fonte, Località Gruim - Mezzomonte , Folgaria";;"
Note: Scampagnate in fattoria e in città
La Fonte azienda agricola biologica e fattoria didattica
Località Gruim - Mezzomonte Folgaria
Tel. 0464.720041 - E-mail: info@la-fonte.org
www.la-fonte.org - www.facebook.com/lafontebio
Saranno presenti: Rinuccia Napoletani, Azienda agricola Profumi di Campagna, Azienda agricola Mirtilla, Azienda agricola Masserem, Maria Antonia Facchini, Azienda agricola Solerbe Farm di Pederzolli Cristina, Azienda Agricola SavinelliCostruiamo oggettini con foglie di mais, lavoriamo l'argilla, laboratorio del feltro e filatura lana, danze popolari per la pace, visita all'azienda, agli animali, all'orto sinergico, alle piante aromatiche e officinali. Spiegazione sui prodotti dell'azienda, fiori di Bach, Gemmoderivati, piante selvatiche.... Servizio cucina &quot;da leccarsi i baffi&quot;. Telefono: 0461/421214 Altri organizzatori: Confederazione Italiana Agricoltori Donne in Campo del Trentino";;;;"Manifestazioni ed eventi";;;;0;;;;;;;"Comune di Folgaria";0;0;;
pat_2540692;2014-07-27T00:00:00+02:00;2014-05-15T12:24:30+02:00;"Paolo Fresu, Daniele Di Bonaventura, Paolo Rumiz";;;;;2014-07-27T00:00:00+02:00;2014-07-27T00:00:00+02:00;;;"ore 14.00";"Forte Dosso delle Somme, Altipiani di Folgaria, Lavarone, Luserna, Folgaria";;"
Note: I Suoni delle Dolomiti
Dolomiti di pace
Paolo Fresu, Daniele Di Bonaventura, Paolo Rumiz
Alchimie per tromba e bandoneon in ricordo della Grande Guerra
Uno dei jazzisti italiani più amati in patria e allestero e uno dei migliori specialisti odierni del bandoneon dialogano sullo sfondo di delicate alchimie, di seducenti melodie che disegnano unoriginale mappa geografica. La poesia di suoni che ne scaturisce vuole essere un messaggio di pace nel momento in cui si ricorda linizio della Prima Guerra Mondiale. Il concerto, che vede lintervento del giornalista e scrittore Paolo Rumiz, è inserito nel programma nazionale delle commemorazioni del Centenario della Prima Guerra Mondiale.
Luogo: Forte Dosso delle Somme
Quota: 1.670 m
Come Arrivare
da Serrada con seggiovia Dosso Martinella e poi a piedi su sentiero 136 
ore 0.30 di cammino, dislivello 50 metri, difficoltà T
da Fondo Piccolo a piedi lungo strada forestale 
ore 0.40 di cammino, dislivello 130 metri, difficoltà T
Escursione 
con le Guide Alpine lungo la trincea Forra del Lupo - Wolfsschlucht
ore 3 di cammino, dislivello 470 metri, difficoltà E
info e prenotazione 0464 724100
Recupero
ore 17 Cinema Teatro Paradiso di Folgaria 
Info
0464 724100 
www.folgarialavaroneluserna.it
**
Uniniziativa
Trentino Turismo e Promozione
APT Folgaria, Lavarone, L userna 
Consiglio dei MinistriCentenario Prima Guerra MondialeTelefono: 0461/219300Altri organizzatori: Trentino Sviluppo spa - in collaborazione con le Apt di ambito e i Consorzi Pro Loco, oltre a numerose istituzioni locali";;;;Musica;;;;0;;;;;;"http://www.isuonidelledolomiti.it|Trentino Sviluppo spa - in collaborazione con le Apt di ambito e i Consorzi Pro Loco, oltre a numerose istituzioni locali";"Comune di Folgaria";0;0;;"Redazione Trentino Cultura"
Montagna_di_latte_evento_4057;2014-07-26T17:00:00+02:00;2014-07-25T01:01:15+02:00;"POLENTA E VEZZENA I SAPORI DI UNA VOLTA";;"DEGUSTAZIONE DI FORMAGGIO VEZZENA ACCOMPAGNATO ALLA POLENTA";;;2014-07-26T17:00:00+02:00;2014-07-26T19:30:00+02:00;;;"Dalle 17.00 alle 19.30";"38046 Lavarone TN, Italia";;"Caseificio degli Altipiani e del Vezzena";;;;;;;/var/comunitaalticimbri/storage/images/magnifica-comunita-degli-altipiani-cimbri/archivio/polenta-e-vezzena-i-sapori-di-una-volta/2159204-2-ita-IT/POLENTA-E-VEZZENA-I-SAPORI-DI-UNA-VOLTA.jpg;0;;;;;;;"Comune di Lavarone";45.921696;11.264628;;
pat_2552943;2014-07-25T00:00:00+02:00;2014-07-09T01:22:42+02:00;"Per Trento basto io!";;;;;2014-07-25T00:00:00+02:00;2014-07-25T00:00:00+02:00;;;"ore 21.00";"Casa della Cultura, , Folgaria";;"
Note: Altipiani Cimbri. Centenario 1914-18
Conferenze e commemorazioni
Per Trento basto io! 
Forte Belvedere sentinella della Val d'AsticoA cura di Christian MerziTelefono: 0464/724100 ";;;;Convegno;;;;0;;;;;;http://centenario.alpecimbra.it/;"Comune di Folgaria";0;0;;
pat_2552956;2014-07-23T00:00:00+02:00;2014-07-09T01:34:41+02:00;"Altipiani Cimbri 1914";;;;;2014-07-23T00:00:00+02:00;2014-07-23T00:00:00+02:00;;;"ore 21.00";"Serrada - Teatro, , Folgaria";;"
Note: Altipiani Cimbri. Centenario 1914-18
Film e video
Cortometraggio a cura del Piano Giovani di Zona degli Altipiani Cimbri con la collaborazione delle associazioni di volontariato del territorio
Regia di Federico MaranerIngresso liberoTelefono: 0464/724100 ";;;;Cinema;;;;0;;;;;;http://centenario.alpecimbra.it/;"Comune di Folgaria";0;0;;
pat_2552936;2014-07-22T00:00:00+02:00;2014-07-09T01:16:54+02:00;"Cent'anni fa la Guerra";;;;;2014-07-22T00:00:00+02:00;2014-07-22T00:00:00+02:00;;;"ore 21.00";"Nosellari - Centro Civico, , Folgaria";;"
Note: Altipiani Cimbri. Centenario 1914-18
Conferenze e commemorazioni
Gli Altipiani nel Grande Conflittoa cura di Fernando LarcherTelefono: 0464/724100 ";;;;Convegno;;;;0;;;;;;http://centenario.alpecimbra.it/;"Comune di Folgaria";0;0;;
Montagna_di_latte_evento_3985;2014-07-20T10:00:00+02:00;2014-07-19T01:01:19+02:00;"PICCOLI ASSAGGI PER GRANDI SAPORI";;"DEGUSTAZIONE FORMAGGIO VEZZENA E NON SOLO...IN COLLABORAZIONE CON L'AZIENDA AGRICOLA SAVINELLI";;;2014-07-20T10:00:00+02:00;2014-07-20T12:30:00+02:00;;;"Dalle 10.00 alle 12.30";"38046 Lavarone TN, Italia";;"Caseificio degli Altipiani e del Vezzena";;;;;;;/var/comunitaalticimbri/storage/images/magnifica-comunita-degli-altipiani-cimbri/archivio/piccoli-assaggi-per-grandi-sapori2/2151351-3-ita-IT/PICCOLI-ASSAGGI-PER-GRANDI-SAPORI.jpg;0;;;;;;;"Comune di Lavarone";45.921696;11.264628;;
pat_2552987;2014-07-19T00:00:00+02:00;2014-07-09T01:36:40+02:00;"Paesaggi della Grande Guerra dimenticati";;;;;2014-07-19T00:00:00+02:00;2014-09-07T00:00:00+02:00;;;"Inaugurazione 19 luglio ore 17.00

da lunedì a venerdì ore 16.00-19.00
sabato e domenica ore 10.00-12.00 e 16.00-19.00";"Maso Spilzi, , Folgaria";;"
Note: Altipiani Cimbri. Centenario 1914-18
MostreAcquarelli di Valentino ParmianiTelefono: 0464/724100 ";;;;Mostra;;;;0;;;;;;http://centenario.alpecimbra.it/;"Comune di Folgaria";0;0;;
pat_2552986;2014-07-19T00:00:00+02:00;2014-07-09T01:31:18+02:00;"Ritratti della guerra";;;;;2014-07-19T00:00:00+02:00;2014-09-07T00:00:00+02:00;;;"Inaugurazione 19 luglio ore 17.00

da lunedì a venerdì ore 16.00-19.00
sabato e domenica ore 10.00-12.00 e 16.00-19.00";"Maso Spilzi, , Folgaria";;"
Note: Altipiani Cimbri. Centenario 1914-18
Mostre
Ritratti della guerra
La rappresentazione dei conflitii nella Caricatura Europea: 1898-1918
A cura di Danilo Curti e Rodolfo TaianiOrganizza il Comune di Folgaria in collaborazione con la Fondazione Museo Storico del TrentinoTelefono: 0464/724100 ";;;;Mostra;;;;0;;;;;;http://centenario.alpecimbra.it/;"Comune di Folgaria";0;0;;
pat_2552921;2014-07-19T00:00:00+02:00;2014-07-09T01:30:58+02:00;"Concerto per il Centenario";;;;;2014-07-19T00:00:00+02:00;2014-07-19T00:00:00+02:00;;;"ore 21.00";"Forte Belvedere, , Lavarone";;"
Note: Altipiani Cimbri. Centenario 1914-18
ConcertiIn una suggestiva cornice notturna, sotto una volta di stelle, concerto della Banda Musicale di Folgaria, con il Coro Stella Alpina di Lavarone e il Coro Martinella di Serrada.Telefono: 0464/724100 ";;;;Musica;;;;0;;;;;;http://centenario.alpecimbra.it/;"Comune di Lavarone";0;0;;
pat_2552963;2014-07-18T00:00:00+02:00;2014-07-09T01:36:01+02:00;"Guglielmo Oberdan, il martire di Trieste";;;;;2014-07-18T00:00:00+02:00;2014-07-18T00:00:00+02:00;;;"ore 21.00";"Cinema Teatro Dolomiti, , Lavarone";;"
Note: Altipiani Cimbri. Centenario 1914-18
Film e video
La guerra va al cinema
Ingresso libero
In collaborazione con Fondazione Cineteca Italiana
Italia, 1915
Titolo originale: Guglielmo Oberdan, il martire di Trieste 
Genere: Documentario/Storico 
Durata: 71' 
Regia: Emilio Ghione
Guglielmo Oberdan, già esemplare figura di fervido irredentista, poi cospiratore anti austriaco giustiziato per avere attentato alla vita dell'imperatore Francesco Giuseppe nei mesi di disillusione seguiti alla morte di Garibaldi (1882), divenne, nei giorni radiosi del maggio 1915, oggetto di un vero e proprio culto civile in una causa - quella appunto della questione risorgimentale contesa con l'Austria - che si avviava ormai all'atto finale.
Il suo profilo di patriota, la sua tragica vicenda personale e l'intrecciarsi di quest'ultima con i nuovi destini a cui erano chiamate le giovani generazioni, ne facevano, all'alba della Grande Guerra, una icona quasi ineludibile anche per il cinema italiano, così sensibile, per parte sua, all'irredentismo superomistico di marca dannunziana. Ecco perchè uno dei più noti registi dell'epoca, Emilio Ghione, decise di portare sullo schermo la vita di Oberdan in questo film del 1915 che, oltre ad essere una biografia apologetica del martire triestino, è anche un evidente caso di agit prop avanti lettera.Attore in possesso di una maschera scolpita e indimenticabile, Ghione ritagliò per sè il ruolo dell'odiato governatore austriaco di Trieste, vilain irriducibile e carnefice di Oberdan. regalandoci una delle interpretazioni più suggestive di tutta la sua carriera.Telefono: 0464/724100 ";;;;Cinema;;;;0;;;;;;http://centenario.alpecimbra.it/;"Comune di Lavarone";0;0;;
pat_2492001;2014-01-06T00:00:00+01:00;2013-12-18T11:04:29+01:00;"I sogni segreti di Walter Mitty";;;;;2014-01-06T00:00:00+01:00;2014-01-06T00:00:00+01:00;;;"ore 22.00";"Cinema Teatro Paradiso, Via Cesare Battisti, 4, Folgaria";;"
Note: Usa, 2013
Titolo originale: The Secret Life of Walter Mitty
Genere: Commedia
Durata: 
Regia: Ben Stiller
Cast: Ben Stiller, Shirley MacLaine, Kristen Wiig, Sean Penn, Adam ScottWalter Mitty (Stiller) è un moderno sognatore, un comune editor fotografico di un magazine che compie regolarmente dei viaggi mentali lontano dalla sua noiosa esistenza, entrando in un mondo di fantasie caratterizzate da grande eroismo, appassionate relazioni amorose e costanti trionfi contro il pericolo. Ma quando Mitty e la sua collega, della quale è segretamente innamorato (Kristen Wiig), rischiano di perdere il lavoro, Walter è costretto a compiere l'inimmaginabile: passare veramente all'azione - partendo per un viaggio intorno al mondo più straordinario di quanto avrebbe potuto mai sognare.Telefono: 0464/720006";;;;Cinema;;;;0;;;;;;http://www.cinemateatroparadiso.com;"Comune di Folgaria";0;0;;
pat_2491999;2014-01-06T00:00:00+01:00;2013-12-18T11:04:23+01:00;"Piovono polpette 2. La rivincita degli avanzi";;;;;2014-01-06T00:00:00+01:00;2014-01-07T00:00:00+01:00;;;"6 gennaio ore 17.30
7 gennaio ore 17.30";"Cinema Teatro Paradiso, Via Cesare Battisti, 4, Folgaria";;"
Note: Usa, 2013
Titolo originale: Cloudy with a Chance of Meatballs 2
Genere: Animazione
Durata: 95'
Regia: Cody Cameron, Kris Pearn
Sito internet: piovonopolpette2.itiovono polpette 2 ricomincia proprio da dove era terminata la precedente commedia campione d'incassi della Sony Pictures Animation. La genialità dell'inventore Flint Lockwood viene finalmente riconosciuta grazie all'invito del suo idolo, Chester V, ad entrare a far parte della The Live Corp Company, che riunisce i migliori e più brillanti inventori del mondo, impegnati a creare tecnologie per il miglioramento della razza umana. Il braccio destro di Chester, oltre che una delle sue più riuscite invenzioni, è Barb, un orango altamente evoluto dotato di un cervello umano, che è anche ambiguo, manipolativo e che adora mettersi il rossetto. Essere riconosciuto come un grande inventore, è sempre stato il sogno di Flint. Tutto cambia però quando scopre che la sua invenzione più famosa (una macchina che trasforma l'acqua in cibo), è ancora operativa e che attualmente sta creando dei cibo-animali ibridi - gli &quot;Animacibi!&quot; Con il destino dell'umanità nelle sue mani, Chester si unisce a Flint ed i suoi amici in una missione delicata e pericolosa, combattendo contro famelici Tacodrilli, Orangamberi, Torte a Sonagli, Spiderburgher ed altri Animacibi, per salvare nuovamente il mondo!Telefono: 0464/720006";;;;Cinema;;;;0;;;;;;http://www.cinemateatroparadiso.com;"Comune di Folgaria";0;0;;
pat_2491997;2014-01-05T00:00:00+01:00;2013-12-18T11:04:16+01:00;"Un fantastico via vai";;;;;2014-01-05T00:00:00+01:00;2014-01-06T00:00:00+01:00;;;"5 gennaio ore 22.00
6 gennaio ore 20.00";"Cinema Teatro Paradiso, Via Cesare Battisti, 4, Folgaria";;"
Note: Italia, 2013
Titolo originale: Un fantastico via vai
Genere: Commedia
Durata: 95'
Regia: Leonardo Pieraccioni
Cast: Leonardo Pieraccioni, Serena Autieri, Maurizio Battista, Marco Marzocca, Marianna Di MartinoArnaldo, Anita e le due gemelle Martina e Federica, ecco la famiglia Nardi. Una tranquilla e normalissima famiglia medio borghese. L'uomo è in quella fase della sua vita dove la nostalgia per il periodo da studente si fa forte. Sarebbe bello poter tornare indietro. Sarebbe bello riassaporare quei momenti. Sarebbe bello anche raccontare a qualcuno che ha poco più di vent'anni che nella vita bisogna credere ai proprio sogni e non avere paura. Magari arrivando anche a rubare una caravella di Cristoforo Colombo, come ha fatto lui, e spiegare le vele al vento per poi fermarsi solo quando...rubare una caravella di Colombo? Un equivoco con la moglie e la donna lo butta fuori di casa! Questa è la sua grande occasione per una personalissima &quot;macchina del tempo&quot;. L'uomo, infatti, decide di andare momentaneamente a vivere in una casa di studenti: sono quattro, hanno tutti poco più di 20 anni e l'uomo da un giorno all'altro rivive con loro quell'età, quelle speranze, quei dubbi che &quot;purtroppo&quot; lui non sembra avere più. Due mondi a confronto, due modi di vedere il futuro, un unico obiettivo: ritrovare quella caravella rubata... se davvero c'è.Telefono: 0464/720006";;;;Cinema;;;;0;;;;;;http://www.cinemateatroparadiso.com;"Comune di Folgaria";0;0;;
pat_2491995;2014-01-05T00:00:00+01:00;2013-12-18T11:04:10+01:00;"Indovina chi viene a Natale?";;;;;2014-01-05T00:00:00+01:00;2014-01-05T00:00:00+01:00;;;"ore 18.00 - 22.00";"Cinema Teatro Paradiso, Via Cesare Battisti, 4, Folgaria";;"
Note: Italia, 2013
Titolo originale: Indovina chi viene a Natale?
Genere: Commedia
Durata: 90'
Regia: Fausto Brizzi
Cast: Claudio Bisio, Angela Finocchiaro, Claudia Gerini, Carlo Buccirosso, Diego Abatantuono, Raoul Bova, Cristiana CapotondiUna famiglia allargata, come ce ne sono tante oggigiorno, nella quale una coppia di genitori attende per le feste l'arrivo della figlia e del suo misterioso fidanzato; c'è anche un uomo che per la prima volta conosce i figli della sua compagna che faranno di tutto per cacciarlo. Poi ancora una vedova inconsolabile, un fratellastro irrisolto, una bellissima casa, la neve...Telefono: 0464/720006";;;;Cinema;;;;0;;;;;;http://www.cinemateatroparadiso.com;"Comune di Folgaria";0;0;;
pat_2491993;2014-01-04T00:00:00+01:00;2013-12-18T11:06:19+01:00;"Lo Hobbit. La desolazione di Smaug";;;;;2014-01-04T00:00:00+01:00;2014-01-04T00:00:00+01:00;;;"ore 21.50";"Cinema Teatro Paradiso, Via Cesare Battisti, 4, Folgaria";;"
Note: Usa/Nuova Zelanda, 2013
Titolo originale: The Hobbit: The Desolation of Smaug
Genere: Fantastico
Durata: 161'
Regia: Peter Jackson
Cast: Martin Freeman, Richard Armitage, Aidan Turner, Robert Kazinsky, Graham McTavishLo Hobbit: La Desolazione di Smaug è il proseguimento delle avventure del personaggio di Bilbo Baggins, in viaggio con il Mago Gandalf ed i tredici Nani, guidati da Thorin Scudodiquercia, in un'epica battaglia per la riconquista della Montagna Solitaria ed il perduto Regno dei Nani di Erebor. Dopo essere sopravvissuti all'inizio del loro viaggio inaspettato, la Compagnia continua ad andare verso Est, incontrando lungo la strada Beorn il cambia pelle ed uno sciame di ragni giganti, nella minacciosa foresta di Mirkwood. Dopo essere sfuggiti alla cattura da parte dei pericolosi Elfi della Foresta, i Nani arrivano a Lake-town e finalmente alla Montagna Solitaria, dove si troveranno ad affrontare il pericolo più grande - la creatura più terrificante di ogni altra - che non solo metterà a dura prova il loro coraggio, ma anche i limiti della loro amicizia ed il senso del viaggio stesso: il Drago Smaug.Telefono: 0464/720006";;;;Cinema;;;;0;;;;;;http://www.cinemateatroparadiso.com;"Comune di Folgaria";0;0;;
pat_2487469;2014-01-03T00:00:00+01:00;2013-11-20T09:31:33+01:00;"La leggenda del santo bevitore";;;;;2014-01-03T00:00:00+01:00;2014-01-03T00:00:00+01:00;;;"ore 17.30";"Biblioteca Comunale, , Lavarone";;"
Note: La leggenda del santo bevitore
Lo straordinario racconto di Joseph Roth cantato suonato recitato da Giacomo Anderle e Alessio kogojDolce e incantatore come lo scorrere lento dell'acqua, il celebre racconto dello scrittore austriaco Joseph Roth ci guiderà in un reading di parole, musiche e canzoni, verso un luogo in cui la notte riluce ancora di poesia.Telefono: 0461/496939Altri organizzatori: Provincia autonoma di Trento Ufficio per il Sistema Bibliotecario trentino";;;;Teatro;;;;0;;;;;;;"Comune di Lavarone";0;0;;
pat_2491987;2014-01-03T00:00:00+01:00;2013-12-18T11:05:59+01:00;"Frozen. Il regno di ghiaccio";;;;;2014-01-03T00:00:00+01:00;2014-01-05T00:00:00+01:00;;;"3 gennaio ore 16.00
4 gennaio ore 17.30 - 20.00
5 gennaio ore 16.00";"Cinema Teatro Paradiso, Via Cesare Battisti, 4, Folgaria";;"
Note: Usa, 2013
Titolo originale: Frozen
Genere: Animazione
Durata: 100'
Regia: Chris Buck, Jennifer Lee
Sito internet: www.disney.it
Ispirato alla favola di Hans-Christian Andersen, La regina delle nevi.Quando una profezia intrappola un intero regno in un inverno senza fine, Anna, una temeraria sognatrice, insieme al coraggioso uomo di montagna Kristoff e alla sua renna Sven, intraprende un viaggio epico alla ricerca della sorella Elsa, la Regina delle Nevi, per riuscire a porre fine al glaciale incantesimo. Anna e Kristoff incontreranno sul loro cammino creature fantastiche come i trolls, un buffo pupazzo di neve di nome Olaf, montagne alte come l'Everest e magia dietro ogni angolo, e combatteranno contro tutti gli elementi della natura per salvare il regno dalla distruzione.Telefono: 0464/720006";;;;Cinema;;;;0;;;;;;http://www.cinemateatroparadiso.com;"Comune di Folgaria";0;0;;
pat_2491989;2014-01-03T00:00:00+01:00;2013-12-18T11:06:06+01:00;"I sogni segreti di Walter Mitty";;;;;2014-01-03T00:00:00+01:00;2014-01-03T00:00:00+01:00;;;"ore 18.00 - 22.00";"Cinema Teatro Paradiso, Via Cesare Battisti, 4, Folgaria";;"
Note: Usa, 2013
Titolo originale: The Secret Life of Walter Mitty
Genere: Commedia
Durata: 
Regia: Ben Stiller
Cast: Ben Stiller, Shirley MacLaine, Kristen Wiig, Sean Penn, Adam ScottWalter Mitty (Stiller) è un moderno sognatore, un comune editor fotografico di un magazine che compie regolarmente dei viaggi mentali lontano dalla sua noiosa esistenza, entrando in un mondo di fantasie caratterizzate da grande eroismo, appassionate relazioni amorose e costanti trionfi contro il pericolo. Ma quando Mitty e la sua collega, della quale è segretamente innamorato (Kristen Wiig), rischiano di perdere il lavoro, Walter è costretto a compiere l'inimmaginabile: passare veramente all'azione - partendo per un viaggio intorno al mondo più straordinario di quanto avrebbe potuto mai sognare.Telefono: 0464/720006";;;;Cinema;;;;0;;;;;;http://www.cinemateatroparadiso.com;"Comune di Folgaria";0;0;;
pat_2491991;2014-01-03T00:00:00+01:00;2013-12-18T11:06:12+01:00;"Sole a catinelle";;;;;2014-01-03T00:00:00+01:00;2014-01-03T00:00:00+01:00;;;"ore 20.10";"Cinema Teatro Paradiso, Via Cesare Battisti, 4, Folgaria";;"
Note: Italia, 2013
Titolo originale: Sole a catinelle
Genere: Commedia
Durata: 91'
Regia: Gennaro Nunziante
Cast: Checco Zalone, Aurore Erguy, Orsetta De Rossi, Miriam Dalmazio, Lydia BiondiSe sarai promosso con tutti dieci papà ti regala una vacanza da sogno&quot;. È questa la promessa che Checco fa al figlio Nicolò. Fin qui tutto bene, il problema è che Checco, venditore di aspirapolvere in piena crisi sia con il fatturato che con la moglie, non può permettersi di regalare al figlio nemmeno un giorno al mare. E quando Nicolò riceve la pagella perfetta, la promessa va mantenuta. Fortuna che a Checco non manca l'ottimismo; partito con la speranza, delusa, di vendere qualche aspirapolvere ai suoi parenti in Molise, si ritrova a casa di Zoe, una ricchissima ragazza che ha un figlio proprio dell'età di Nicolò. Nasce un'amicizia tra i due bambini e Zoe &quot;adotta&quot; Checco e Nicolò e li fa entrare nel suo mondo: inviti a party esclusivi, bagni in piscine fantastiche e ancora yacht, cavalli, campi da golf, serate a Portofino. E naturalmente Checco travolgerà lo stile compassato e in fondo ipocrita di questo mondo con la sua travolgente simpatia e innocente spregiudicatezza.Telefono: 0464/720006";;;;Cinema;;;;0;;;;;;http://www.cinemateatroparadiso.com;"Comune di Folgaria";0;0;;
pat_2491983;2014-01-02T00:00:00+01:00;2013-12-18T11:05:52+01:00;"Colpi di fortuna";;;;;2014-01-02T00:00:00+01:00;2014-01-02T00:00:00+01:00;;;"ore 18.00 - 22.00";"Cinema Teatro Paradiso, Via Cesare Battisti, 4, Folgaria";;"
Note: Italia, 2013
Titolo originale: Colpi di fortuna
Genere: Commedia
Durata: 
Regia: Neri Parenti
Cast: Christian De Sica, Francesco Mandelli, Lillo, Greg, Luca Bizzarri, Paolo Kessisoglu, Barbara FolchittoGabriele Brunelli (Christian De Sica) è un imprenditore tessile di successo, ma terribilmente superstizioso e terrorizzato dai porta iella. Deve concludere un affare molto importante con la Mongolia e ha bisogno di un interprete. Gli viene indicato un giovane e bravo traduttore, Bernardo Fossa (Francesco Mandelli), che però è anche uno dei più grandi porta sfiga che la storia conosca! Felice (Lillo), ex ballerino di prima fila di Raffaella Carrà, è ora un insegnante di danza in una casa di riposo di lusso. Ha moglie e quattro figli e le difficoltà economiche non mancano, ma un giorno la fortuna fa capolino: ha ricevuto un'imprevista eredità. Eredità decisamente non ricca: qualche spicciolo e un fratello!! Walter (Greg), il fratello a sorpresa, è inoltre pieno di manie, pazzie e fissazioni assurde. Mario (Luca Bizzarri) e Piero (Paolo Kessisoglu) lavorano in una compagnia di crociere al porto di Napoli. Sono genovesi e il loro sogno è quello di avere una barca tutta loro.Telefono: 0464/720006";;;;Cinema;;;;0;;;;;;http://www.cinemateatroparadiso.com;"Comune di Folgaria";0;0;;
pat_2491985;2014-01-02T00:00:00+01:00;2013-12-18T11:02:52+01:00;"Blue Jasmine";;;;;2014-01-02T00:00:00+01:00;2014-01-02T00:00:00+01:00;;;"ore 20.00";"Cinema Teatro Paradiso, Via Cesare Battisti, 4, Folgaria";;"
Note: Usa, 2013
Titolo originale: Blue Jasmine
Genere: Commedia drammatica
Durata: 98'
Regia: Woody Allen
Cast: Alec Baldwin, Cate Blanchett, Louis C.K., Bobby Cannavale, Andrew Dice ClayDi fronte al fallimento di tutta la sua vita, compreso il suo matrimonio con un ricco uomo d'affari Hal (Alec Baldwin), Jasmine (Cate Blanchett) una donna elegante e mondana newyorchese, decide di trasferirsi nel modesto appartamento della sorella Ginger (Sally Hawkins) a San Francisco, per cercare di dare un nuovo senso alla propria vita. Jasmine arriva a San Francisco in uno stato psicologico molto fragile, la sua mente è annebbiata dall'effetto dei cocktail di farmaci antidepressivi. Sebbene sia ancora in grado di mantenere il suo portamento prettamente aristocratico, in verità lo stato emotivo di Jasmine è precario e totalmente instabile, tanto da non poter neanche essere in grado di badare a sé stessa. Mal sopporta Chili (Bobby Cannavale), il fidanzato di Ginger che considera un &quot;perdente&quot;, né il suo ex marito Augie (Andrew Dice Clay). Ginger, seppur riconoscendo, ma non comprendendo appieno l'instabilità psicologica della sorella, le suggerisce di intraprendere la carriera di arredatrice d'interni, un impiego che intuitivamente potrebbe essere alla sua altezza. Nel frattempo, Jasmine accetta malvolentieri un lavoro come receptionist in uno studio dentistico, dove attira le attenzioni indesiderate del suo capo, il dottor Flicker (Michael Stuhlbarg). Reputando giusta la considerazione fatta da sua sorella riguardo la scelta di uomini sbagliati nella sua vita, Ginger inizia a frequentare Al (Louis CK), un tecnico del suono che lei considera un gradino superiore a Chili. Jasmine invece intravede come una potenziale ancora di salvezza l'incontro con Dwight (Peter Sarsgaard), un diplomatico infatuato dalla sua bellezza, dalla sua raffinatezza e dal suo stile. Il difetto di Jasmine è che vive costantemente del giudizio degli altri per aumentare la sua autostima, rimanendo però cieca di fronte a ciò che accade intorno a lei. Telefono: 0464/720006";;;;Cinema;;;;0;;;;;;http://www.cinemateatroparadiso.com;"Comune di Folgaria";0;0;;
pat_2491981;2014-01-01T00:00:00+01:00;2013-12-18T11:05:45+01:00;"Indovina chi viene a Natale?";;;;;2014-01-01T00:00:00+01:00;2014-01-01T00:00:00+01:00;;;"ore 22.00";"Cinema Teatro Paradiso, Via Cesare Battisti, 4, Folgaria";;"
Note: Italia, 2013
Titolo originale: Indovina chi viene a Natale?
Genere: Commedia
Durata: 90'
Regia: Fausto Brizzi
Cast: Claudio Bisio, Angela Finocchiaro, Claudia Gerini, Carlo Buccirosso, Diego Abatantuono, Raoul Bova, Cristiana CapotondiUna famiglia allargata, come ce ne sono tante oggigiorno, nella quale una coppia di genitori attende per le feste l'arrivo della figlia e del suo misterioso fidanzato; c'è anche un uomo che per la prima volta conosce i figli della sua compagna che faranno di tutto per cacciarlo. Poi ancora una vedova inconsolabile, un fratellastro irrisolto, una bellissima casa, la neve...Telefono: 0464/720006";;;;Cinema;;;;0;;;;;;http://www.cinemateatroparadiso.com;"Comune di Folgaria";0;0;;
pat_2491971;2014-01-01T00:00:00+01:00;2013-12-18T11:03:29+01:00;"Frozen. Il regno di ghiaccio";;;;;2014-01-01T00:00:00+01:00;2014-01-01T00:00:00+01:00;;;"28 dicembre ore 17.30
29 dicembre ore 16.00 - 20.00
1 gennaio ore 16.00 - 20.00";"Cinema Teatro Paradiso, Via Cesare Battisti, 4, Folgaria";;"
Note: Usa, 2013
Titolo originale: Frozen
Genere: Animazione
Durata: 100'
Regia: Chris Buck, Jennifer Lee
Sito internet: www.disney.it
Ispirato alla favola di Hans-Christian Andersen, La regina delle nevi.Quando una profezia intrappola un intero regno in un inverno senza fine, Anna, una temeraria sognatrice, insieme al coraggioso uomo di montagna Kristoff e alla sua renna Sven, intraprende un viaggio epico alla ricerca della sorella Elsa, la Regina delle Nevi, per riuscire a porre fine al glaciale incantesimo. Anna e Kristoff incontreranno sul loro cammino creature fantastiche come i trolls, un buffo pupazzo di neve di nome Olaf, montagne alte come l'Everest e magia dietro ogni angolo, e combatteranno contro tutti gli elementi della natura per salvare il regno dalla distruzione.Telefono: 0464/720006";;;;Cinema;;;;0;;;;;;http://www.cinemateatroparadiso.com;"Comune di Folgaria";0;0;;
pat_2491977;2013-12-30T00:00:00+01:00;2013-12-18T11:06:31+01:00;"I sogni segreti di Walter Mitty";;;;;2013-12-30T00:00:00+01:00;2013-12-30T00:00:00+01:00;;;"30 dicembre ore 18.00 - 22.00";"Cinema Teatro Paradiso, Via Cesare Battisti, 4, Folgaria";;"
Note: Usa, 2013
Titolo originale: The Secret Life of Walter Mitty
Genere: Commedia
Durata: 
Regia: Ben Stiller
Cast: Ben Stiller, Shirley MacLaine, Kristen Wiig, Sean Penn, Adam ScottWalter Mitty (Stiller) è un moderno sognatore, un comune editor fotografico di un magazine che compie regolarmente dei viaggi mentali lontano dalla sua noiosa esistenza, entrando in un mondo di fantasie caratterizzate da grande eroismo, appassionate relazioni amorose e costanti trionfi contro il pericolo. Ma quando Mitty e la sua collega, della quale è segretamente innamorato (Kristen Wiig), rischiano di perdere il lavoro, Walter è costretto a compiere l'inimmaginabile: passare veramente all'azione - partendo per un viaggio intorno al mondo più straordinario di quanto avrebbe potuto mai sognare.Telefono: 0464/720006";;;;Cinema;;;;0;;;;;;http://www.cinemateatroparadiso.com;"Comune di Folgaria";0;0;;
pat_2491969;2013-12-28T00:00:00+01:00;2013-12-18T11:03:23+01:00;"Sole a catinelle";;;;;2013-12-28T00:00:00+01:00;2013-12-28T00:00:00+01:00;;;"ore 20.00";"Cinema Teatro Paradiso, Via Cesare Battisti, 4, Folgaria";;"
Note: Italia, 2013
Titolo originale: Sole a catinelle
Genere: Commedia
Durata: 91'
Regia: Gennaro Nunziante
Cast: Checco Zalone, Aurore Erguy, Orsetta De Rossi, Miriam Dalmazio, Lydia BiondiSe sarai promosso con tutti dieci papà ti regala una vacanza da sogno&quot;. È questa la promessa che Checco fa al figlio Nicolò. Fin qui tutto bene, il problema è che Checco, venditore di aspirapolvere in piena crisi sia con il fatturato che con la moglie, non può permettersi di regalare al figlio nemmeno un giorno al mare. E quando Nicolò riceve la pagella perfetta, la promessa va mantenuta. Fortuna che a Checco non manca l'ottimismo; partito con la speranza, delusa, di vendere qualche aspirapolvere ai suoi parenti in Molise, si ritrova a casa di Zoe, una ricchissima ragazza che ha un figlio proprio dell'età di Nicolò. Nasce un'amicizia tra i due bambini e Zoe &quot;adotta&quot; Checco e Nicolò e li fa entrare nel suo mondo: inviti a party esclusivi, bagni in piscine fantastiche e ancora yacht, cavalli, campi da golf, serate a Portofino. E naturalmente Checco travolgerà lo stile compassato e in fondo ipocrita di questo mondo con la sua travolgente simpatia e innocente spregiudicatezza.Telefono: 0464/720006";;;;Cinema;;;;0;;;;;;http://www.cinemateatroparadiso.com;"Comune di Folgaria";0;0;;
pat_2491967;2013-12-27T00:00:00+01:00;2013-12-18T11:05:32+01:00;"Colpi di fortuna";;;;;2013-12-27T00:00:00+01:00;2013-12-27T00:00:00+01:00;;;"ore 21.00";"Cinema Teatro Paradiso, Via Cesare Battisti, 4, Folgaria";;"
Note: Italia, 2013
Titolo originale: Colpi di fortuna
Genere: Commedia
Durata: 
Regia: Neri Parenti
Cast: Christian De Sica, Francesco Mandelli, Lillo, Greg, Luca Bizzarri, Paolo Kessisoglu, Barbara FolchittoGabriele Brunelli (Christian De Sica) è un imprenditore tessile di successo, ma terribilmente superstizioso e terrorizzato dai porta iella. Deve concludere un affare molto importante con la Mongolia e ha bisogno di un interprete. Gli viene indicato un giovane e bravo traduttore, Bernardo Fossa (Francesco Mandelli), che però è anche uno dei più grandi porta sfiga che la storia conosca! Felice (Lillo), ex ballerino di prima fila di Raffaella Carrà, è ora un insegnante di danza in una casa di riposo di lusso. Ha moglie e quattro figli e le difficoltà economiche non mancano, ma un giorno la fortuna fa capolino: ha ricevuto un'imprevista eredità. Eredità decisamente non ricca: qualche spicciolo e un fratello!! Walter (Greg), il fratello a sorpresa, è inoltre pieno di manie, pazzie e fissazioni assurde. Mario (Luca Bizzarri) e Piero (Paolo Kessisoglu) lavorano in una compagnia di crociere al porto di Napoli. Sono genovesi e il loro sogno è quello di avere una barca tutta loro.Telefono: 0464/720006";;;;Cinema;;;;0;;;;;;http://www.cinemateatroparadiso.com;"Comune di Folgaria";0;0;;
pat_2491965;2013-12-27T00:00:00+01:00;2013-12-18T11:05:26+01:00;"Lo Hobbit. La desolazione di Smaug";;;;;2013-12-27T00:00:00+01:00;2013-12-28T00:00:00+01:00;;;"27 dicembre ore 18.00
28 dicembre ore 21.50";"Cinema Teatro Paradiso, Via Cesare Battisti, 4, Folgaria";;"
Note: Usa/Nuova Zelanda, 2013
Titolo originale: The Hobbit: The Desolation of Smaug
Genere: Fantastico
Durata: 161'
Regia: Peter Jackson
Cast: Martin Freeman, Richard Armitage, Aidan Turner, Robert Kazinsky, Graham McTavishLo Hobbit: La Desolazione di Smaug è il proseguimento delle avventure del personaggio di Bilbo Baggins, in viaggio con il Mago Gandalf ed i tredici Nani, guidati da Thorin Scudodiquercia, in un'epica battaglia per la riconquista della Montagna Solitaria ed il perduto Regno dei Nani di Erebor. Dopo essere sopravvissuti all'inizio del loro viaggio inaspettato, la Compagnia continua ad andare verso Est, incontrando lungo la strada Beorn il cambia pelle ed uno sciame di ragni giganti, nella minacciosa foresta di Mirkwood. Dopo essere sfuggiti alla cattura da parte dei pericolosi Elfi della Foresta, i Nani arrivano a Lake-town e finalmente alla Montagna Solitaria, dove si troveranno ad affrontare il pericolo più grande - la creatura più terrificante di ogni altra - che non solo metterà a dura prova il loro coraggio, ma anche i limiti della loro amicizia ed il senso del viaggio stesso: il Drago Smaug.Telefono: 0464/720006";;;;Cinema;;;;0;;;;;;http://www.cinemateatroparadiso.com;"Comune di Folgaria";0;0;;
pat_2491963;2013-12-26T00:00:00+01:00;2013-12-18T11:02:46+01:00;"Piovono polpette 2. La rivincita degli avanzi";;;;;2013-12-26T00:00:00+01:00;2013-12-27T00:00:00+01:00;;;"26 dicembre ore 16.00 - 20.00
27 dicembre ore 18.00";"Cinema Teatro Paradiso, Via Cesare Battisti, 4, Folgaria";;"
Note: Usa, 2013
Titolo originale: Cloudy with a Chance of Meatballs 2
Genere: Animazione
Durata: 95'
Regia: Cody Cameron, Kris Pearn
Sito internet: piovonopolpette2.itiovono polpette 2 ricomincia proprio da dove era terminata la precedente commedia campione d'incassi della Sony Pictures Animation. La genialità dell'inventore Flint Lockwood viene finalmente riconosciuta grazie all'invito del suo idolo, Chester V, ad entrare a far parte della The Live Corp Company, che riunisce i migliori e più brillanti inventori del mondo, impegnati a creare tecnologie per il miglioramento della razza umana. Il braccio destro di Chester, oltre che una delle sue più riuscite invenzioni, è Barb, un orango altamente evoluto dotato di un cervello umano, che è anche ambiguo, manipolativo e che adora mettersi il rossetto. Essere riconosciuto come un grande inventore, è sempre stato il sogno di Flint. Tutto cambia però quando scopre che la sua invenzione più famosa (una macchina che trasforma l'acqua in cibo), è ancora operativa e che attualmente sta creando dei cibo-animali ibridi - gli &quot;Animacibi!&quot; Con il destino dell'umanità nelle sue mani, Chester si unisce a Flint ed i suoi amici in una missione delicata e pericolosa, combattendo contro famelici Tacodrilli, Orangamberi, Torte a Sonagli, Spiderburgher ed altri Animacibi, per salvare nuovamente il mondo!Telefono: 0464/720006";;;;Cinema;;;;0;;;;;;http://www.cinemateatroparadiso.com;"Comune di Folgaria";0;0;;
pat_2491961;2013-12-25T00:00:00+01:00;2013-12-18T11:02:39+01:00;"Blue Jasmine";;;;;2013-12-25T00:00:00+01:00;2013-12-25T00:00:00+01:00;;;"ore 22.00";"Cinema Teatro Paradiso, Via Cesare Battisti, 4, Folgaria";;"
Note: Usa, 2013
Titolo originale: Blue Jasmine
Genere: Commedia drammatica
Durata: 98'
Regia: Woody Allen
Cast: Alec Baldwin, Cate Blanchett, Louis C.K., Bobby Cannavale, Andrew Dice ClayDi fronte al fallimento di tutta la sua vita, compreso il suo matrimonio con un ricco uomo d'affari Hal (Alec Baldwin), Jasmine (Cate Blanchett) una donna elegante e mondana newyorchese, decide di trasferirsi nel modesto appartamento della sorella Ginger (Sally Hawkins) a San Francisco, per cercare di dare un nuovo senso alla propria vita. Jasmine arriva a San Francisco in uno stato psicologico molto fragile, la sua mente è annebbiata dall'effetto dei cocktail di farmaci antidepressivi. Sebbene sia ancora in grado di mantenere il suo portamento prettamente aristocratico, in verità lo stato emotivo di Jasmine è precario e totalmente instabile, tanto da non poter neanche essere in grado di badare a sé stessa. Mal sopporta Chili (Bobby Cannavale), il fidanzato di Ginger che considera un &quot;perdente&quot;, né il suo ex marito Augie (Andrew Dice Clay). Ginger, seppur riconoscendo, ma non comprendendo appieno l'instabilità psicologica della sorella, le suggerisce di intraprendere la carriera di arredatrice d'interni, un impiego che intuitivamente potrebbe essere alla sua altezza. Nel frattempo, Jasmine accetta malvolentieri un lavoro come receptionist in uno studio dentistico, dove attira le attenzioni indesiderate del suo capo, il dottor Flicker (Michael Stuhlbarg). Reputando giusta la considerazione fatta da sua sorella riguardo la scelta di uomini sbagliati nella sua vita, Ginger inizia a frequentare Al (Louis CK), un tecnico del suono che lei considera un gradino superiore a Chili. Jasmine invece intravede come una potenziale ancora di salvezza l'incontro con Dwight (Peter Sarsgaard), un diplomatico infatuato dalla sua bellezza, dalla sua raffinatezza e dal suo stile. Il difetto di Jasmine è che vive costantemente del giudizio degli altri per aumentare la sua autostima, rimanendo però cieca di fronte a ciò che accade intorno a lei. Telefono: 0464/720006";;;;Cinema;;;;0;;;;;;http://www.cinemateatroparadiso.com;"Comune di Folgaria";0;0;;
pat_2491951;2013-12-22T00:00:00+01:00;2013-12-18T11:04:51+01:00;"Un fantastico via vai";;;;;2013-12-22T00:00:00+01:00;2013-12-22T00:00:00+01:00;;;"ore 20.00";"Cinema Teatro Paradiso, Via Cesare Battisti, 4, Folgaria";;"
Note: Italia, 2013
Titolo originale: Un fantastico via vai
Genere: Commedia
Durata: 95'
Regia: Leonardo Pieraccioni
Cast: Leonardo Pieraccioni, Serena Autieri, Maurizio Battista, Marco Marzocca, Marianna Di MartinoArnaldo, Anita e le due gemelle Martina e Federica, ecco la famiglia Nardi. Una tranquilla e normalissima famiglia medio borghese. L'uomo è in quella fase della sua vita dove la nostalgia per il periodo da studente si fa forte. Sarebbe bello poter tornare indietro. Sarebbe bello riassaporare quei momenti. Sarebbe bello anche raccontare a qualcuno che ha poco più di vent'anni che nella vita bisogna credere ai proprio sogni e non avere paura. Magari arrivando anche a rubare una caravella di Cristoforo Colombo, come ha fatto lui, e spiegare le vele al vento per poi fermarsi solo quando...rubare una caravella di Colombo? Un equivoco con la moglie e la donna lo butta fuori di casa! Questa è la sua grande occasione per una personalissima &quot;macchina del tempo&quot;. L'uomo, infatti, decide di andare momentaneamente a vivere in una casa di studenti: sono quattro, hanno tutti poco più di 20 anni e l'uomo da un giorno all'altro rivive con loro quell'età, quelle speranze, quei dubbi che &quot;purtroppo&quot; lui non sembra avere più. Due mondi a confronto, due modi di vedere il futuro, un unico obiettivo: ritrovare quella caravella rubata... se davvero c'è.Telefono: 0464/720006";;;;Cinema;;;;0;;;;;;http://www.cinemateatroparadiso.com;"Comune di Folgaria";0;0;;
pat_2491949;2013-12-22T00:00:00+01:00;2013-12-18T11:03:58+01:00;"Frozen. Il regno di ghiaccio";;;;;2013-12-22T00:00:00+01:00;2013-12-25T00:00:00+01:00;;;"ore 17.30";"Cinema Teatro Paradiso, Via Cesare Battisti, 4, Folgaria";;"
Note: Usa, 2013
Titolo originale: Frozen
Genere: Animazione
Durata: 100'
Regia: Chris Buck, Jennifer Lee
Sito internet: www.disney.it
Ispirato alla favola di Hans-Christian Andersen, La regina delle nevi.Quando una profezia intrappola un intero regno in un inverno senza fine, Anna, una temeraria sognatrice, insieme al coraggioso uomo di montagna Kristoff e alla sua renna Sven, intraprende un viaggio epico alla ricerca della sorella Elsa, la Regina delle Nevi, per riuscire a porre fine al glaciale incantesimo. Anna e Kristoff incontreranno sul loro cammino creature fantastiche come i trolls, un buffo pupazzo di neve di nome Olaf, montagne alte come l'Everest e magia dietro ogni angolo, e combatteranno contro tutti gli elementi della natura per salvare il regno dalla distruzione.Telefono: 0464/720006";;;;Cinema;;;;0;;;;;;http://www.cinemateatroparadiso.com;"Comune di Folgaria";0;0;;
pat_2491449;2013-12-15T00:00:00+01:00;2013-12-13T11:05:37+01:00;"Cattivissimo me 2";;;;;2013-12-15T00:00:00+01:00;2013-12-15T00:00:00+01:00;;;"ore 17.30";"Cinema Teatro Paradiso, Via Cesare Battisti, 4, Folgaria";;"
Note: Usa, 2013
Titolo originale: Despicable Me 2
Genere: Animazione
Durata: 98'
Regia: Pierre Coffin, Chris Renaud
Sito internet: www.cattivissimome2.itSequel del primo fortunato episodio prodotto dalla Illumination Entertainment di Chris Meledandri, che ha incassato più di 500 milioni di dollari in tutto il mondo. Gru e le sue tre bambine saranno coinvolti in una vicenda mozzafiato ricca di nuovi personaggi, di diabolici piani e dei sempre fedelissimi Minion. Gru viene assoldato da una squadra di super spie per aiutarla a sconfiggere una nuova minaccia, Eduardo meglio conosciuto come El Macho. Questo genio del male spagnolo ha intenzione di rapire i minion per trasformarli in terribili macchine da guerra viola per dominare il mondo.Telefono: 0464/720006";;;;Cinema;;;;0;;;;;;http://www.cinemateatroparadiso.com;"Comune di Folgaria";0;0;;
pat_2491445;2013-12-15T00:00:00+01:00;2013-12-13T11:05:21+01:00;"Sole a catinelle";;;;;2013-12-15T00:00:00+01:00;2013-12-15T00:00:00+01:00;;;"venerdì ore 17.30
domenica ore 21.00";"Cinema Teatro Paradiso, Via Cesare Battisti, 4, Folgaria";;"
Note: Italia, 2013
Titolo originale: Sole a catinelle
Genere: Commedia
Durata: 91'
Regia: Gennaro Nunziante
Cast: Checco Zalone, Aurore Erguy, Orsetta De Rossi, Miriam Dalmazio, Lydia BiondiSe sarai promosso con tutti dieci papà ti regala una vacanza da sogno&quot;. È questa la promessa che Checco fa al figlio Nicolò. Fin qui tutto bene, il problema è che Checco, venditore di aspirapolvere in piena crisi sia con il fatturato che con la moglie, non può permettersi di regalare al figlio nemmeno un giorno al mare. E quando Nicolò riceve la pagella perfetta, la promessa va mantenuta. Fortuna che a Checco non manca l'ottimismo; partito con la speranza, delusa, di vendere qualche aspirapolvere ai suoi parenti in Molise, si ritrova a casa di Zoe, una ricchissima ragazza che ha un figlio proprio dell'età di Nicolò. Nasce un'amicizia tra i due bambini e Zoe &quot;adotta&quot; Checco e Nicolò e li fa entrare nel suo mondo: inviti a party esclusivi, bagni in piscine fantastiche e ancora yacht, cavalli, campi da golf, serate a Portofino. E naturalmente Checco travolgerà lo stile compassato e in fondo ipocrita di questo mondo con la sua travolgente simpatia e innocente spregiudicatezza.Telefono: 0464/720006";;;;Cinema;;;;0;;;;;;http://www.cinemateatroparadiso.com;"Comune di Folgaria";0;0;;
pat_2489206;2013-12-14T00:00:00+01:00;2013-11-20T09:57:20+01:00;"Pù busie che poesie";;;;;2013-12-14T00:00:00+01:00;2013-12-14T00:00:00+01:00;;;"ore 21.00";"Cinema Teatro Paradiso, , Folgaria";;"
Note: Rassegna d'autunno
Filodrammatica &quot;I Dialettanti&quot; di Rovereto 
Pù busie che poesie
spettacolo brillante di e con Loredana Cont
«Se la ragione è il sale della vita, la poesia è lo zucchero», dice Loredana Cont nel suo ultimo lavoro Pù busie che poesie, un monologo brillante in cui, rispolverando la memoria scolastica, parla di poeti e di poesie, di donne e di busie, ma anche della vita di tutti i giorni che è spunto di divertita riflessione. Il tutto è, come sempre, condito da una buona dose di ironia e umorismo perché, come dice la Cont, lumorismo è lunica via di fuga dalla realtà che abbiamo. E di questi tempi ce nè proprio bisogno Loredana Cont, autrice e interprete dei suoi monologhi ma anche di testi teatrali tradotti nei vari dialetti regionali, è interprete convinta del dialetto trentino che ritiene essere un valore aggiunto da salvaguardare e non certamente un limite. Telefono: 0464/720006";;;;Teatro;;;;0;;;;;;http://www.cinemateatroparadiso.com;"Comune di Folgaria";0;0;;
20ecbec818d6a80da7d2a6009dc24ac9;2013-12-07T16:00:00+01:00;2013-11-19T11:08:30+01:00;"Prima edizione dell'usato bimbi: attrezzature, abbigliamento, giocattoli, puericultura!";"Family & baby bazar- Usato bimbi!";;"Nel pomeriggio di venerdì 6 dicembre VIENI e PORTA tutte le cose che i bimbi non utilizzano più! Sabato 7 e domenica 8 pomeriggio VIENI e PRENDI quello che potrebbe tornarti utile! Sabato 7 dicembre troverai anche un banchetto con oggetti creati dalle mamme dei bambini frequentanti “Il paese di Oz – centro abilitativo per l’età evolutiva – Anffas di Trento”. Il ricavato della vendita verrà interamente devoluto all’associazione.";;2013-12-07T16:00:00+01:00;2013-12-08T21:00:00+01:00;;"weekend 7 e 8 dicembre!";"Dalle 16.00 alle 21.00";"c/o sala seggio del Comune di Lavarone";interno;"L’iniziativa è promossa nell’ambito di Ri-troviamoci in famiglia e Distretto Famiglia degli Altipiani Cimbri!Per ogni informazione:     segreteria della Comunità 0464/784170                  Katia Leoni 347/4566456";"Tutta la popolazione interessata è invitata a partecipare!";"entrata libera";;;;;/var/comunitaalticimbri/storage/images/magnifica-comunita-degli-altipiani-cimbri/il-territorio/appuntamenti/family-baby-bazar-usato-bimbi/1733164-1-ita-IT/Family-baby-bazar-Usato-bimbi.jpg;0;;;;;;http://www.altipianicimbri.tn.it/Servizi-offerti/Distretto-Famiglia-Degli-Altipiani-Cimbri;;0;0;;
pat_2489205;2013-11-30T00:00:00+01:00;2013-11-20T09:53:56+01:00;"Dolori, dolori, dolori!";;;;;2013-11-30T00:00:00+01:00;2013-12-01T00:00:00+01:00;;;"ore 21.00";"Cinema Teatro Paradiso, , Folgaria";;"
Note: Rassegna d'autunno
Compagnia La Zinzola di Folgaria
Dolori, dolori, dolori! 
di Gabriele Bernardi
Due sorelle nubili, Amabile e Teresa, soffrono di tutti i mali del mondo. Il fratello Pio le prende in giro per questa loro ipocondria.
La scena si apre in casa delle due sorelle. Amabile è appena tornata da un funerale e svela alla sorella e all'amica Livia la sua paura dei becchini. Teresa invece, da tempo segretamente innamorata del medico-farmacista, si vergogna a dichiararsi.
Improvvisamente ad Amabile arriva un biglietto d'amore da parte di un ammiratore segreto che vuole mantenersi anonimo. Oltre al biglietto, Amabile riceverà anche un mazzo di fiori. Tramite il sagrestano, Pio scopre che l'ammiratore altri non è che uno dei becchini tanto odiati dalla sorella!
Dopo aver fatto sapere che l'indomani sarebbe giunto in casa di Amabile, il becchino innamorato si presenta in anticipo e ne nasce l'equivoco. Teresa, convinta che si tratti di un falegname amico del fratello, discute con lui i dettagli di un baule di legno per la propria dote, ignara di aver parlato con il titolare della ditta delle pompe funebri.
Quando la &quot;cassa&quot; ordinata comparirà in scena ne nascerà un trambusto esilarante.Alla fine, nonostante la professione imbarazzante, Amabile sposerà Arcangelo Fossa il becchino e Teresa sposerà Antonio, il medico. E con l'amore svaniranno tutti i dolori dolori dolori!Telefono: 0464/720006";;;;Teatro;;;;0;;;;;;http://www.cinemateatroparadiso.com;"Comune di Folgaria";0;0;;
pat_2489203;2013-11-23T00:00:00+01:00;2013-11-20T09:53:45+01:00;"Sal e pever";;;;;2013-11-23T00:00:00+01:00;2013-11-23T00:00:00+01:00;;;"ore 21.00";"Cinema Teatro Paradiso, , Folgaria";;"
Note: Rassegna d'autunno
Associazione Teatrale &quot;Dolomiti&quot; di San Lorenzo in Banale 
Sal e pever
di Alfredo Pitteri
Personaggi Interpreti 
Irene Miriam Aldrighetti
Gervasio (marito di Irene) Angelo Pozza
Maria Cornelia Baldessari
Marcello (marito di Maria) Alfredo Sansoni
Giuliana Ida Orlandi
Giulio Giorgio Zappacosta
Gigiota Agnese Tomasi
Don Gaudenzio Alessandro Ragnica
Assistente di scena Lorenza Giuliani
Tecnico audio e luci Sandro Rigotti, Michele Bosetti, Paolo Chinetti
Tecnico di palco Antonio Rigotti, Roberto Sottovia
Regia Bruno VanzoLa commedia è ambientata negli anni '90. Due donne tutte casa e chiesa e i loro mariti, la cui unica passione è cedere alle tentazioni. &quot;Tra moglie e marito non mettere il dito&quot;, ma cosa succederà se ci si mette una provocante cameriera? Condimento di risate garantito.Telefono: 0464/720006";;;;Teatro;;;;0;;;;;;http://www.cinemateatroparadiso.com;"Comune di Folgaria";0;0;;
7905e786ce241173f396c370a6f3d502;2013-11-14T20:30:00+01:00;2013-11-04T16:11:05+01:00;"Il gioco d'azzardo!";"Il gioco d'azzardo, quale confine tra divertimento, problematicità e dipendenza!";"Serata pubblica di riflessione sul gioco d'azzardo rientrante nel programma di lavoro, anno 2013, del Distretto Famiglia degli Altipiani Cimbri.";"Programma:-Saluti delle Istituzioni: Michael Rech, Presidente della Comunità, Maria Pace, Assessore alle Politiche Sociali della Comunità
-Introduzione: dott. Andrea Bortot, direttore A.p.D.p. – Onlus-Relazione: dott.ssa Marialuisa Grech, psichiatra del Ser.D. di TrentoDibattito";"http://www.altipianicimbri.tn.it/content/download/94130/1728994/1/locandina IL GIOCO D'AZZARDO.pdf";2013-11-14T20:30:00+01:00;2013-11-14T23:50:00+01:00;;"Giovedì 14 novembre 2013!";"Alle ore 20.30!";"c/o la sede della Comunità.";interno;"Per informazioni: A.p.D.p. Onlus telefono: 380.2668817 posta elettronica: apdp@email.it";"A tutti coloro che sono interessati!";"Entrata libera!";;;;;/var/comunitaalticimbri/storage/images/magnifica-comunita-degli-altipiani-cimbri/il-territorio/appuntamenti/il-gioco-d-azzardo-quale-confine-tra-divertimento-problematicita-e-dipendenza/1729009-1-ita-IT/Il-gioco-d-azzardo-quale-confine-tra-divertimento-problematicita-e-dipendenza.jpg;0;;;;;;;;0;0;;
pat_2489199;2013-11-09T00:00:00+01:00;2013-12-11T16:25:22+01:00;"Rassegna d'autunno - Filoframmatica!";;"La Filodrammatica vi aspetta!";"Tutti gli appuntamenti con la Filodrammatica, per la rassegna inverno e autunno!";;2013-11-09T00:00:00+01:00;2013-12-14T00:00:00+01:00;;;"ore 21.00";"Cinema Teatro Paradiso, , Folgaria";interno;"
Note: 9 novembre
Filodrammatica S. Floriano di Lavarone
Le maestre passere
di Maria Filippini Lazzeri
16 novembre
Gruppo Amici del teatro di Serravalle
El process
di Roberto Caprara
23 novembre
Filodrammatica Dolomiti di San Lorenzo in Banale
Sal e pever
di Andrea Pitteri
30 novembre e 1 dicembre
Compagnia La Zinzola di Folgaria
Dolori dolori dolori
di Gabriele Bernardi
14 dicembre
Loredana cont
Pù busie che poesiedi Loredana ContTelefono: 0464/720006Abbonamenti: Abbonamento rassegna  16,00";;;;Teatro;;;/var/comunitaalticimbri/storage/images/magnifica-comunita-degli-altipiani-cimbri/i-comuni/comune-di-folgaria/rassegna-d-autunno-filoframmatica/1740399-2-ita-IT/Rassegna-d-autunno-Filoframmatica.jpg;0;;;;;;http://www.cinemateatroparadiso.com;"Comune di Folgaria";0;0;;
pat_2482941;2013-09-18T00:00:00+02:00;2013-08-31T11:14:54+02:00;"Chor und Orchester des Musischen Gymnasiums Salzburg ";;;;;2013-09-18T00:00:00+02:00;2013-09-18T00:00:00+02:00;;;"ore 20.00";"Chiesa Parrocchiale, , Folgaria";;"
Note: Settimana mozartiana
Chor und Orchester des Musischen Gymnasiums Salzburg 
Direttore, Markus Obereder 
Gerhild Zeilner, soprano
Katrin Heles, contralto
Martin Kiener, tenore
Thomas Schneider, basso
REQUIEM KV 626 di MozartProva generale a porte aperteTelefono: 0464/422719 (Associazione Mozart Italia)Fax: 0464/438282 (Associazione Mozart Italia)Altri organizzatori: Associazione Mozart Italia";;;;"Musica classica";;;;0;;;;;;"http://www.mozartitalia.org|Associazione Mozart Italia";"Comune di Folgaria";0;0;;
pat_2483771;2013-09-11T11:09:23+02:00;2013-09-19T11:07:54+02:00;"Desmontegada Cimbra";;;;;2013-09-21T00:00:00+02:00;2013-09-21T00:00:00+02:00;;;;"Luserna, , Luserna";;"Note: La tradizionale 'desmontegada', cioè si riporteranno le vacche dalle malghe alle stalle del paese... un'emozione da non perdere!Telefono: 0464/789638";;;;"Manifestazioni ed eventi";;;;0;;;;;;http://www.lusern.it;"Comune di Luserna";0;0;;"Redazione Trentino Cultura"
Montagna_di_latte_evento_2990;2013-09-06T10:00:00+02:00;2013-09-05T11:08:21+02:00;"SAPORI DI MALGA DA FABIO";;"SAPORI DI MALGA. Alla scoperta della lavorazione del formaggio col malgaro Fabio. Malga Piovenetta di Passo Coe - Folgaria";;;2013-09-06T10:00:00+02:00;2013-09-06T12:00:00+02:00;;;"Dalle 10:00 alle 12:00";"Passo Coe Folgaria";;"Casearia Monti Trentini";;;;;;;/var/comunitaalticimbri/storage/images/magnifica-comunita-degli-altipiani-cimbri/i-comuni/comune-di-folgaria/sapori-di-malga-da-fabio/1466554-22-ita-IT/SAPORI-DI-MALGA-DA-FABIO.jpg;0;;;;;;;"Comune di Folgaria";45.875999;11.218027;;
pat_2482716;2013-08-28T00:00:00+02:00;2013-09-06T10:07:08+02:00;"Mostra di Pittura";;;;;2013-08-28T00:00:00+02:00;2013-09-06T00:00:00+02:00;;;"Orari di apertura: 10-12  e  16-19
Inaugurazione sabato 31 agosto ore 11.00";"Sala Incontri, , Folgaria";;"Note: Espongono Franco Principe, Gianfranco Zamboni e Maria Grazia Montresor.Telefono: 0464/721673";;;;Mostra;;;;0;;;;;;http://www.comune.folgaria.tn.it;"Comune di Folgaria";0;0;;"Redazione Trentino Cultura"
pat_2480017;2013-07-21T00:00:00+02:00;2013-09-08T11:03:53+02:00;"Alla vigilia del Centenario";;;;;2013-07-21T00:00:00+02:00;2013-09-08T00:00:00+02:00;;;"lunedì-venerdì 16-19
sabato-domenica 10-12 e 16-19
dal 9 settembre al 31 ottobre 2013 aperto per gruppi e scolaresche su richiesta";"Maso Spilzi, , Folgaria";;"
Note: Alla vigilia del Centenario. 
Segni di guerra. Folgaria Lavarone Luserna 1914-1918
La Prima guerra mondiale, che quasi centanni fa sconvolse lEuropa, lasciò segni indelebili sul territorio, nelle persone e nella memoria di Folgaria, Lavarone e Luserna. Ancora oggi tracce evidenti ricordano quel drammatico evento: forti, cimiteri militari, strade e trincee.
Questa mostra offre uno sguardo sulle trasformazioni che interessarono gli Altipiani prima, durante e dopo la Grande Guerra. 
Il percorso si apre con il periodo che precede la costruzione dei sette forti degli Altipiani. Gli anni della guerra sono documentati attraverso fotografie che raffigurano operazioni militari, la vita quotidiana dei soldati, teleferiche, ospedali e cimiteri, paesi distrutti, popolazioni evacuate e i campi profughi. 
Il dopoguerra è raccontato attraverso le immagini del ritorno e della difficile ricostruzione. 
Il percorso si conclude con un suggestivo riferimento al presente. Alcune fotografie mostrano i segni di guerra ancora vivi sul territorio, in alcuni casi valorizzati e resi fruibili per preservare il ricordo e la memoria.
Per informazioni:
Comune di Folgaria
via Roma 60 - Folgaria
0464 729318
www.comune.folgaria.tn.it
In collaborazione con
Museo Storico Italiano della Guerra
Provincia autonoma di TrentoAPT Folgaria Lavarone Luserna";;;;Mostra;;;;0;;;;;;http://www.trentinograndeguerra.it;"Comune di Folgaria";45.915712;11.171807;;
pat_2478886;2013-07-13T00:00:00+02:00;2013-07-31T11:30:05+02:00;"La storia disegnata";;;;;2013-07-13T00:00:00+02:00;2013-09-28T00:00:00+02:00;;;"Da lunedì a sabato ore 10.00-12.00 e 15.00-19.00";"Biblioteca Comunale Sigmund Freud, , Lavarone";;"
Note: La Fondazione Museo storico del Trentino e la Biblioteca di Lavarone invitano allinaugurazione della mostra
La storia disegnata
Vicende italiane e trentine nei fumetti dal 1945 ad oggi
a cura di Nicola Spagnolli
La mostra fa parte del progetto Trentino Italia storie pop e rimarrà aperta al pubblico fino al 28 settembre 2013 (dal lunedì a sabato, ore 10.00-12.00; 15.00-19.00). Ingresso libero.
Come qualsiasi altro linguaggio narrativo, anche il fumetto, nel corso della sua storia, si è misurato con il racconto storico, il reportage, lautobiografia, la memorialistica e la cronaca del presente. Con la mostra La storia disegnata: vicende italiane e trentine nei fumetti dal 1945 a oggi, non si vuole ricostruire la storia dItalia attraverso il fumetto ma dare un quadro di come il fumetto italiano, soprattutto il cosiddetto «fumetto di realtà», si è confrontato con la storia, la cronaca e la ricostruzione storica dellItalia dallUnità ad oggi. Si tratta di un percorso a tappe tra i momenti più salienti della storia dItalia - Risorgimento, prima guerra mondiale, Fascismo, seconda guerra mondiale e Resistenza, il 68, il terrorismo e gli anni di piombo, la lotta alla mafia  mostrando come, dalle riviste per ragazzi quali Il vittorioso, Il pioniere, il Corriere dei piccoli, sino alle più recenti pubblicazioni librarie, i cosiddetti graphic novel, autori, disegnatori ed editori si sono rapportati con il racconto delle vicende storiche italiane e trentine.Telefono: 0461/230482Altri organizzatori: Fondazione Museo storico del Trentino";;;;Mostra;;;;0;;;;;;"http://www.museostorico.tn.it|Fondazione Museo storico del Trentino";"Comune di Lavarone";45.947777;11.285761;;"Redazione Trentino Cultura"
pat_2562900;2014-07-16T00:00:00+02:00;2014-07-13T01:02:29+02:00;"Transformers 4. L'era dell'estinzione";;;;;2014-07-16T00:00:00+02:00;2014-07-17T00:00:00+02:00;;;"16 luglio ore 21.00
17 luglio ore 17.30 - 21.00";"Cinema Teatro Paradiso, Via Cesare Battisti, 4, Folgaria";;"
Note: Usa, 2014
Titolo originale: Transformers: Age of Extinctio
Genere: Fantascienza
Durata: 127'
Regia: Michael Bay
Cast: Mark Wahlberg, Nicola Peltz, Jack Reynor, Sophia Myles, Stanley TucciMentre l'umanità cerca di riprendersi dopo gli eventi di Transformers 3, gli Autobots e i Decepticons sono praticamente spariti dalla faccia del pianeta. Un gruppo di potenti e geniali uomini d'affari tenta di imparare dalle passate incursioni dei Transformers e spingono i confini tecnologici al di là di quello che possono controllare - il tutto mentre un'antica e potente minaccia Transformer punta il mirino sulla Terra. Ne consegue questa epica battaglia tra il bene e il male, la libertà e la schiavitù.Telefono: 0464/720006";;;;Cinema;;;;0;;;;;;http://www.cinemateatroparadiso.com;"Comune di Folgaria";0;0;;
pat_2562898;2014-07-16T00:00:00+02:00;2014-07-13T01:02:26+02:00;"Il Magico Mondo di Oz ";;;;;2014-07-16T00:00:00+02:00;2014-07-16T00:00:00+02:00;;;"ore 17.30";"Cinema Teatro Paradiso, Via Cesare Battisti, 4, Folgaria";;"
Note: Usa/India, 2012
Titolo originale: Legends of Oz: Dorothys Return
Genere: Animazione
Durata: 92'
Regia: Dan St. Pierre, Will FinnSeguito di una delle fiabe più famose e amate al mondo, il film vede ancora protagonista Dorothy che, dopo essersi svegliata nella sua casa in Kansas, si ritrova immediatamente riportata indietro ad Oz, dove i suoi vecchi amici, lo Spaventapasseri, il Leone, l'Uomo di latta e Glinda la fata buona, sono minacciati da un nuovo nemico: un perfido giullare. In questo suo ultimo viaggio attraverso il coloratissimo paesaggio di Oz, Dorothy incontrerà dei nuovi amici che si uniranno a lei per riportare pace e felicità nella Città di Smeraldo: Socrate il gufo, il Maresciallo Mellow, la Principessa di porcellana e molti altri ancora.Telefono: 0464/720006";;;;Cinema;;;;0;;;;;;http://www.cinemateatroparadiso.com;"Comune di Folgaria";0;0;;
pat_2552942;2014-07-16T00:00:00+02:00;2014-07-09T01:22:20+02:00;"La storia nel ghiaccio";;;;;2014-07-16T00:00:00+02:00;2014-07-16T00:00:00+02:00;;;"ore 21.00";"Biblioteca Comunale, , Lavarone";;"
Note: Altipiani Cimbri. Centenario 1914-18
Conferenze e commemorazioni
Archeologia e memoria della Grande Guerra in ambiente glacialeA cura di Franco Nicolis, Direttore dell'Ufficio Beni archeologici della Soprintendenza per i Beni culturali.Telefono: 0464/724100 ";;;;Convegno;;;;0;;;;;;http://centenario.alpecimbra.it/;"Comune di Lavarone";0;0;;
pat_2552941;2014-07-15T00:00:00+02:00;2014-07-09T01:18:37+02:00;"E scoppiò la guerra";;;;;2014-07-15T00:00:00+02:00;2014-07-15T00:00:00+02:00;;;"ore 21.00";"Carbonare - Centro Civico, , Folgaria";;"
Note: Altipiani Cimbri. Centenario 1914-18
Conferenze e commemorazioniA cura di Luigi TargherTelefono: 0464/724100 ";;;;Convegno;;;;0;;;;;;http://centenario.alpecimbra.it/;"Comune di Folgaria";0;0;;
pat_2562896;2014-07-14T00:00:00+02:00;2014-07-13T01:02:24+02:00;"Rio 2. Missione Amazzonia";;;;;2014-07-14T00:00:00+02:00;2014-07-15T00:00:00+02:00;;;"ore 17.30";"Cinema Teatro Paradiso, Via Cesare Battisti, 4, Folgaria";;"
Note: Brasile/Usa, 2014
Titolo originale: Rio 2
Genere: Animazione
Durata: 101'
Regia: Carlos SaldanhaIn RIO 2 troviamo Blu, Jewel e i loro tre bambini che vivono una fantastica vita domestica in quella magica città. Quando Jewel decide che i ragazzi devono imparare a vivere da veri uccelli, insiste affichè la famiglia si avventuri in Amazzonia. Mentre Blu cerca di andare d'accordo con i nuovi vicini, dovrà lottare contro il timore di perdere Jewel e i ragazzi, affascinati dal richiamo della natura.Telefono: 0464/720006";;;;Cinema;;;;0;;;;;;http://www.cinemateatroparadiso.com;"Comune di Folgaria";0;0;;
Montagna_di_latte_evento_3946;2014-07-13T10:00:00+02:00;2014-07-12T01:03:06+02:00;"PICCOLI ASSAGGI PER GRANDI SAPORI";;"DEGUSTAZIONE FORMAGGIO VEZZENA E NON SOLO..IN COLLABORAZIONE CON LA MACELLERIA CACCIATORE DOMENICO";;;2014-07-13T10:00:00+02:00;2014-07-13T12:30:00+02:00;;;"Dalle 10.00 alle 12.30";"38046 Lavarone TN, Italia";;"Caseificio degli Altipiani e del Vezzena";;;;;;;/var/comunitaalticimbri/storage/images/magnifica-comunita-degli-altipiani-cimbri/i-comuni/comune-di-lavarone/piccoli-assaggi-per-grandi-sapori/2136976-3-ita-IT/PICCOLI-ASSAGGI-PER-GRANDI-SAPORI.jpg;0;;;;;;;"Comune di Lavarone";45.921696;11.264628;;
pat_2562894;2014-07-13T00:00:00+02:00;2014-07-13T01:02:21+02:00;"Grand Budapest Hotel";;;;;2014-07-13T00:00:00+02:00;2014-07-14T00:00:00+02:00;;;"ore 21.00";"Cinema Teatro Paradiso, Via Cesare Battisti, 4, Folgaria";;"
Note: Usa, 2014
Titolo originale: The Grand Budapest Hotel
Genere: Commedia
Durata: 
Regia: Wes Anderson100'
Cast: Saoirse Ronan, Ralph Fiennes, Edward Norton, Willem Dafoe, Jude Law
Sito internet: www.grandbudapesthotel.com
Ambientato alla fine degli anni Venti, il nuovo progetto del bizzarro Wes Anderson avrà come riferimenti cinematografici opere di registi europei trapiantati nella Hollywood dell'età dell'oro (come Lubitsch e Billy Wilder). Nell'Europa del 1920, Gustave H, un concierge che lavora in un leggendario Hotel di Praga, diventa amico di uno dei suoi collaboratori più giovani, Zero Moustafa, il quale crescerà fino a diventare il suo protetto. La storia coinvolge il furto e il recupero di un dipinto rinascimentale inestimabile e la battaglia per un enorme patrimonio di famiglia.Telefono: 0464/720006";;;;Cinema;;;;0;;;;;;http://www.cinemateatroparadiso.com;"Comune di Folgaria";0;0;;
pat_2552940;2014-07-13T00:00:00+02:00;2014-07-09T01:18:16+02:00;"Presentazione cippo restaurato";;;;;2014-07-13T00:00:00+02:00;2014-07-13T00:00:00+02:00;;;"ore 11.30";"Busatti Valle dell'Astico, , Folgaria";;"
Note: Altipiani Cimbri. Centenario 1914-18
Conferenze e commemorazioni
Presentazione cippo restaurato dedicato a Carlo d'AsburgoCon sfilata della Compagnia Schützen di Folgaria - VielgereuthTelefono: 0464/724100 ";;;;"Manifestazioni ed eventi";;;;0;;;;;;http://centenario.alpecimbra.it/;"Comune di Folgaria";0;0;;
pat_2563619;2014-07-13T00:00:00+02:00;2014-07-18T01:01:43+02:00;"Incontri d'autore";;;;;2014-07-13T00:00:00+02:00;2014-08-27T00:00:00+02:00;;;"ore 17.00";"Centro Congressi a Gionghi, , Lavarone";;"
Note: Comincerà domenica 13 luglio la rassegna libraria &quot;Incontri d'autore&quot; che, proseguendo una lunga tradizione, da anni il Comune e la biblioteca di Lavarone propongono allinterno del vasto programma di manifestazioni estive organizzate per lintrattenimento degli ospiti e dei residenti dellAltopiano. La rassegna, alla quale partecipano nomi di spicco del giornalismo, della cultura e della letteratura italiana contemporanea, quest'anno avrà in particolare come ospiti:
 
13 luglio
ore 17.00 Lavarone Chiesa - Cinema Teatro Dolomiti
Andrea Vitali
Quattro sberle benedette
Garzanti, 2014
Moderatore: Enrico Franco, Direttore Corriere del Trentino
8 agosto
ore 17.00 Lavarone Gionghi - Centro Congressi
Mario Giordano
Non vale una lira
Mondadori, 2014
Modera: Sandro Scabello, giornalista
13 agosto
ore 17.00 Lavarone Gionghi - Centro Congressi
Mario Bortoletto
La rivolta del correntista
Chiarelettere, 2014
Modera: Sandro Scabello, giornalista
14 agosto
ore 17.00 Lavarone Gionghi - Centro Congressi
Bolli, sempre bolli, fortissimamente bolli
Feltrinelli, 2014
Presentazione-spettacolo con l'autore Gian Antonio Stella e la partecipazione di Natalino Balasso
18 agosto
ore 17.00 Lavarone Gionghi - Centro Congressi
Corrado Passera
Io siamo
Rizzoli, 2014
Modera: Sandro Scabello, giornalista
21 agosto
ore 17.00 Lavarone Gionghi - Centro Congressi
Gianna Schelotto
Le rose che non colsi
Mondadori, 2014
Modera: Sandro Scabello, giornalista
23 agosto
ore 15.00 Lavarone - Malga Laghetto
Luca Mercalli, Società Metereologica Italiana - Rai3 Che tempo che fa
La memoria ambientale dell'Avez de Prinzep. Come è cambiato il clima in 230 anni
Evento in occasione dell'inaugurazione dell'area naturale di Malga Laghetto
27 agosto
ore 17.00 Lavarone Gionghi - Centro Congressi
Bruno Ballardini
Leader come Francesco
Piemme, 2014
Modera: Sandro Scabello, giornalista
Ogni incontro si concluderà con l'Aperitivo d'autore, speciale appuntamento per scoprire i prodotti tipici locali, con la partecipazione delle aziende aderenti all'Associazione Altipiani Cimbri Prodotto Qui e di Conad City Lavarone.In collaborazione con Giampaolo Osele, ideatore di Arte all'apertoTelefono: 0464/783832Altri organizzatori: Biblioteca Comunale &quot;S. Freud&quot;";;;;"Manifestazioni ed eventi";;;;0;;;;;;"http://www.facebook.com/bibliotecalavarone|Biblioteca Comunale ""S. Freud""";"Comune di Lavarone";0;0;;
pat_2562892;2014-07-12T00:00:00+02:00;2014-07-13T01:02:19+02:00;"Belle & Sebastien";;;;;2014-07-12T00:00:00+02:00;2014-07-13T00:00:00+02:00;;;"ore 17.30";"Cinema Teatro Paradiso, Via Cesare Battisti, 4, Folgaria";;"
Note: Francia, 2013
Titolo originale: Belle et Sébastien
Genere: Avventura
Durata: 98'
Regia: Nicolas Vanier
Cast: Félix Bossuet, Tchéky Karyo, Margaux Châtelier, Dimitri Storoge, Medhi El GlaouiDurante la seconda guerra mondiale, nel villaggio alpino del piccolo Sébastien si scatena una caccia alla bestia pericolosa ritenuta responsabile delle stragi di pecore. Uomini armati di fucile, tra cui lo stesso César, che fa da nonno a Sébastien, sembrano non pensare ad altro che a volerla catturare e sopprimere. Ma il bambino ha conosciuto la bestia da vicino, sa che non ha ucciso lei le pecore e che si tratta solo di un dolcissimo Pastore dei Pirenei, in fuga da un padrone violento. Riuscirà il piccolo Sebastien a mettere in salvo la sua nuova amica, la gigantesca Belle?Telefono: 0464/720006";;;;Cinema;;;;0;;;;;;http://www.cinemateatroparadiso.com;"Comune di Folgaria";0;0;;
pat_2552955;2014-07-12T00:00:00+02:00;2014-07-09T01:28:33+02:00;"Altipiani Cimbri 1914";;;;;2014-07-12T00:00:00+02:00;2014-07-12T00:00:00+02:00;;;"ore 21.00";"Cinema Teatro Paradiso, , Folgaria";;"
Note: Altipiani Cimbri. Centenario 1914-18
Film e video
Cortometraggio a cura del Piano Giovani di Zona degli Altipiani Cimbri con la collaborazione delle associazioni di volontariato del territorio
Regia di Federico MaranerIngresso liberoTelefono: 0464/724100 ";;;;Cinema;;;;0;;;;;;http://centenario.alpecimbra.it/;"Comune di Folgaria";0;0;;
pat_2552961;2014-07-11T00:00:00+02:00;2014-07-09T01:35:41+02:00;"Fino a quando";;;;;2014-07-11T00:00:00+02:00;2014-07-11T00:00:00+02:00;;;"ore 21.00";"Cinema Teatro Dolomiti, , Lavarone";;"
Note: Altipiani Cimbri. Centenario 1914-18
Film e video
La guerra va al cinema
Ingresso libero
Sarà presente il regista Vittorio Curzel
Italia, 2011 
Titolo originale: Fino a quando 
Genere: Documentario/Storico 
Durata: 50' 
Regia: Vittorio Curzel Sul retro di una vecchia fotografia di due giovani soldati trentini con la divisa dell'impero asburgico c'è l'indirizzo di uno studio fotografico di una cittadina della Bassa Austria. Poi l'immagine di una famiglia patriarcale e quella di bambini in un'aula scolastica, tutti dello stesso paese, tutti profughi di guerra. Inizia così, con la ricerca di quello studio fotografico, il viaggio nella memoria di una famiglia trentina durante la prima guerra mondiale. Il racconto attraversa i campi di battaglia della Marna e dell'Isonzo, per concludersi fra le rocce del Pasubio. E quando, alla fine della guerra, i sopravvissuti tornano nella loro valle, trovano un paese in macerie e senza vita. Telefono: 0464/724100 ";;;;Cinema;;;;0;;;;;;http://centenario.alpecimbra.it/;"Comune di Lavarone";0;0;;
pat_2552935;2014-07-10T00:00:00+02:00;2014-07-09T01:34:01+02:00;"Cent'anni fa la Guerra";;;;;2014-07-10T00:00:00+02:00;2014-07-10T00:00:00+02:00;;;"ore 20.30";"Guardia - Centro Civico, , Folgaria";;"
Note: Altipiani Cimbri. Centenario 1914-18
Conferenze e commemorazioni
Gli Altipiani nel Grande Conflittoa cura di Fernando LarcherTelefono: 0464/724100 ";;;;Convegno;;;;0;;;;;;http://centenario.alpecimbra.it/;"Comune di Folgaria";0;0;;
pat_2553114;2014-07-09T00:00:00+02:00;2014-07-10T01:06:30+02:00;"Rio 2. Missione Amazzonia";;;;;2014-07-09T00:00:00+02:00;2014-07-09T00:00:00+02:00;;;"ore 17.30";"Cinema Teatro Paradiso, Via Cesare Battisti, 4, Folgaria";;"
Note: Brasile/Usa, 2014
Titolo originale: Rio 2
Genere: Animazione
Durata: 101'
Regia: Carlos SaldanhaIn RIO 2 troviamo Blu, Jewel e i loro tre bambini che vivono una fantastica vita domestica in quella magica città. Quando Jewel decide che i ragazzi devono imparare a vivere da veri uccelli, insiste affichè la famiglia si avventuri in Amazzonia. Mentre Blu cerca di andare d'accordo con i nuovi vicini, dovrà lottare contro il timore di perdere Jewel e i ragazzi, affascinati dal richiamo della natura.Telefono: 0464/720006";;;;Cinema;;;;0;;;;;;http://www.cinemateatroparadiso.com;"Comune di Folgaria";0;0;;
pat_2552989;2014-07-05T00:00:00+02:00;2014-07-09T01:37:22+02:00;"La trincea. Nel Centenario della Prima Guerra Mondiale";;;;;2014-07-05T00:00:00+02:00;2014-07-30T00:00:00+02:00;;;"Inaugurazione 5 luglio ore 11.00

ore 10.00-12.30 e 16.00-19.00";"Sala ex scuole elementari di Cappella, , Lavarone";;"
Note: Altipiani Cimbri. Centenario 1914-18
MostreOggetti e reperti della Collezione Osele di Forte Belvedere-GschwentTelefono: 0464/724100 ";;;;Mostra;;;;0;;;;;;http://centenario.alpecimbra.it/;"Comune di Lavarone";0;0;;
pat_2552919;2014-06-29T00:00:00+02:00;2014-08-26T01:00:52+02:00;"Altipiani Cimbri. Centenario 1914-18";;;;;2014-06-29T00:00:00+02:00;2014-08-29T00:00:00+02:00;;;;"Folgaria, Lavarone, Luserna, , Folgaria";;"
Note: Lestate del Centenario sullAlpe Cimbra di Folgaria, Lavarone e Luserna si apre con la MARCIA DEI FORTI (29 giugno - Folgaria), marcia non competitiva riservata agli appassionati della camminata in montagna, tracciata tra i forti Dosso delle Somme, Sommo alto e Cherle.
Seguirà, domenica 6 luglio, JATZ LUSERN, a Luserna, concerto jazz che rientra nel programma del Südtirol Jazz Festival, che propone brani originali ispirati espressamente al Centenario.
Altri eventi saranno i CONCERTI DEI FORTI. Si tratta di due concerti in notturna, il primo (19 luglio) nel fossato di Forte Belvedere Gschwent, a Lavarone, e il secondo (5 agosto) nel fossato Forte Cherle, a Folgaria. Vedranno la partecipazione della Banda Musicale di Folgaria e dei cori Martinella di Serrada e Stella Alpina di Lavarone. Saranno momenti emozionanti, che avranno come contorno il cielo stellato e la musica, durante i quali saranno rievocati i momenti più drammatici del conflitto combattuto in Europa e sugli Altipiani.
Eventi clou saranno il concerto de I SUONI DELLE DOLOMITI  DOLOMITI DI PACE, domenica 27 luglio a Forte Dosso delle Somme (Folgaria), che vedrà la partecipazione straordinaria del trombettista jazz Paolo Fresu e del giornalista e scrittore Paolo Rumiz, e il concerto de I NOMADI - Concerto per la Pace, il 10 agosto, a Folgaria, sulla riva del Lago Coe.
Il Centenario sarà inoltre ricordato in vari APPUNTAMENTI TEATRALI: il primo, il 28 luglio a Folgaria, porta il titolo di STRIACI, messo in scena dallo Stabilimento Teatrale Officine Pinelli, dedicato al fante in trincea, su fronti opposti; il secondo sarà invece ADDIO ALLE ARMI, tratto dal celeberrimo manifesto antimilitarista di Ernest Hemingway, messo in scena da TrentoSpettacoli il 5 agosto a Folgaria e 13 agosto a Luserna, a cui farà seguito lo spettacolo STORIA DI TÖNLE, tratto dallopera di Mario Rigoni Stern, messo in scena per Teatro Ipotesi da Pino Petruzzelli, l8 agosto a Lavarone e il 9 agosto a Folgaria. 
Da aggiungere in questo contesto le ANIMAZIONI, a Luserna, lungo il percorso tematico DALLE STORIE ALLA STORIA.
Fa da contorno ai grandi eventi un articolato CALENDARIO GIORNO PER GIORNO, che comprende conferenze storiche, visite guidate ai forti e ai campi di battaglia, momenti musicali, proiezioni di video e film a tema.
Rilevante il capitolo delle MOSTRE a tema: la mostra RITRATTI DELLA GUERRA. LA RAPPRESENTAZIONE DEI CONFLITTI NELLA CARICATURA EUROPEA: 1898-1918 a Folgaria Maso Spilzi, la mostra LA GRANDE GUERRA DEL &quot;CORRIERE DEI PICCOLI&quot; 1914-1919 a Lavarone Cappella e la mostra 26 LETTERE PER NON DIMENTICARE a Luserna.
Meritevoli infine di nota sono la SETTIMANA DEL CENTENARIO a Serrada, dal 3 all8 agosto, e la rassegna cinematografica LA GRANDE GUERRA IN PELLICOLA, a Lavarone, tutte le settimane di luglio e agosto.
Gli eventi sono proposti da:
Comuni, Biblioteche, Comunità, Azienda per il Turismo,
Pro Loco, Consorzi turistici, Società Impiantistiche,
Associazioni culturali e Sedi museali.
 
Tavolo di lavoro per il CentenarioComunità degli Altipiani CimbriTelefono: 0464/724100 ";;;;"Manifestazioni ed eventi";;;;0;;;;;;http://centenario.alpecimbra.it/;"Comune di Folgaria";0;0;;
pat_2545396;2014-06-25T00:00:00+02:00;2014-07-02T01:02:15+02:00;"Il respiro degli alberi";;;;;2014-06-25T00:00:00+02:00;2014-07-25T00:00:00+02:00;;;;"Loccalità Tomazol, , Lavarone";;"
Note: Il respiro degli alberi, una mostra nella natura per scoprirne lanima
al via la realizzazione delle opere
Sono iniziati, mercoledì 25 giugno, i primi lavori inerenti la realizzazione delle opere nel nuovo percorso di Arte e Natura intitolato il respiro degli alberi.
In località Tomazol, poco distante dagli abitati di Virti e Chiesa, per un mese, sino al 25 luglio, sarà possibile vedere gli artisti al lavoro lungo il tracciato, secondo il programma scaricabile dal sito internet www.ilrespirodeglialberi.it.
Si tratta di un nuovo sentiero permanente di arte contemporanea nel bosco, facilmente percorribile da tutti, che permette di contemplare splendide vedute sulla Vigolana e sul vicino lago di Caldonazzo.
Lelemento conduttore delle singole opere, da scoprire una dopo laltra, è lalbero quale elemento di vita. 
Ogni scultura vuole essere una riflessione discreta che si fonde con quanto ha intorno, un invito a fermarsi per un istante ad ascoltare i suoni del bosco. 
Il percorso nasce per osservare, conoscere e lasciarsi emozionare, spiega il Sindaco Mauro Lanzini, unidea resa possibile grazie al finanziamento provinciale che andrà a potenziare lofferta turistica, educativa e culturale dellintero Altopiano.
Gianangelo Longhini (VI), Leonardo Nava (MI), Marco Nones (TN), Aldo Pallaro (PD), Alessandro Pavone (TN), Giampaolo Osele (TN), Paolo Vivian (TN), sono i 7 testimoni artistici selezionati dalla commissione giudicatrice tra le oltre 30 domande di partecipazione pervenute. 
A loro il compito di caricare di suggestioni il sentiero, renderlo ricco di significati simbolici ed allegorici sempre attuali.
25, 26, 27 giugno
dal 12 al 25 luglio
Realizzazione partecipata dellopera
Radici dellanima di Leonardo Nava
30 giugno
1, 2, 3 luglio
Realizzazione dellopera
Fra i rami un rifugio segreto di Giampaolo Osele
7, 8, 9, 10, 11 luglio
Realizzazione dellopera
Memorie di un bosco di Paolo Vivian
9 luglio
Collocazione dellopera
Aspettando il vento di Gianangelo Longhini
11, 12, 13, 18, 19, 20 luglio
Realizzazione dellopera
Virtuosa natura di Aldo Pallaro
15, 16, 17, 18, 19 luglio
Realizzazione dellopera
Radicati liberi di Marco Nones
18 luglio
Collocazione dellopera
Verso la luce di Alessandro Pavone
Gli orari di lavoro sono a discrezione dei singoli artisti.
In caso di pioggia il programma potrebbe subire cambiamenti.
**
16 luglio e 30 luglio, ore 16.30
Lavarone Gionghi
Piccolo laboratorio di falegnameria per bambini
Info e prenotazioni obbligatorie Ufficio APT di Lavarone 0464 724144
21 luglio e 8 agosto, ore 9.30
ritrovo a Lavarone Lanzino
Visita guidata al nuovo percorso
Info Biblioteca comunale di Lavarone 0464 783832 e Ufficio APT di Lavarone 0464 724144
5 e 26 agosto, ore 9.00
ritrovo a Lavarone Lanzino
Laboratorio didattico per bambini lungo il percorso
Info e prenotazioni Uffici APT di Folgaria 0464 724100 e Lavarone 0464 724144. 
Con la collaborazione di APPA  Rete Trentina di Educazione Ambientale
14 agosto, ore 11.00
ritrovo a Lavarone Lanzino
Inaugurazione del nuovo percorso in concomitanza con la manifestazione Arte allAperto
Info Biblioteca comunale di Lavarone 0464 783832
Realizzazione AmBios  per una comunicazione dellambiente
www.ambios.it
**
DIDASCALIA IMMAGINEBozzetto opera tra i rami un rifugio segreto - G. Osele";;;;"Manifestazioni ed eventi";;;;0;;;;;;http://www.ilrespirodeglialberi.it;"Comune di Lavarone";0;0;;
7856dea241af4cdc3dc511407c3bee3e;2014-06-11T15:29:00+02:00;2014-06-16T16:20:54+02:00;"Convocazione PTC";"Presentazione ";"mercoledì 18 giugno ad ore 20 presso la sede della Magnifica Comunità degli Altipiani Cimbri: presentazione del Documento inerente al Piano Territoriale, alla luce dei contributi emersi!";;"http://www.altipianicimbri.tn.it/content/download/116123/2091225/1/concocazione tavolo.pdf";2014-06-11T15:29:00+02:00;2014-06-19T12:00:00+02:00;;"mercoledì 18 ";"ad ore 20.00";"Presso la sede della Comunità";interno;;;;;;;;;0;;;;;;;;0;0;;
pat_2533103;2014-05-17T00:00:00+02:00;2014-05-02T01:01:56+02:00;"Palazzi Aperti a Lavarone";;;;;2014-05-17T00:00:00+02:00;2014-05-18T00:00:00+02:00;;;;"Museo Forte Belvedere, , Lavarone";;"
Note: Palazzi Aperti
Sabato 10, domenica 11, sabato 17 e domenica 18 maggio ore 10.00- 12.00 e ore 14.30-18.00
FORTE BELVEDERE GSCHWENT
Fortezza austro-ungarica e museo della Grande Guerra di Lavarone.
Ingresso speciale a 6 euro, ridotto 4 euro, biglietto famiglia 14 euro. 
Visite guidate gratuite in occasione di Palazzi aperti
Sabato 10 e sabato 17 maggio
Ore 10.00 Gli uomini della fortezza visita guidata al Forte.
Ore 14.30 La fortezza delle emozioni visita guidata al percorso di installazioni multimediali di Forte Belvedere.
Prenotazioni obbligatorie entro il giorno precedente
Sabato 17 e domenica 18 maggio
Ore 15.00 Laboratorio per ragazzi sulla Grande Guerra.
Gratuito, solo su prenotazione
Info e prenotazioni
Museo Forte Belvedere
tel. 0464.780005/349.5025998 info@fortebelvedere.orgTelefono: 0464/783832Altri organizzatori: Museo Forte Belvedere";;;;"Manifestazioni ed eventi";;;;0;;;;;;;"Comune di Lavarone";0;0;;"Redazione Trentino Cultura"
pat_2532768;2014-05-04T00:00:00+02:00;2014-04-26T01:04:14+02:00;Noah;;;;;2014-05-04T00:00:00+02:00;2014-05-04T00:00:00+02:00;;;"ore 21.00";"Cinema Teatro Paradiso, Via Cesare Battisti, 4, Folgaria";;"
Note: Usa, 2014
Titolo originale: Noah
Genere: Drammatico
Durata: 132'
Regia: Darren Aronofsky
Cast: Russell Crowe, Jennifer Connelly, Logan Lerman, Douglas Booth, Emma WatsonNoè, ultimo discendente della stirpe di Set, vede morire suo padre per mano dei discendenti di Caino. Diventato adulto una notte il Creatore gli parla in sogno annunciandogli la fine dell'umanità con un grande diluvio e instillando in lui lo stimolo a costruire un'arca in cui stipare tutti gli animali assieme alla moglie, i figli e le mogli dei figli. Aiutato dai giganti (antica stirpe che popola la Terra, originariamente scesa dal cielo per pietà verso gli uomini) costruisce l'arca e la difende dagli attacchi portati dal resto degli uomini quando è ormai chiaro che la fine è vicina. Tentato a sua volta da un eccesso di religiosità e adesione alla furia divina rischia di uccidere la propria discendenza e sconfigge la propria nemesi infiltratasi nell'arca fino a sopravvivere e ritrovare la Terra.Telefono: 0464/720006";;;;Cinema;;;;0;;;;;;http://www.cinemateatroparadiso.com;"Comune di Folgaria";0;0;;
pat_2532766;2014-05-04T00:00:00+02:00;2014-04-26T01:04:06+02:00;"Rio 2. Missione Amazzonia";;;;;2014-05-04T00:00:00+02:00;2014-05-04T00:00:00+02:00;;;"ore 17.30";"Cinema Teatro Paradiso, Via Cesare Battisti, 4, Folgaria";;"
Note: Brasile/Usa, 2014
Titolo originale: Rio 2
Genere: Animazione
Durata: 101'
Regia: Carlos SaldanhaIn RIO 2 troviamo Blu, Jewel e i loro tre bambini che vivono una fantastica vita domestica in quella magica città. Quando Jewel decide che i ragazzi devono imparare a vivere da veri uccelli, insiste affichè la famiglia si avventuri in Amazzonia. Mentre Blu cerca di andare d'accordo con i nuovi vicini, dovrà lottare contro il timore di perdere Jewel e i ragazzi, affascinati dal richiamo della natura.Telefono: 0464/720006";;;;Cinema;;;;0;;;;;;http://www.cinemateatroparadiso.com;"Comune di Folgaria";0;0;;
pat_2532764;2014-05-03T00:00:00+02:00;2014-04-26T01:03:58+02:00;"Rio 2. Missione Amazzonia";;;;;2014-05-03T00:00:00+02:00;2014-05-03T00:00:00+02:00;;;"ore 21.00";"Cinema Teatro Paradiso, Via Cesare Battisti, 4, Folgaria";;"
Note: Brasile/Usa, 2014
Titolo originale: Rio 2
Genere: Animazione
Durata: 101'
Regia: Carlos SaldanhaIn RIO 2 troviamo Blu, Jewel e i loro tre bambini che vivono una fantastica vita domestica in quella magica città. Quando Jewel decide che i ragazzi devono imparare a vivere da veri uccelli, insiste affichè la famiglia si avventuri in Amazzonia. Mentre Blu cerca di andare d'accordo con i nuovi vicini, dovrà lottare contro il timore di perdere Jewel e i ragazzi, affascinati dal richiamo della natura.Telefono: 0464/720006";;;;Cinema;;;;0;;;;;;http://www.cinemateatroparadiso.com;"Comune di Folgaria";0;0;;
pat_2532761;2014-04-26T00:00:00+02:00;2014-04-26T01:01:16+02:00;Noah;;;;;2014-04-26T00:00:00+02:00;2014-04-26T00:00:00+02:00;;;"ore 21.00";"Cinema Teatro Paradiso, Via Cesare Battisti, 4, Folgaria";;"
Note: Usa, 2014
Titolo originale: Noah
Genere: Drammatico
Durata: 132'
Regia: Darren Aronofsky
Cast: Russell Crowe, Jennifer Connelly, Logan Lerman, Douglas Booth, Emma WatsonNoè, ultimo discendente della stirpe di Set, vede morire suo padre per mano dei discendenti di Caino. Diventato adulto una notte il Creatore gli parla in sogno annunciandogli la fine dell'umanità con un grande diluvio e instillando in lui lo stimolo a costruire un'arca in cui stipare tutti gli animali assieme alla moglie, i figli e le mogli dei figli. Aiutato dai giganti (antica stirpe che popola la Terra, originariamente scesa dal cielo per pietà verso gli uomini) costruisce l'arca e la difende dagli attacchi portati dal resto degli uomini quando è ormai chiaro che la fine è vicina. Tentato a sua volta da un eccesso di religiosità e adesione alla furia divina rischia di uccidere la propria discendenza e sconfigge la propria nemesi infiltratasi nell'arca fino a sopravvivere e ritrovare la Terra.Telefono: 0464/720006";;;;Cinema;;;;0;;;;;;http://www.cinemateatroparadiso.com;"Comune di Folgaria";0;0;;
pat_2532760;2014-04-26T00:00:00+02:00;2014-04-26T01:01:09+02:00;"Rio 2. Missione Amazzonia";;;;;2014-04-26T00:00:00+02:00;2014-04-26T00:00:00+02:00;;;"ore 17.30";"Cinema Teatro Paradiso, Via Cesare Battisti, 4, Folgaria";;"
Note: Brasile/Usa, 2014
Titolo originale: Rio 2
Genere: Animazione
Durata: 101'
Regia: Carlos SaldanhaIn RIO 2 troviamo Blu, Jewel e i loro tre bambini che vivono una fantastica vita domestica in quella magica città. Quando Jewel decide che i ragazzi devono imparare a vivere da veri uccelli, insiste affichè la famiglia si avventuri in Amazzonia. Mentre Blu cerca di andare d'accordo con i nuovi vicini, dovrà lottare contro il timore di perdere Jewel e i ragazzi, affascinati dal richiamo della natura.Telefono: 0464/720006";;;;Cinema;;;;0;;;;;;http://www.cinemateatroparadiso.com;"Comune di Folgaria";0;0;;
pat_2525915;2014-04-05T00:00:00+02:00;2014-08-26T01:00:07+02:00;"La Fauna delle Alpi. Il ritorno dei grandi predatori";;;;;2014-04-05T00:00:00+02:00;2014-11-02T00:00:00+01:00;;;"Inaugurazione 5 aprile ore 15.00

Tutti i giorni con orario 10.00-12.30 e 14.00-18.00";"Centro Documentazione di Luserna, via Trento, 6, Luserna";;"
Note: La Fauna delle Alpi
Il ritorno dei grandi predatoriCon la mostra annuale la Fauna delle Alpi. Il ritorno dei grandi predatori, curata da Thomas Conci della THC Design &amp; Exhibit, il Centro Documentazione vuole promuovere una maggiore conoscenza dellambiente alpino approfondendo, non solo il rapporto tra la natura (paesaggio, ambiente, fauna, flora) e la comunità locale, ma soprattutto il tema dei grandi predatori (lince, orso, lupo, ) che stanno tornando sulle montagne alpine. La mostra, che occuperà sia il secondo che il terzo piano del museo, sarà allestita attraverso numerose ricostruzioni di ambienti naturali, complete di animali tassidermizzati caratteristici delle Alpi, e di pannelli illustrativi bilingui. Una sala a piano terrà ospiterà una mostra fotografica di animali selvatici degli Altipiani Cimbri di Mirco Dalprà. Una serie di pannelli illustreranno le leggende cimbre relativi al rapporto con gli abitanti delle foreste. Ringraziamo per la preziosa collaborazione ed per i prestiti in particolare il MUSE, il Museo Civico di Rovereto, il Museo di Jesole, il Parco Faunistico di Spormaggiore, lISPRA. Telefono: 0464/789638
Info: Le proposte 2014 del Centro Documentazione Luserna
Centro Documentazione Luserna Via Trento / Stradù, 6
 Mostra annuale: La Fauna delle Alpi - il ritorno dei grandi predatori e Alfabeto della Grande Guerra - 26 lettere per non dimenticare
 Altre sale: Centro Visitatori Fortezze degli Altipiani, Comunità Cimbra, Metallurgia preistorica, sala video, bookshop, sportello informazioni turistiche, su prenotazione visite guidate in italiano e tedesco
Aperta tutti i giorni dal 5 aprile al 2 novembre 2014 e dal 26 dicembre 2014 al 6 gennaio 2015 con orario 10 - 12.30 e 14 - 18. Chiuso la mattina dell1 gennaio 2015
Casa Museo Haus von Prükk Piazza C. Battisti / Pill, 1
Aperta tutti i giorni dal 28 giugno al 7 settembre 2014 con orario 10.30 - 11.30 e 14.30 - 17
Pinacoteca R. Martin Pedrazza Piazza C. Battisti / Pill, 10Aperta tutti i giorni dal 28 giugno al 7 settembre 2014 con orario 11.30 - 12.30 e 17 - 18. Mostra del pittore Rheo Martin Pedrazza e del pittore e scultore Cirillo Grott Altri organizzatori: Centro Documentazione di Luserna";;;;Mostra;;;;0;;;;;;"http://www.lusern.it|Centro Documentazione di Luserna";"Comune di Luserna";0;0;;"Redazione Trentino Cultura"
pat_2525481;2014-03-29T00:00:00+01:00;2014-03-27T01:06:57+01:00;"El sagrestan de don Albino";;;;;2014-03-29T00:00:00+01:00;2014-03-29T00:00:00+01:00;;;"ore 21.00";"Cinema Teatro Paradiso, , Folgaria";;"
Note: Primavera in prosa
Filodrammatica &quot;Arca di Noè&quot; di Mattarello
El sagrestan de don Albino
da un lavoro di Dino Belmondotraduzione in dialetto trentino di Luciano Zendron ";;;;Teatro;;;;0;;;;;;http://www.comune.folgaria.tn.it;"Comune di Folgaria";0;0;;
pat_2525462;2014-03-29T00:00:00+01:00;2014-03-27T01:05:48+01:00;"Per quel temporal sul Brenta";;;;;2014-03-29T00:00:00+01:00;2014-03-29T00:00:00+01:00;;;"ore 21.00";"Cinema Teatro Dolomiti, , Lavarone";;"
Note: Filodrammatica &quot;Doss Caslir&quot; di Cembra
Per quel temporal sul Brenta
autore ignototraduzione e libero adattamento di Riccardo Gottardi";;;;Teatro;;;;0;;;;;;http://www.cofas.it/;"Comune di Lavarone";0;0;;
pat_2495289;2014-02-08T00:00:00+01:00;2014-02-06T11:03:12+01:00;"A spasso con i dinosauri";;;;;2014-02-08T00:00:00+01:00;2014-02-09T00:00:00+01:00;;;"ore 17.30";"Cinema Teatro Paradiso, Via Cesare Battisti, 4, Folgaria";;"
Note: Usa, 2013
Titolo originale: Walking With Dinosaurs 3D
Genere: Animazione
Durata: 97'
Regia: Neil Nightingale, Barry Cook
Sito internet: www.walkingwithdinosaurs.comDue fratelli cercano di seguire le orme del padre, fino a giungere ad una temibile resa dei conti con i dinosauri nella regione artica del nord. Per la prima volta nella storia del cinema, il pubblico è veramente catapultato in un'altra dimensione, per vedere e sentire com'era il mondo quando i dinosauri dominavano la Terra. Walking with Dinosaurs è un'esperienza incredibile che utilizza l'arte della grafica 3D per mettere il pubblico al centro di un mondo preistorico emozionante ed epico.Telefono: 0464/720006";;;;Cinema;;;;0;;;;;;http://www.cinemateatroparadiso.com;"Comune di Folgaria";0;0;;
pat_2495287;2014-02-07T00:00:00+01:00;2014-02-06T11:03:04+01:00;"La prima neve";;;;;2014-02-07T00:00:00+01:00;2014-02-10T00:00:00+01:00;;;"ore 21.00";"Cinema Teatro Paradiso, Via Cesare Battisti, 4, Folgaria";;"
Note: Italia, 2013
Titolo originale: La prima neve
Genere: Drammatico
Durata: 130'
Regia: Andrea Segre
Cast: Anita Caprioli, Jean-Christophe Folly, Giuseppe Battiston, Paolo Pierobon, Peter MitterrutznerMichele è un undicenne che vive in Val di Mocheni, tra le montagne del Trentino, con la madre e il nonno paterno Pietro, apicoltore e falegname. Il padre è morto da poco, lasciando la famiglia, e in particolare Michele, in una situazione di profonda crisi. A questo dolore scorre parallela la sofferenza di Dani, un giovane originario del Togo fuggito dalla Guerra in Libia, ospite di un centro di accoglienza, incapace di accettare la sua paternità. Le loro vite si incrociano quando Dani viene mandato a lavorare da Pietro. L'inverno si avvicina con quella neve che Dani non ha mai visto e in questo scorrere del tempo Dani e Michele avranno modo di imparare a ascoltarsi e capirsi curando le proprie ferite.Telefono: 0464/720006";;;;Cinema;;;;0;;;;;;http://www.cinemateatroparadiso.com;"Comune di Folgaria";0;0;;
pat_2494811;2014-01-31T00:00:00+01:00;2014-01-31T11:00:59+01:00;"La prima neve";;;;;2014-01-31T00:00:00+01:00;2014-02-03T00:00:00+01:00;;;"ore 21.00";"Cinema Teatro Paradiso, Via Cesare Battisti, 4, Folgaria";;"
Note: Italia, 2013
Titolo originale: La prima neve
Genere: Drammatico
Durata: 130'
Regia: Andrea Segre
Cast: Anita Caprioli, Jean-Christophe Folly, Giuseppe Battiston, Paolo Pierobon, Peter MitterrutznerMichele è un undicenne che vive in Val di Mocheni, tra le montagne del Trentino, con la madre e il nonno paterno Pietro, apicoltore e falegname. Il padre è morto da poco, lasciando la famiglia, e in particolare Michele, in una situazione di profonda crisi. A questo dolore scorre parallela la sofferenza di Dani, un giovane originario del Togo fuggito dalla Guerra in Libia, ospite di un centro di accoglienza, incapace di accettare la sua paternità. Le loro vite si incrociano quando Dani viene mandato a lavorare da Pietro. L'inverno si avvicina con quella neve che Dani non ha mai visto e in questo scorrere del tempo Dani e Michele avranno modo di imparare a ascoltarsi e capirsi curando le proprie ferite.Telefono: 0464/720006";;;;Cinema;;;;0;;;;;;http://www.cinemateatroparadiso.com;"Comune di Folgaria";0;0;;
pat_2494810;2014-01-31T00:00:00+01:00;2014-01-31T11:00:52+01:00;"A spasso con i dinosauri";;;;;2014-01-31T00:00:00+01:00;2014-02-02T00:00:00+01:00;;;"ore 17.30";"Cinema Teatro Paradiso, Via Cesare Battisti, 4, Folgaria";;"
Note: Usa, 2013
Titolo originale: Walking With Dinosaurs 3D
Genere: Animazione
Durata: 97'
Regia: Neil Nightingale, Barry Cook
Sito internet: www.walkingwithdinosaurs.comDue fratelli cercano di seguire le orme del padre, fino a giungere ad una temibile resa dei conti con i dinosauri nella regione artica del nord. Per la prima volta nella storia del cinema, il pubblico è veramente catapultato in un'altra dimensione, per vedere e sentire com'era il mondo quando i dinosauri dominavano la Terra. Walking with Dinosaurs è un'esperienza incredibile che utilizza l'arte della grafica 3D per mettere il pubblico al centro di un mondo preistorico emozionante ed epico.Telefono: 0464/720006";;;;Cinema;;;;0;;;;;;http://www.cinemateatroparadiso.com;"Comune di Folgaria";0;0;;
pat_2492017;2014-01-12T00:00:00+01:00;2013-12-18T11:03:14+01:00;"Blue Jasmine";;;;;2014-01-12T00:00:00+01:00;2014-01-12T00:00:00+01:00;;;"ore 21.00";"Cinema Teatro Paradiso, Via Cesare Battisti, 4, Folgaria";;"
Note: Usa, 2013
Titolo originale: Blue Jasmine
Genere: Commedia drammatica
Durata: 98'
Regia: Woody Allen
Cast: Alec Baldwin, Cate Blanchett, Louis C.K., Bobby Cannavale, Andrew Dice ClayDi fronte al fallimento di tutta la sua vita, compreso il suo matrimonio con un ricco uomo d'affari Hal (Alec Baldwin), Jasmine (Cate Blanchett) una donna elegante e mondana newyorchese, decide di trasferirsi nel modesto appartamento della sorella Ginger (Sally Hawkins) a San Francisco, per cercare di dare un nuovo senso alla propria vita. Jasmine arriva a San Francisco in uno stato psicologico molto fragile, la sua mente è annebbiata dall'effetto dei cocktail di farmaci antidepressivi. Sebbene sia ancora in grado di mantenere il suo portamento prettamente aristocratico, in verità lo stato emotivo di Jasmine è precario e totalmente instabile, tanto da non poter neanche essere in grado di badare a sé stessa. Mal sopporta Chili (Bobby Cannavale), il fidanzato di Ginger che considera un &quot;perdente&quot;, né il suo ex marito Augie (Andrew Dice Clay). Ginger, seppur riconoscendo, ma non comprendendo appieno l'instabilità psicologica della sorella, le suggerisce di intraprendere la carriera di arredatrice d'interni, un impiego che intuitivamente potrebbe essere alla sua altezza. Nel frattempo, Jasmine accetta malvolentieri un lavoro come receptionist in uno studio dentistico, dove attira le attenzioni indesiderate del suo capo, il dottor Flicker (Michael Stuhlbarg). Reputando giusta la considerazione fatta da sua sorella riguardo la scelta di uomini sbagliati nella sua vita, Ginger inizia a frequentare Al (Louis CK), un tecnico del suono che lei considera un gradino superiore a Chili. Jasmine invece intravede come una potenziale ancora di salvezza l'incontro con Dwight (Peter Sarsgaard), un diplomatico infatuato dalla sua bellezza, dalla sua raffinatezza e dal suo stile. Il difetto di Jasmine è che vive costantemente del giudizio degli altri per aumentare la sua autostima, rimanendo però cieca di fronte a ciò che accade intorno a lei. Telefono: 0464/720006";;;;Cinema;;;;0;;;;;;http://www.cinemateatroparadiso.com;"Comune di Folgaria";0;0;;
pat_2492015;2014-01-11T00:00:00+01:00;2013-12-18T11:03:07+01:00;"Frozen. Il regno di ghiaccio";;;;;2014-01-11T00:00:00+01:00;2014-01-12T00:00:00+01:00;;;"11 gennaio ore 17.30 - 21.00
12 gennaio ore 17.30";"Cinema Teatro Paradiso, Via Cesare Battisti, 4, Folgaria";;"
Note: Usa, 2013
Titolo originale: Frozen
Genere: Animazione
Durata: 100'
Regia: Chris Buck, Jennifer Lee
Sito internet: www.disney.it
Ispirato alla favola di Hans-Christian Andersen, La regina delle nevi.Quando una profezia intrappola un intero regno in un inverno senza fine, Anna, una temeraria sognatrice, insieme al coraggioso uomo di montagna Kristoff e alla sua renna Sven, intraprende un viaggio epico alla ricerca della sorella Elsa, la Regina delle Nevi, per riuscire a porre fine al glaciale incantesimo. Anna e Kristoff incontreranno sul loro cammino creature fantastiche come i trolls, un buffo pupazzo di neve di nome Olaf, montagne alte come l'Everest e magia dietro ogni angolo, e combatteranno contro tutti gli elementi della natura per salvare il regno dalla distruzione.Telefono: 0464/720006";;;;Cinema;;;;0;;;;;;http://www.cinemateatroparadiso.com;"Comune di Folgaria";0;0;;
pat_2492013;2014-01-10T00:00:00+01:00;2013-12-18T11:03:01+01:00;"Indovina chi viene a Natale?";;;;;2014-01-10T00:00:00+01:00;2014-01-10T00:00:00+01:00;;;"ore 21.00";"Cinema Teatro Paradiso, Via Cesare Battisti, 4, Folgaria";;"
Note: Italia, 2013
Titolo originale: Indovina chi viene a Natale?
Genere: Commedia
Durata: 90'
Regia: Fausto Brizzi
Cast: Claudio Bisio, Angela Finocchiaro, Claudia Gerini, Carlo Buccirosso, Diego Abatantuono, Raoul Bova, Cristiana CapotondiUna famiglia allargata, come ce ne sono tante oggigiorno, nella quale una coppia di genitori attende per le feste l'arrivo della figlia e del suo misterioso fidanzato; c'è anche un uomo che per la prima volta conosce i figli della sua compagna che faranno di tutto per cacciarlo. Poi ancora una vedova inconsolabile, un fratellastro irrisolto, una bellissima casa, la neve...Telefono: 0464/720006";;;;Cinema;;;;0;;;;;;http://www.cinemateatroparadiso.com;"Comune di Folgaria";0;0;;
pat_2492011;2014-01-10T00:00:00+01:00;2013-12-18T11:02:18+01:00;"Piovono polpette 2. La rivincita degli avanzi";;;;;2014-01-10T00:00:00+01:00;2014-01-10T00:00:00+01:00;;;"ore 17.30";"Cinema Teatro Paradiso, Via Cesare Battisti, 4, Folgaria";;"
Note: Usa, 2013
Titolo originale: Cloudy with a Chance of Meatballs 2
Genere: Animazione
Durata: 95'
Regia: Cody Cameron, Kris Pearn
Sito internet: piovonopolpette2.itiovono polpette 2 ricomincia proprio da dove era terminata la precedente commedia campione d'incassi della Sony Pictures Animation. La genialità dell'inventore Flint Lockwood viene finalmente riconosciuta grazie all'invito del suo idolo, Chester V, ad entrare a far parte della The Live Corp Company, che riunisce i migliori e più brillanti inventori del mondo, impegnati a creare tecnologie per il miglioramento della razza umana. Il braccio destro di Chester, oltre che una delle sue più riuscite invenzioni, è Barb, un orango altamente evoluto dotato di un cervello umano, che è anche ambiguo, manipolativo e che adora mettersi il rossetto. Essere riconosciuto come un grande inventore, è sempre stato il sogno di Flint. Tutto cambia però quando scopre che la sua invenzione più famosa (una macchina che trasforma l'acqua in cibo), è ancora operativa e che attualmente sta creando dei cibo-animali ibridi - gli &quot;Animacibi!&quot; Con il destino dell'umanità nelle sue mani, Chester si unisce a Flint ed i suoi amici in una missione delicata e pericolosa, combattendo contro famelici Tacodrilli, Orangamberi, Torte a Sonagli, Spiderburgher ed altri Animacibi, per salvare nuovamente il mondo!Telefono: 0464/720006";;;;Cinema;;;;0;;;;;;http://www.cinemateatroparadiso.com;"Comune di Folgaria";0;0;;
pat_2492009;2014-01-09T00:00:00+01:00;2013-12-18T11:07:43+01:00;"I sogni segreti di Walter Mitty";;;;;2014-01-09T00:00:00+01:00;2014-01-09T00:00:00+01:00;;;"ore 21.00";"Cinema Teatro Paradiso, Via Cesare Battisti, 4, Folgaria";;"
Note: Usa, 2013
Titolo originale: The Secret Life of Walter Mitty
Genere: Commedia
Durata: 
Regia: Ben Stiller
Cast: Ben Stiller, Shirley MacLaine, Kristen Wiig, Sean Penn, Adam ScottWalter Mitty (Stiller) è un moderno sognatore, un comune editor fotografico di un magazine che compie regolarmente dei viaggi mentali lontano dalla sua noiosa esistenza, entrando in un mondo di fantasie caratterizzate da grande eroismo, appassionate relazioni amorose e costanti trionfi contro il pericolo. Ma quando Mitty e la sua collega, della quale è segretamente innamorato (Kristen Wiig), rischiano di perdere il lavoro, Walter è costretto a compiere l'inimmaginabile: passare veramente all'azione - partendo per un viaggio intorno al mondo più straordinario di quanto avrebbe potuto mai sognare.Telefono: 0464/720006";;;;Cinema;;;;0;;;;;;http://www.cinemateatroparadiso.com;"Comune di Folgaria";0;0;;
pat_2492007;2014-01-09T00:00:00+01:00;2013-12-18T11:07:37+01:00;"Frozen. Il regno di ghiaccio";;;;;2014-01-09T00:00:00+01:00;2014-01-09T00:00:00+01:00;;;"ore 17.30";"Cinema Teatro Paradiso, Via Cesare Battisti, 4, Folgaria";;"
Note: Usa, 2013
Titolo originale: Frozen
Genere: Animazione
Durata: 100'
Regia: Chris Buck, Jennifer Lee
Sito internet: www.disney.it
Ispirato alla favola di Hans-Christian Andersen, La regina delle nevi.Quando una profezia intrappola un intero regno in un inverno senza fine, Anna, una temeraria sognatrice, insieme al coraggioso uomo di montagna Kristoff e alla sua renna Sven, intraprende un viaggio epico alla ricerca della sorella Elsa, la Regina delle Nevi, per riuscire a porre fine al glaciale incantesimo. Anna e Kristoff incontreranno sul loro cammino creature fantastiche come i trolls, un buffo pupazzo di neve di nome Olaf, montagne alte come l'Everest e magia dietro ogni angolo, e combatteranno contro tutti gli elementi della natura per salvare il regno dalla distruzione.Telefono: 0464/720006";;;;Cinema;;;;0;;;;;;http://www.cinemateatroparadiso.com;"Comune di Folgaria";0;0;;
pat_2492005;2014-01-08T00:00:00+01:00;2013-12-18T11:07:31+01:00;"Lo Hobbit. La desolazione di Smaug";;;;;2014-01-08T00:00:00+01:00;2014-01-08T00:00:00+01:00;;;"ore 16.00 - 21.00";"Cinema Teatro Paradiso, Via Cesare Battisti, 4, Folgaria";;"
Note: Usa/Nuova Zelanda, 2013
Titolo originale: The Hobbit: The Desolation of Smaug
Genere: Fantastico
Durata: 161'
Regia: Peter Jackson
Cast: Martin Freeman, Richard Armitage, Aidan Turner, Robert Kazinsky, Graham McTavishLo Hobbit: La Desolazione di Smaug è il proseguimento delle avventure del personaggio di Bilbo Baggins, in viaggio con il Mago Gandalf ed i tredici Nani, guidati da Thorin Scudodiquercia, in un'epica battaglia per la riconquista della Montagna Solitaria ed il perduto Regno dei Nani di Erebor. Dopo essere sopravvissuti all'inizio del loro viaggio inaspettato, la Compagnia continua ad andare verso Est, incontrando lungo la strada Beorn il cambia pelle ed uno sciame di ragni giganti, nella minacciosa foresta di Mirkwood. Dopo essere sfuggiti alla cattura da parte dei pericolosi Elfi della Foresta, i Nani arrivano a Lake-town e finalmente alla Montagna Solitaria, dove si troveranno ad affrontare il pericolo più grande - la creatura più terrificante di ogni altra - che non solo metterà a dura prova il loro coraggio, ma anche i limiti della loro amicizia ed il senso del viaggio stesso: il Drago Smaug.Telefono: 0464/720006";;;;Cinema;;;;0;;;;;;http://www.cinemateatroparadiso.com;"Comune di Folgaria";0;0;;
pat_2492003;2014-01-07T00:00:00+01:00;2013-12-18T11:07:24+01:00;"Blue Jasmine";;;;;2014-01-07T00:00:00+01:00;2014-01-07T00:00:00+01:00;;;"ore 21.00";"Cinema Teatro Paradiso, Via Cesare Battisti, 4, Folgaria";;"
Note: Usa, 2013
Titolo originale: Blue Jasmine
Genere: Commedia drammatica
Durata: 98'
Regia: Woody Allen
Cast: Alec Baldwin, Cate Blanchett, Louis C.K., Bobby Cannavale, Andrew Dice ClayDi fronte al fallimento di tutta la sua vita, compreso il suo matrimonio con un ricco uomo d'affari Hal (Alec Baldwin), Jasmine (Cate Blanchett) una donna elegante e mondana newyorchese, decide di trasferirsi nel modesto appartamento della sorella Ginger (Sally Hawkins) a San Francisco, per cercare di dare un nuovo senso alla propria vita. Jasmine arriva a San Francisco in uno stato psicologico molto fragile, la sua mente è annebbiata dall'effetto dei cocktail di farmaci antidepressivi. Sebbene sia ancora in grado di mantenere il suo portamento prettamente aristocratico, in verità lo stato emotivo di Jasmine è precario e totalmente instabile, tanto da non poter neanche essere in grado di badare a sé stessa. Mal sopporta Chili (Bobby Cannavale), il fidanzato di Ginger che considera un &quot;perdente&quot;, né il suo ex marito Augie (Andrew Dice Clay). Ginger, seppur riconoscendo, ma non comprendendo appieno l'instabilità psicologica della sorella, le suggerisce di intraprendere la carriera di arredatrice d'interni, un impiego che intuitivamente potrebbe essere alla sua altezza. Nel frattempo, Jasmine accetta malvolentieri un lavoro come receptionist in uno studio dentistico, dove attira le attenzioni indesiderate del suo capo, il dottor Flicker (Michael Stuhlbarg). Reputando giusta la considerazione fatta da sua sorella riguardo la scelta di uomini sbagliati nella sua vita, Ginger inizia a frequentare Al (Louis CK), un tecnico del suono che lei considera un gradino superiore a Chili. Jasmine invece intravede come una potenziale ancora di salvezza l'incontro con Dwight (Peter Sarsgaard), un diplomatico infatuato dalla sua bellezza, dalla sua raffinatezza e dal suo stile. Il difetto di Jasmine è che vive costantemente del giudizio degli altri per aumentare la sua autostima, rimanendo però cieca di fronte a ciò che accade intorno a lei. Telefono: 0464/720006";;;;Cinema;;;;0;;;;;;http://www.cinemateatroparadiso.com;"Comune di Folgaria";0;0;;
Montagna_di_latte_evento_4492;2015-09-19T20:00:00+02:00;2015-07-10T13:00:20+02:00;"POLENTA E VEZZENA I SAPORI DI UNA VOLTA";;"DEGUSTAZIONE DI FORMAGGIO VEZZENA ABBINATO ALLA POLENTA";;;2015-09-19T20:00:00+02:00;2015-07-11T19:00:00+02:00;;;"Dalle 1700 alle 19.00";"38046 Lavarone TN, Italia";;"Caseificio degli Altipiani e del Vezzena";;;;;;;/var/comunitaalticimbri/storage/images/magnifica-comunita-degli-altipiani-cimbri/i-comuni/comune-di-lavarone/polenta-e-vezzena-i-sapori-di-una-volta4/2551048-3-ita-IT/POLENTA-E-VEZZENA-I-SAPORI-DI-UNA-VOLTA.jpg;0;;;;;;;"Comune di Lavarone";45.921696;11.264628;;
5e9f914009ed12249e4b2dcf39e8bfd9;2017-10-31T10:21:00+01:00;2017-10-31T10:25:38+01:00;"A V V I S O ATTIVAZIONE UNA PROCEDURA NEGOZIATA MEDIANTE AFFIDAMENTO CON IL CRITERIO DI AGGIUDICAZIONE DELL'OFFERTA ECONOMICAMENTE PIÙ VANTAGGIOSA PER L'AFFIDAMENTO DEL SERVIZIO PREPARAZIONE - CONFEZIONAMENTO, TRASPORTO E CONSEGNA PASTI AL DOMICILIO DI UTENTI DEL SERVIZIO SOCIO-ASSISTENZIALE DELLA MAGNIFICA COMUNITA' DEGLI ALTIPIANI CIMBRI";avviso;;;http://www.altipianicimbri.tn.it/content/download/201895/2991863/1/avviso.pdf;2017-10-31T10:21:00+01:00;;;;;;interno;;;;;;;;;0;;;;;;;;0;0;;
pat_2470785;2013-04-20T00:00:00+02:00;2013-04-20T11:02:53+02:00;"Purga e cioccolato";;;;;2013-04-20T00:00:00+02:00;2013-04-20T00:00:00+02:00;;;"ore 20.30";"Cinema Teatro Dolomiti, , Lavarone";;"
Note: Filodrammatica di Telve Valsugana
Purga e cioccolato 
di Gian Carlo Pardini
Regia: Lorenza Guerzoni e Anna Pecoraro
I soldi si possono fare in due maniere: onestamente o disonestamente.È proprio nel secondo modo che Margherita e Giorgio hanno deciso di arricchirsi accentando di fare da corrieri in un pericoloso traffico di gioielli. Devono consegnare ad uno spietato killer un cioccolatino contenente un diamane. Purtroppo la zia picchiatella lo ingerisce. Come faranno a recuperarlo?";;;;Teatro;;;;0;;;;;;http://www.comune.lavarone.tn.it/;"Comune di Lavarone";45.947777;11.285761;;
pat_2390958;2012-12-26T00:00:00+01:00;2013-01-03T16:17:36+01:00;"Galizia 1914";;;;;2012-12-26T00:00:00+01:00;2013-01-06T00:00:00+01:00;;;"orario 10.00-12.30 e 14.00-18.00

Inaugurazione sabato 31 marzo ore 15.00

Riapertura natalizia dal 26/12 al 06/01/2013  tutti i giorni ore 10.00-12.30 e 14.00-18.00
Chiusa mattina di Capodanno";"Centro Documentazione di Luserna, via Trento, 6, Luserna";;"
Note: Galizia 1914
I soldati Tirolesi trentini nella Grande Guerra 
Da molti anni il Centro Documentazione Luserna organizza grandi mostre annuali dedicate a temi di carattere storico, naturalistico, etnografico, destinate a un vasto pubblico. 
Esse integrano le esposizioni delle sale museali permanenti del Museo (Comunità Cimbra, Centro visitatori Fortezze degli Altipiani, Grande Guerra, Metallurgia Preistorica, Fauna degli Altipiani, Casa Museo Haus von Prükk, Pinacoteca R. Martin Pedrazza). 
Oltre a promuovere e divulgare la cultura locale, i percorsi espositivi del Centro Documentazione costituiscono un forte motivo di richiamo: con una media di oltre 12.000 visitatori all'anno, queste mostre nell'ultimo quinquennio hanno attirato presso la struttura museale complessivamente oltre 70.000 visitatori, qualificando in modo significativo, e ampiamente riconosciuto, sia il territorio degli Altipiani Cimbri di Folgaria, Lavarone e Luserna e dell'Alta Valsugana, che l'intero panorama culturale della Provincia Autonoma di Trento. 
L'iniziativa proposta per il 2012 è intitolata &quot;GALIZIA 1914. I soldati tirolesi trentini nella Grande Guerra&quot;; essa ha come obiettivo principale quello di documentare storicamente l'esperienza degli oltre 60.000 soldati trentini che nel 1914 furono chiamati in guerra dall'Impero austro-ungarico ed inviati sul fronte orientale, contro le truppe russe, nel territorio della Galizia (area geografica oggi a cavallo tra gli stati della Polonia e dell'Ucraina). 
La mostra &quot;GALIZIA 1914. I soldati tirolesi trentini nella Grande Guerra&quot; sarà inaugurata sabato 31 marzo 2012 ad ore 15 presso la sede del Centro Documentazione Luserna e resterà aperta continuativamente fino a domenica 4 novembre 2012. 
Essa rappresenta un'occasione unica di divulgazione storica e culturale sul tema della Grande Guerra in prossimità del centesimo anniversario dello scoppio della prima guerra mondiale (1914-2014). 
La mostra &quot;Un anno sull'altipiano&quot; - che ha riscosso ampio successo ed ha attratto visitatori dall'intero ambito nazionale nel 2011 - ha narrato la vicenda dei soldati sardi nella prima guerra mondiale sul fronte italo/austriaco, contribuendo a sottolineare l'importanza di descrivere in tutta la sua complessità il tema del primo conflitto mondiale, considerando, in particolare, le peculiarità dei diversi ambiti territoriali, culturali, linguistici compresi all'intero degli stati nazionali (o plurinazionali) che si trovarono contrapposti e narrandone le rispettive esperienze nella fase bellica. 
Nella stessa logica, considerando in questo caso il territorio della corona asburgica, alla quale apparteneva anche l'ambito oggi denominato &quot;Trentino&quot; (allora Südtirol, Welschtirol, Tirolo meridionale oppure Tirolo italiano) si vuole raccontare la vicenda delle decine di migliaia di trentini che, in quanto sudditi austriaci, 2 furono chiamati a prestare servizio di guerra per l'Impero. 
Una vicenda di grande interesse, in parte rimossa o strumentalizzata, anche e soprattutto in considerazione del fatto che tali avvenimenti, dopo l'annessione di una parte del Tirolo al Regno d'Italia (in seguito agli accordi di Pace del 1919), non rappresentarono certo un elemento di interesse per il regime fascista e più in generale per il nazionalismo italiano, i quali evidentemente riservarono a tale aspetto storico il destino che comunemente spetta alla &quot;memoria dei vinti&quot;. La mostra intende dunque a quasi un secolo dagli eventi rappresentare la storia (e la memoria) degli oltre 60.000 trentini che nell'estate del 1914, in quanto sudditi dell'Impero austro©\ungarico, furono chiamati a prestare servizio di guerra presso l'esercito asburgico e mobilitati fin da subito sul fronte orientale, principalmente nel territorio della Galizia, regione oggi compresa tra la repubblica di Polonia e la repubblica ucraina.Telefono: 0464/789638
Info: Le proposte del Centro Documentazione Luserna - 2012
 Centro Documentazione Luserna 
Via Trento / Stradù, 6
Mostra annuale: Galizia 1914. I soldati tirolesi trentini nella Grande Guerra
 Altre sale: 
Centro Visitatori Fortezze degli Altipiani, sale Comunità Cimbra, Metallurgia preistorica, Fauna degli Altipiani, sala video, bookshop, sportello informazioni turistiche, su prenotazione visite guidate in italiano e tedesco
Aperta tutti i giorni dal 31 marzo al 4 novembre 2012 e dal 26 dicembre 2012 al 6 gennaio 2013 con orario 10-12.30 e 14-18
 Casa Museo Haus von Prükk 
Piazza C. Battisti / Pill, 1
Aperta tutti i giorni dal 16 giugno al 9 settembre 2012 con orario 10-11.30 e 14-17
 Pinacoteca R. Martin Pedrazza 
Piazza C. Battisti / Pill, 10
Aperta tutti i giorni dal 16 giugno al 9 settembre 2012 con orario 11.30-12.30 e 17-18
Sono esposte alcune opere dellartista. 
Inoltre:
Dal 16 giugno 2012 mostra storica Il grande incendio di Luserna del 1911
Dal 21 luglio 2012 mostra dei pittori Fritz Klier, Hermann Forstner, Christine Jovanovic, Josef Sommer di Neuhaus / Passau / D
Dal 10 agosto 2012 mostra del pittore Giacomo Nicolussi di Bresimo - nativo di Luserna
Per informazioni:
Centro Documentazione Luserna
www.lusern.it
luserna@tin.it
Via Trento, 6
38040 Lusérn/Luserna (Trento)Tel. 0464-­789638Altri organizzatori: Centro Documentazione di Luserna";;;;Mostra;;;;0;;;;;;"http://www.lusern.it|Centro Documentazione di Luserna";"Comune di Luserna";45.92179;11.3234;;"Redazione Trentino Cultura"
pat_2404885;2012-08-21T00:00:00+02:00;2013-01-03T08:56:55+01:00;"Simone Cristicchi";;;;;2012-08-21T00:00:00+02:00;2012-08-21T00:00:00+02:00;;;"ore 14.00";"Tablat, Altopiano di Lavarone, Lavarone";;"
Note: I Suoni delle Dolomiti
I Concerti delle 14
Simone Cristicchi 
Larte della parola 
Imprevedibile è laggettivo che gli si adatta meglio. La carriera artistica di Simone Cristicchi è infatti scandita da apparizioni sanremesi (fra cui quella vittoriosa del 2007 con la canzone Ti regalerò una rosa), ma anche da progetti inconsueti, come la collaborazione con il Coro dei Minatori di Santa Fiora e lo spettacolo Li romani in Russia, monologo tragicomico sulla Seconda Guerra Mondiale. Il cantautore romano è dunque uno a cui piace mettersi continuamente in gioco, magari anche col rischio di spiazzare il proprio pubblico, per accompagnarlo e farsi accompagnare verso avventure sempre nuove.
Luogo: Tablat
Quota: 1.340 m
COME ARRIVARE
da Lavarone dalla frazione Bertoldi o dalla frazione Gionghi a piedi
ore 1 di cammino
ESCURSIONE
con le Guide Alpine a Forte Belvedere, ai Camini e al Passo Cost
ore 2.30 di cammino, dislivello 220 metri, difficoltà T
Info e prenotazione 0464 724144
RECUPERO 
ore 21 al Centro Congressi di Lavarone Gionghi
INFO0464 724144 www.montagnaconamore.itTelefono: Info 0461/405405Altri organizzatori: Trentino spa";;;;Musica;;;;0;;;;;;"http://www.isuonidelledolomiti.it|Trentino spa";"Comune di Lavarone";45.939413;11.274574;;"Redazione Trentino Cultura"
pat_2402046;2012-07-29T00:00:00+02:00;2013-01-03T08:55:09+01:00;"Scampagnate in fattoria: Azienda Agricola la Fonte";;;;;2012-07-29T00:00:00+02:00;2012-07-29T00:00:00+02:00;;;"ore 10.00-17.00";"Azienda Agricola la Fonte, Località Gruim - Mezzomonte , Folgaria";;"
Note: Scampagnate in fattoria
Azienda Agricola la Fonte
da Elisabetta Monti
Loc. Gruim - Mezzomonte Folgaria tel. 0464 720041
e-mail:info@la-fonte.org
La nostra azienda è biologica. Coltiviamo ortaggi, frutta, piante officinali e cereali; alleviamo mucca, pecore, capre, asini e galline. Si possono gustare tanti prodotti agricoli ed erboristici come il formaggio, lo yogurt, le confetture, gli sciroppi, le tisane e i sali alle erbe. Tra le particolarità dell'azienda segnaliamo: permacoltura, gemmoderivati, fiori di Bach, liquori, settimane verdi estive ed il premio Bandiera Verde per l'attenzione all'ambiente. Vi aspetto per fare la visita guidata all'azienda, divertirci con i laboratori didattici, i balli popolari e il mondo dei fiori di Bach. Telefono: 0461/421214 Altri organizzatori: Confederazione Italiana Agricoltori Donne in Campo del Trentino";;;;"Manifestazioni ed eventi";;;;0;;;;;;;"Comune di Folgaria";45.918208;11.137741;;
pat_2404626;2012-07-01T00:00:00+02:00;2013-01-03T08:57:57+01:00;"Dolomiti d'InCanto: Coro S. Ilario";;;;;2012-07-01T00:00:00+02:00;2012-07-01T00:00:00+02:00;;;"ore 11.00";"Rifugio Stella d'Italia , Altopiano di Folgaria, Folgaria";;"
Note: I Suoni delle Dolomiti
Dolomiti d'InCanto
Anche questanno il festival I Suoni Dolomiti include nella programmazione un evento speciale dedicato alla montagna e alle sue tradizioni canore: Dolomiti dInCanto.
Alle ore 11 di domenica 1 luglio 10 cori del Trentino renderanno omaggio alle montagne elette dallUNESCO a Patrimonio Naturale dellUmanità, esibendosi nei pressi di altrettanti rifugi delle Dolomiti, trasformando così lintera provincia di Trento in unimmensa sala da concerto a cielo aperto. Alle ore 12 tutti i cori intoneranno simultaneamente uno dei classici del repertorio corale trentino: Le Dolomiti.
Liniziativa è realizzata in collaborazione con la Federazione Cori del Trentino e vede il coinvolgimento di apprezzate formazioni, alcune delle quali affermate a livello internazionale e tutte depositarie di antiche tradizioni tramandate di generazione in generazione.
Coro S. Ilario 
Da Rovereto viene un coro che ha condiviso il palcoscenico con importanti orchestre classiche, fra cui la Toscanini di Parma e lAccademia Filarmonica di Bologna. Ha anche collaborato con Antonella Ruggiero, in un progetto sfociato con la partecipazione al Festival di Sanremo.
Luogo: Rifugio Stella dItalia
Quota: metri 1.536
Tel: 0464 765187  723149
COME ARRIVARE
Il rifugio  metri 1.536 telefono  0464 765187  723149 si raggiunge da Passo Coe (parcheggio) e poi a piedi
ore 0.40 di cammino
RECUPERO
ore 16 Teatro Paradiso di Folgaria
INFO0464 724100 www.montagnaconamore.itTelefono: 0461/219300Altri organizzatori: Trentino spa - in collaborazione con le Apt di ambito e i Consorzi Pro Loco, oltre a numerose istituzioni locali";;;;Musica;;;;0;;;;;;"http://www.isuonidelledolomiti.it|Trentino spa - in collaborazione con le Apt di ambito e i Consorzi Pro Loco, oltre a numerose istituzioni locali";"Comune di Folgaria";45.915712;11.171807;;"Redazione Trentino Cultura"
pat_2403315;2012-05-11T11:04:14+02:00;2012-05-11T11:36:29+02:00;"Palazzi Aperti a Lavarone";;;;;2012-05-08T00:00:00+02:00;2012-05-13T00:00:00+02:00;;;;"Vari luoghi, , Lavarone";;"
Note: Palazzi Aperti
Da martedì 8 a domenica 13 maggio 
dalle ore 14.30 alle ore 18.00
Il museo del miele Apertura al pubblico gratuita.
Info Museo del miele, tel. 0464 783315
Sabato 12 maggio, ore 15.00
Alla scoperta del sentiero del Tablat Passeggiata con guida lungo il sentiero in collaborazione con Apt Folgaria Lavarone Luserna.
Ritrovo nella piazza del Municipio (fr. Gionghi).
Sabato 12 maggio, ore 21.00
Centro Congressi di Lavarone Spettacolo: 1915/1918. Un uomo, una
donna. Un epistolario di guerra della Val Posina. Da unidea di Giorgio Havis Marchetto. Interpreti Anita Pesiri e Alberto Di Bernardo diretti da Serena Fiorio. Direzione Musicale di Alejandro Saorin Martinez, accompagnamento musicale dei Coristi per Caso di Padova.
Domenica 13 maggio e sabato 19 maggio, ore 10.00
Alla scoperta del sentiero dei camini Passeggiata lungo il sentiero con visita guidata finale a Forte Belvedere - Ritrovo nella piazza di Cappella.
Venerdì 18 maggio, ore 15.00
Sala della biblioteca Mostra fotografica Fortezze di un impero perduto, viaggio tra i resti di guerra tra Folgaria e Lavarone attraverso le fotografie di Andrea Contrini.
Venerdì 18 maggio 
dalle ore 10.00 alle ore 22.00
Forte Belvedere Per celebrare i 100 anni della sua costruzione, apertura al pubblico con orario continuato (dalle 10.00 alle 18.00 ingresso a pagamento e dalle 18.00 alle 22.00 ingresso gratuito).
Sabato 19 maggio
ore 15.00
Centro Congressi Pomeriggio di studi: 18 maggio 1912 -18 maggio 2012. La costruzione di Forte Belvedere, fra esigenze militari, innovazioni tecniche e trasformazione del territorio.
Sabato 19 maggio
ore 19.00
Forte Belvedere Una notte a Forte Belvedere. Rivivere il forte 100 anni dopo.
Per riflettere sul dramma della guerra, cena e notte al forte con la partecipazione dei studenti delle scuole italiane ed austriache. Riservato alle classi prenotate.
Domenica 20 maggio
ore 15.00
Alla scoperta del sentiero dei camini - Nordic walking lungo il sentiero con visita guidata finale a Forte Belvedere (con possibilità di noleggio bastoncini)
Ritrovo nella piazza di Cappella.
Info e prenotazioni 
Biblioteca di Lavarone, tel. 0464.783832
e-mail: lavarone@biblio.infotn.it
Museo Forte Belvedere, tel. 0464.780005e-mail: fortebelvedere@libero.itTelefono: 0464/783832Altri organizzatori: Museo Forte Belvedere";;;;"Manifestazioni ed eventi";;;;0;;;;;;;"Comune di Lavarone";45.937918;11.275742;;"Redazione Trentino Cultura"
pat_2402038;2012-05-11T11:02:56+02:00;2012-05-11T11:35:24+02:00;"Scampagnate in fattoria: Soto al Croz";;;;;2012-05-13T00:00:00+02:00;2012-05-13T00:00:00+02:00;;;"ore 10.00-17.00";"Soto al Croz, frazione Magrè , Lavarone";;"
Note: Scampagnate in fattoria
Soto al Croz
da Marisa Corradi
fraz. Magrè - Lavarone tel. 339 5613802
e-mail:fulviocaneppele@alice.it
Nella nostra azienda zootecnica, gestita a livello familiare, alleviamo vacche da latte in prevalenza di razza pezzata rossa. Produciamo latte destinato alla produzione di formaggio Vezzena o gelato. Nel periodo estivo offriamo, attraverso un percorso didattico, la possibilità di conoscere e sperimentare la vita in fattoria. Le nostre mucche hanno un nome...Vi racconteremo qualcosa di loro. Telefono: 0461/421214 Altri organizzatori: Confederazione Italiana Agricoltori Donne in Campo del Trentino";;;;"Manifestazioni ed eventi";;;;0;;;;;;;"Comune di Lavarone";45.943528;11.280088;;
pat_2402171;2012-05-11T11:02:31+02:00;2012-05-11T11:35:03+02:00;"Upload on tour: Stiliti ";;;;;2012-05-19T00:00:00+02:00;2012-05-19T00:00:00+02:00;;;"ore 21.00";"Osteria del Carador, Via Negheli, 58, Folgaria";;"
Note: Stiliti (ITA)Gli Stiliti si formano nel settembre del '93. Nel corso dei primi anni il gruppo si dedica prevalentemente alla riscoperta di un genere, lo SKA, ai tempi non molto in voga. In un paio d'anni, l'attività live si espande in tutta la provincia di Torino ed occasionalmente in alcune province di nord e centro Italia. Nel giugno del '95 inizia una stretta collaborazione con gruppi del calibro di Statuto e Persiana Jones che porta la ska band ad un considerevole numero dei concerti in gran parte della penisola. In contemporanea con una generale rivalutazione dello ska in Italia e grazie alla notevole esperienza acquisita sul palco, gli Stiliti si esibiscono in locali e manifestazioni sempre di maggior rilievo. Attualmente gli Stiliti stanno presentando il 4° album &quot;A Denti Stretti&quot;.";;;;Musica;;;;0;;;;;;http://www.uploadsounds.eu;"Comune di Folgaria";45.919265;11.192089;;
pat_2400670;2012-04-30T18:18:03+02:00;2012-05-11T11:33:42+02:00;"L'uomo che piantava gli alberi";;;;;2012-05-11T00:00:00+02:00;2012-05-11T00:00:00+02:00;;;"ore 21.00";"Cinema Teatro Paradiso, Via Cesare Battisti, 4, Folgaria";;"
Note: Compagnia Estroteatro
L'uomo che piantava gli alberi
con Andrea Deanesi 
regia di Mirko Corradini
Durante una passeggiata in Provenza il giovane narratore fa un incontro che ricorderà per tutta la vita. Un uomo, un pastore solitario di poche parole, che nel silenzio più totale stava compiendo &quot;un'opera degna di Dio&quot;.
La sintesi la troviamo nel titolo stesso, L'uomo che piantava gli alberi, il gesto di piantare ovvero di seminare con attenzione e cura al fine di far nascere. L'uomo che semina con costanza e dedizione.
Ma questo uomo non semina solo alberi, è anche un esempio, come dice lo stesso narratore &quot;se si teneva a mente che era tutto scaturito dalle mani e dall'anima di quell'uomo, senza mezzi tecnici, si comprendeva come gli uomini potrebbero essere altrettanto efficaci di Dio in altri campi oltre alla distruzione&quot;.Infatti la sua opera va oltre il fisico, è la metafora della rinascita, piantare le ghiande buone per far crescere forti alberi, come la ricerca del giusto agire che produce invisibili cambiamenti nell'immediato ma enormi mutamenti nel futuro.Telefono: 0464/720006";;;;Teatro;;;;0;;;;;;http://www.cinemateatroparadiso.com;"Comune di Folgaria";45.916897;11.168553;;
pat_2394943;2012-01-31T17:38:42+01:00;2012-02-14T22:10:40+01:00;"51° Trofeo Topolino";;;;;2012-03-02T00:00:00+01:00;2012-03-03T00:00:00+01:00;;;;"Altopiano di Folgaria, , Folgaria";;"
Note: Le leggende dello sci alpino internazionale hanno mosso i primi passi al Trofeo Topolino, la storica manifestazione dedicata alle giovani promesse di questo sport.
Questanno il Trofeo Topolino di sci alpino è in programma il 2 e 3 marzo sulle nevi degli Altipiani di Folgaria, Lavarone e Luserna (TN), sede lo scorso marzo del 50° anniversario.
Il programma sarà ricco di attività rivolte a grandi e piccini, per regalare un week end di grande sport e divertimento, il tutto sotto lesperta gestione del CO guidato da Mauro Detassis.Nel corso della sua lunga storia, il Trofeo Topolino ha raccolto nel proprio albo doro alcuni tra i migliori atleti internazionali, come ad esempio Tomba, Vonn, Kostelic e Innerhofer, e anche i prossimi 2-3 marzo assicura due grandi giorni di festa e spettacolo sportivo.Telefono: 0461/915880Fax: 0461/916612 Altri organizzatori: Associazione Sportiva Trofeo Topolino Sci";;;;"Manifestazioni ed eventi";;;;0;;;;;;"http://www.trofeotopolino.net|Associazione Sportiva Trofeo Topolino Sci";"Comune di Folgaria";45.916278;11.171722;;
