name;address;comune;open_hours;phone_number;website
Zeus Charging Station - Dolomeet;21 C/O Innovation Center,, LOC. ZONA INDUSTRIALE;Mal;tuesday: 08:00 - 18:00, wednesday: 08:00 - 18:00, thursday: 08:00 - 18:00, friday: 08:00 - 18:00, saturday: 08:00 - 18:00;0463901272 3384093792;
Campo sportivo comunale di Mal;Localit Molini;Mal;;;
Flying Park;Via De Gasperi, 8;Mal;;0463903033 3924860806;
Piscina Acquacenter Val di Sole;Via alla Croce, 1;Mal;sunday: 10:00 - 21:00, monday: 10:00 - 21:00, tuesday: 10:00 - 21:00, wednesday: 15:00 - 19:30, thursday: 15:00 - 19:30, friday: 15:00 - 19:30, saturday: 15:00 - 19:30;0463902545;
Stadio del ghiaccio di Mal;Localit Molin, 4;Mal;;0463901905;
Tennis Centro Val Di Sole Assoc.Sp.Dilettantistica;Via Brescia, 88;Dimaro Folgarida;sunday: 09:00 - 12:00 / 15:00 - 19:00, monday: 09:00 - 12:00 / 15:00 - 19:00, tuesday: 09:00 - 12:00 / 15:00 - 19:00, wednesday: 09:00 - 12:00 / 15:00 - 19:00, thursday: 09:00 - 12:00 / 15:00 - 19:00, friday: 09:00 - 12:00 / 15:00 - 19:00, saturday: 09:00 - 12:00 / 15:00 - 19:00;0463970004;
Trentino Wild;Via Gole, 412;Dimaro Folgarida;sunday: 09:00 - 19:00, monday: 09:00 - 19:00, tuesday: 09:00 - 19:00, wednesday: 09:00 - 19:00, thursday: 09:00 - 19:00, friday: 09:00 - 19:00, saturday: 09:00 - 19:00;3402175873 0463973278;
Campo Di Tiro - Centro Promescaiol;Strada Provinciale degli Ortioi, 1;Mezzana;sunday: 08:00 - 23:00, monday: 08:00 - 23:00, tuesday: 08:00 - 23:00, wednesday: 08:00 - 23:00, thursday: 08:00 - 23:00, friday: 08:00 - 23:00, saturday: 08:00 - 23:00;0463757451;
Centro Equitazione Alpina Val;Localit Pressenago;Pellizzano;;3386078681 0463751552;
Centro per lo sport e del tempo libero;Viale Degasperi, 163;Cles;;0463454023;
Centro Sportivo Comunale Di Mezzana;Via del Pressenach, 1;Mezzana;sunday: 09:00 - 22:00, monday: 09:00 - 22:00, tuesday: 09:00 - 22:00, wednesday: 09:00 - 22:00, thursday: 09:00 - 22:00, friday: 09:00 - 22:00, saturday: 09:00 - 22:00;0463757551;
Palaghiaccio Folgarida;Strada del Roccolo, 24;Dimaro Folgarida;sunday: 00:00 - 23:59, monday: 00:00 - 23:59, tuesday: 00:00 - 23:59, wednesday: 00:00 - 23:59, thursday: 00:00 - 23:59, friday: 00:00 - 23:59, saturday: 00:00 - 23:59;0463986113 0463986266;
Tennis Centro Val di Non Associazione Sportiva Dilettantistica;Via Quattro Ville, 3;Ville d'Anaunia;sunday: 09:00 - 12:00, tuesday: 09:00 - 12:00, wednesday: 09:00 - 12:00, thursday: 09:00 - 12:00, friday: 09:00 - 12:00, saturday: 09:00 - 12:00;3388986749;
Noleggio 5 Laghi;Via Presanella, 10;Pinzolo;tuesday: 08:30 - 19:00, wednesday: 08:30 - 19:00, thursday: 08:30 - 19:00, friday: 08:30 - 19:00, saturday: 08:30 - 19:00;0465443199;
Scuola Italiana Snowboard Zebra;Piazza Righi, 5;Pinzolo;sunday: 08:00 - 12:30 / 15:00 - 20:00, monday: 08:00 - 12:30 / 15:00 - 20:00, tuesday: 08:00 - 12:30 / 15:00 - 20:00, wednesday: 08:00 - 12:30 / 15:00 - 20:00, thursday: 08:00 - 12:30 / 15:00 - 20:00, friday: 08:00 - 12:30 / 15:00 - 20:00, saturday: 08:00 - 12:30 / 15:00 - 20:00;0465442080;
Scuola Italiana Sci 5 Laghi;Via Presanella, 10;Pinzolo;;0465440355 0465441650 0465443181;
Centro Sportivo Andalo;Via del Parco, 1;Andalo;tuesday: 08:00 - 17:00, wednesday: 08:00 - 17:00, thursday: 08:00 - 17:00, friday: 08:00 - 17:00, saturday: 08:00 - 17:00;0461585776;
Hockey Club Val Rendena Associazione Sportiv;Via allo Stadio, 21;Pinzolo;;0465500068 0465503654;
Asd Sarnonico;Viale San Lorenzo, 4;Sarnonico;tuesday: 17:00 - 21:30, wednesday: 17:00 - 21:30, thursday: 17:00 - 21:30, friday: 17:00 - 21:30, saturday: 17:00 - 21:30;3480938543;
Black Ice S.n.c. di Bettin Yuri & C.;Via al Dos Ciastel, 4;Fai della Paganella;;3292599675;
Campo sportivo di Mezzocorona;Via San Giovanni Bosco;Mezzocorona;;;
Carli Sport S.r.l.;Via Cane', 7;Mezzocorona;;0461605049;
Centro Equitazione Andalo;Via Priori, 16;Andalo;sunday: 09:00 - 12:00 / 14:00 - 18:00, monday: 09:00 - 12:00 / 14:00 - 18:00, wednesday: 09:00 - 12:00 / 14:00 - 18:00, thursday: 09:00 - 12:00 / 14:00 - 18:00, friday: 09:00 - 12:00 / 14:00 - 18:00, saturday: 09:00 - 12:00 / 14:00 - 18:00;0461585900;
Centro Sportivo Terme;Viale San Camillo;Peio;sunday: 00:00 - 23:59, monday: 00:00 - 23:59, tuesday: 00:00 - 23:59, wednesday: 00:00 - 23:59, thursday: 00:00 - 23:59, friday: 00:00 - 23:59, saturday: 00:00 - 23:59;0463753100;
Dolomiti Golf Club;Localita' Centro Sportivo Verde, 1;Sarnonico;sunday: 08:30 - 19:30, monday: 08:30 - 19:30, tuesday: 08:30 - 19:30, wednesday: 08:30 - 19:30, thursday: 08:30 - 19:30, friday: 08:30 - 19:30, saturday: 08:30 - 19:30;0463832698;
Golf Club Campo Carlo Magno;Via Cima Tosa, 15;Pinzolo;sunday: 08:00 - 18:00, monday: 08:00 - 18:00, tuesday: 08:00 - 18:00, wednesday: 08:00 - 18:00, thursday: 08:00 - 18:00, friday: 08:00 - 18:00, saturday: 08:00 - 18:00;0465440622;
Kusch S.n.c. Junior di dalla Tina Maurizio & C.;Via IV Novembre, 83;Predaia;;0463538361 0463536185;
Maneggio Ranch Roen;Via Roen;Amblar-Don;sunday: 08:00 - 20:00, monday: 08:00 - 20:00, tuesday: 08:00 - 20:00, wednesday: 08:00 - 20:00, thursday: 08:00 - 20:00, friday: 08:00 - 20:00, saturday: 08:00 - 20:00;0463830077 3395026924;
Markspeed Race di Marchesan Gianni;Via Nambino, 27;Pinzolo;;3356266636;
Palasmeraldo Fondo;Via Lago Smeraldo;Borgo d'Anaunia;sunday: 09:00 - 12:30, tuesday: 09:00 - 12:30, wednesday: 09:00 - 12:30, thursday: 09:00 - 12:30, friday: 09:00 - 12:30, saturday: 09:00 - 12:30;0463850000;
Palazzetto Polifunzionale dello Sport di Molveno;Localit Ischia;Molveno;tuesday: 08:00 - 23:00, wednesday: 08:00 - 23:00;0461586978;
Pista da Pattinaggio sul Ghiaccio;Localit Dossi;Predaia;;0463536085 3385037536;
Salone Dolores di Beltrami Dolores per Lei e per Lui;Via Vittorio Veneto, 4;Pinzolo;;337459619 347459619;
Terme di Pejo;Via delle Acque Acidule, 3;Peio;;0463753226;
Funivie Pinzolo Spa;Via Bolognini, 84;Pinzolo;sunday: 08:00 - 12:00 / 14:00 - 17:30, monday: 08:00 - 12:00 / 14:00 - 17:30, tuesday: 08:00 - 12:00 / 14:00 - 17:30, wednesday: 08:00 - 12:00 / 14:00 - 17:30, thursday: 08:00 - 12:00 / 14:00 - 17:30, friday: 08:00 - 12:00 / 14:00 - 17:30, saturday: 08:00 - 12:00 / 14:00 - 17:30;0465501256;
Scuola Italiana Sci CCM Campiglio;Via Zeledria, 8;Pinzolo;sunday: 08:00 - 19:00, monday: 08:00 - 19:00, tuesday: 08:00 - 19:00, wednesday: 08:00 - 19:00, thursday: 08:00 - 19:00, friday: 08:00 - 19:00, saturday: 08:00 - 19:00;0465443222;
