name,address,comune,open_hours,phone_number,website
Punto Fitness,"Via del Garda, 44 bis",Rovereto,"sunday: 09:30 - 17:00, tuesday: 08:00 - 22:00, wednesday: 08:00 - 22:00, thursday: 08:00 - 22:00, friday: 08:00 - 22:00, saturday: 08:00 - 22:00","3470891264, 0464430908",
Garda Sporting Club Hotel,"Via Antonio Abondio, 7",Riva del Garda,,0464552072,
2001 S.R.L.,"Via Lungo Leno Destro, 25/B",Rovereto,,0464439377,
Altogarda Golf,Localit San Tomaso,Riva del Garda,"sunday: 08:00 - 20:00, monday: 08:00 - 20:00, tuesday: 08:00 - 20:00, wednesday: 08:00 - 20:00, thursday: 08:00 - 20:00, friday: 08:00 - 20:00, saturday: 08:00 - 20:00",0365643006,
Amici Nuoto Riva,"Viale Rovereto, 45",Riva del Garda,,"3490586660, 0464311398, 0464520078, 3397376737",
Associazione Polisportiva Dilettantistica Kosmos Rovereto,"Via della Roggia, 45",Rovereto,,"0464666600, 3517595860, 3497721742, 0464942281",
Campi Da Calcio,"Via Santa Caterina, 6/4",Brentonico,,0464394051,
Campo sportivo di Mori,"Via Dante, 10",Mori,,,
Campo Sportivo Fucine a Rovereto,Via Leonardo da Vinci,Rovereto,,,
Centro di Tiro con l'Arco,"Via della Roggia, 45",Rovereto,"sunday: 10:00 - 22:00, monday: 10:00 - 22:00, tuesday: 10:00 - 22:00, wednesday: 10:00 - 22:00, thursday: 10:00 - 22:00, friday: 10:00 - 22:00, saturday: 10:00 - 22:00","3665809997, 0464421569, 0464486113",
Centro Natatorio Comunale di Rovereto,"Via Udine, 1",Rovereto,"sunday: 09:00 - 19:30, monday: 09:00 - 19:30, tuesday: 09:00 - 20:30, wednesday: 09:00 - 20:30, thursday: 09:00 - 20:30, friday: 09:00 - 20:30, saturday: 09:00 - 20:30",0464435440,
Circolo Tennis Arco,"Via Pomerio, 11",Arco,"sunday: 09:00 - 19:00, tuesday: 09:00 - 22:30, wednesday: 09:00 - 22:30, thursday: 09:00 - 22:30, friday: 09:00 - 22:30, saturday: 09:00 - 22:30",0464516824,
Circolo Tennis Rovereto Asd,"Via Lungo Leno Destro, 25",Rovereto,"sunday: 07:30 - 22:00, monday: 07:30 - 22:00, tuesday: 07:30 - 22:00, wednesday: 07:30 - 22:00, thursday: 07:30 - 22:00, friday: 07:30 - 22:00, saturday: 07:30 - 22:00","0464431045, 0464439377",
Circolo Tennis Rovereto,"Via della Roggia, 43",Rovereto,"sunday: 09:00 - 20:00, monday: 09:00 - 20:00, tuesday: 08:00 - 22:00, wednesday: 08:00 - 22:00, thursday: 08:00 - 22:00, friday: 08:00 - 22:00, saturday: 08:00 - 22:00",0464431045,
Circolo Tennis Torbole,"Strada Granda, 67",Nago-Torbole,"sunday: 08:00 - 23:00, monday: 08:00 - 23:00, tuesday: 08:00 - 23:00, wednesday: 08:00 - 23:00, thursday: 08:00 - 23:00, friday: 08:00 - 23:00, saturday: 08:00 - 23:00",3925442873,
Club Ippico San Giorgio,Localit San Giorgio Arco,Arco,"sunday: 09:00 - 12:00 / 14:00 - 19:00, monday: 09:00 - 12:00 / 14:00 - 19:00, wednesday: 09:00 - 12:00 / 14:00 - 19:00, thursday: 09:00 - 12:00 / 14:00 - 19:00, friday: 09:00 - 12:00 / 14:00 - 19:00, saturday: 09:00 - 12:00 / 14:00 - 19:00",3484438307,
Comune di Riva del Garda,"Piazza Contini Maria, 5",Riva del Garda,,0464520078,
Equiparadiso,"Localit Saccone, 4",Brentonico,,0464390147,
Golf Club Rovereto,"Viale Caproni Giovanni, 44",Rovereto,,3666432648,
Istituto Superiore Don Milani - Depero,"Via Balista, 2",Rovereto,"sunday: 08:00 - 22:00, monday: 08:00 - 22:00, tuesday: 08:00 - 22:00, wednesday: 08:00 - 22:00, thursday: 08:00 - 22:00, friday: 08:00 - 22:00, saturday: 08:00 - 22:00",0464485511,
Leno 2001,"Via Udine, 18",Rovereto,,0464400315,
Palagarda,"Via San Tommaso, 69",Riva del Garda,,"0464555772, 0464554551",
Palazzetto dello Sport,"Via Piomarta, 1",Rovereto,,"0464438055, 0464413377",
Piscina Comunale Arco,"Via Legionari Cecoslovacchi, 14",Arco,,"0464517000, 0464516830",
Piscina Comunale Enrico Meroni,"Piazza Contini Maria, 5",Riva del Garda,,0464520078,
Polisportiva Montebaldo,Via S. Caterina,Brentonico,,0464394051,
Riva S.a.s. di Schneider Wilma e C.,"Viale Tigli, 40",Riva del Garda,,"3292146937, 0464552072",
Stadio Quercia,"Via Palestrina, 3",Rovereto,,,
Tennis Club C10 Ass.Sportiva Dilettantistica,Via della Roggia,Rovereto,,0464431045,
Tennis Club,"Via San Giovanni, 20",Mori,"sunday: 09:00 - 23:00, monday: 09:00 - 23:00, tuesday: 09:00 - 23:00, wednesday: 09:00 - 23:00, thursday: 09:00 - 23:00, friday: 09:00 - 23:00, saturday: 09:00 - 23:00",0464917149,
Tennisclinic,"Via Belluno, 4",Riva del Garda,,3270808849,
Atletica Alto Garda E Ledro,"Via Pomerio, 9",Arco,"tuesday: 07:00 - 23:59, wednesday: 07:00 - 23:59, thursday: 07:00 - 23:59, friday: 07:00 - 23:59, saturday: 07:00 - 23:59",0464510346,
Societa' Sportiva Dilettantistica Golden Gym,"Via Terranera, 24/B",Mori,"sunday: 10:00 - 12:30, tuesday: 09:00 - 21:30, wednesday: 09:00 - 21:30, thursday: 09:00 - 21:30, friday: 09:00 - 21:30, saturday: 09:00 - 21:30","3398423054, 3482105688",
Stickl Sportcamp,"Via Gardesana, 144/B",Malcesine,"sunday: 08:30 - 18:00, monday: 08:30 - 18:00, tuesday: 08:30 - 18:00, wednesday: 08:30 - 18:00, thursday: 08:30 - 18:00, friday: 08:30 - 18:00, saturday: 08:30 - 18:00","0457401697, 0456570988",
Scuola Italiana Sci Folgaria,"Localit Francolini, 41",Folgaria,"tuesday: 09:00 - 13:00, wednesday: 09:00 - 13:00, thursday: 09:00 - 13:00, friday: 09:00 - 13:00, saturday: 09:00 - 13:00",0464721926,
Circolo Tennis Trento,"Via Venezia, 41/1",Trento,,3381313658,
kite centergarda lake,"Via Valle dell'Acqua, snc",Malcesine,,3454795705,
Ac Trento 1921 S.r.l.,"Via Roberto da Sanseverino, 41",Trento,,0461524993,
Ala Karting,Localit Chiesurone,Ala,"sunday: 09:00 - 12:00 / 13:30 - 17:00, monday: 09:00 - 12:00 / 13:30 - 17:00, thursday: 09:00 - 12:00 / 13:30 - 17:00, friday: 09:00 - 12:00 / 13:30 - 17:00, saturday: 09:00 - 12:00 / 13:30 - 17:00",3662263776,
Aquila Basket Trento 2013 S.r.l.,"Via Marighetto Ancilla, 28",Trento,,0461419794,
Aquila Basket Trento 2013 S.r.l.,"Via Bolghera, 37",Trento,,0461528417,
Aquila Basket Trento 2013 S.r.l.,"Via Zara, 14",Trento,,0461262253,
Aquila Basket Trento 2013 S.r.l.,"Via Fersina, 11",Trento,,0461935181,
Aquila Basket Trento 2013 S.r.l.,"Viale della Costituzione, 5",Trento,,0461437435,
Aquila Basket Trento 2013 S.r.l.,"Passaggio Clementel Ezio, 7",Trento,,0461437387,
Aquila Basket Trento 2013 S.r.l.,"Viale Olivetti Adriano, 20",Trento,,"0461527402, 0461525310",
Aquila Basket Trento 2013 S.r.l.,"Via Chini Eusebio, 59",Trento,,"0461916579, 0461931035",
Associazione Equestre Cavalcailvento,Localit Salin,Cavedine,,"3493856899, 0461568267",
Azienda Speciale per La Gestione degli Impianti Sportivi del Comune di Trento,"Via IV Novembre . Gardolo, 23",Trento,,0461959800,
Azienda Speciale per La Gestione degli Impianti Sportivi del Comune di Trento,"Via Menguzzato Veglia Clorinda, 6",Trento,,0461390785,
Azienda Speciale per La Gestione degli Impianti Sportivi del Comune di Trento,"Strada delle Viote, 1",Trento,,0461948032,
Body Planet,"Via Gentilotti Benedetto, 4",Trento,"sunday: 10:00 - 16:00, tuesday: 08:00 - 22:00, wednesday: 10:00 - 22:00, thursday: 08:00 - 22:00, friday: 10:00 - 22:00, saturday: 08:00 - 22:00",0461910096,
Boulder City Asd,"Viale Daino, 74/C",Dro,,0464507354,
Campo Baseball,"Via Fersina, 17",Trento,,0461959812,
Campo Baseball,"Via Fersina, 2",Trento,"thursday: 15:15 - 21:00, saturday: 15:15 - 21:00",0461959812,
Campo Calcio,"Via Lavisotto, 41",Trento,"sunday: 00:00 - 23:59, monday: 00:00 - 23:59, tuesday: 00:00 - 23:59, wednesday: 00:00 - 23:59, thursday: 00:00 - 23:59, friday: 00:00 - 23:59, saturday: 00:00 - 23:59",0461959812,
Campo Calcio Piedicastello,"Via Santissimi Cosma e Damiano, 107",Trento,,0461959812,
Campo Calcio San Bortolomeo,"Viale degli Olmi, 44",Trento,,0461959812,
Campo Calcio Sopramonte,"Via di Mura, 24",Trento,,0461959812,
Campo da Calcio,Via Fasse,Limone sul Garda,"sunday: 07:00 - 20:00, monday: 07:00 - 20:00, tuesday: 07:00 - 20:00, wednesday: 07:00 - 20:00, thursday: 07:00 - 20:00, friday: 07:00 - 20:00, saturday: 07:00 - 20:00",0365954008,
Campo da calcio La Pineta di Folgaria,Via De Gasperi,Folgaria,,0464723131,
Campo da Softball,Via Hubert Jedin,Trento,"tuesday: 08:30 - 12:30 / 14:30 - 17:00, wednesday: 08:30 - 12:30 / 14:30 - 17:00, thursday: 08:30 - 12:30 / 14:30 - 17:00, friday: 08:30 - 12:30 / 14:30 - 17:00, saturday: 08:30 - 12:30",0461992990,
Campo di Atletica Leggera Comunale,"Via Maccani Ezio, 2",Trento,,0461830454,
Campo di Atletica Leggera Comunale,"Piazzale Camillo Rusconi, 5",Trento,"tuesday: 08:30 - 12:30 / 14:30 - 17:00, wednesday: 08:30 - 12:30 / 14:30 - 17:00, thursday: 08:30 - 12:30 / 14:30 - 17:00, friday: 08:30 - 17:00, saturday: 08:30 - 12:30",0461959812,
Campo Felice Nensi,Via Paina,Malcesine,,,
Campo Sportivo Cristo Re,"Via Lavisotto, 41",Trento,,06992990,
Campo Sportivo Moar,"Frazione Azzolini, 82",Lavarone,"sunday: 00:00 - 23:59, monday: 00:00 - 23:59, tuesday: 00:00 - 23:59, wednesday: 00:00 - 23:59, thursday: 00:00 - 23:59, friday: 00:00 - 23:59, saturday: 00:00 - 23:59",0464783179,
Campo sportivo San Bartolomeo,Via degli Olmi,Trento,,0461992990,
Centro Ippico Il Salice,"Via Carducci Giosue', 98",Folgaria,,3487842363,
Centro Natatorio Folgaria,"Via Nazioni Unite, 21/B",Folgaria,"sunday: 15:30 - 20:30, monday: 15:30 - 20:30, tuesday: 10:00 - 21:00, wednesday: 10:00 - 21:00, thursday: 10:00 - 21:00, friday: 10:00 - 21:00, saturday: 10:00 - 21:00",0464720058,
Centro Pilates e Gyrotonic,"Piazza del Duomo, 30",Trento,"sunday: 06:30 - 21:30, monday: 06:30 - 21:30, tuesday: 06:30 - 21:30, wednesday: 06:30 - 21:30, thursday: 06:30 - 21:30, friday: 06:30 - 21:30, saturday: 06:30 - 21:30",3398683083,
Centro Sportivo Di Trilacum,"Via 12 Settembre, 6",Trento,"sunday: 08:00 - 20:00, monday: 08:00 - 20:00, tuesday: 08:00 - 20:00, wednesday: 08:00 - 20:00, thursday: 08:00 - 20:00, friday: 08:00 - 20:00, saturday: 08:00 - 20:00",0461866471,
Centro Sportivo Manazzon,"Via Fogazzaro Antonio, 2",Trento,"sunday: 09:00 - 19:00, monday: 09:00 - 13:00",0461924248,
Centro Sportivo O. Ceschi - Gabbiolo,"Via alla Cros, 10",Trento,,0461959812,
Centro sportivo Tione,"Localit Sesena, 5",Tione di Trento,,0465321023,
Centro Universitario Sportivo Trento Ass.Sp.Dilettantistica,"Via delle Regole, 101",Trento,"sunday: 09:00 - 18:00, monday: 09:00 - 13:00, tuesday: 09:00 - 23:00, wednesday: 09:00 - 23:00, thursday: 09:00 - 23:00, friday: 09:00 - 23:00, saturday: 09:00 - 23:00",0461944356,
Circolo Ippico Castel Beseno,"Via Morini, 26",Calliano,"sunday: 14:00 - 15:00, monday: 14:00 - 15:00, wednesday: 14:00 - 15:00, thursday: 14:00 - 15:00, friday: 14:00 - 15:00, saturday: 14:00 - 15:00",0464834483,
Circolo Ippico La Roccia,"Localit Pianiza, 33",Trento,"sunday: 09:00 - 19:00, monday: 09:00 - 19:00, tuesday: 09:00 - 19:00, wednesday: 09:00 - 19:00, thursday: 09:00 - 19:00, friday: 09:00 - 19:00, saturday: 09:00 - 19:00",0461913143,
Circolo Tennis Grillo,"Via San Pio X, 117",Trento,"sunday: 09:00 - 23:00, tuesday: 09:00 - 23:00, wednesday: 09:00 - 23:00, thursday: 09:00 - 23:00, friday: 09:00 - 23:00, saturday: 09:00 - 23:00",0461925234,
Circolo Tennis Ledro,"Localit Besta, 1",Ledro,"sunday: 08:00 - 20:00, monday: 08:00 - 20:00, tuesday: 08:00 - 20:00, wednesday: 08:00 - 20:00, thursday: 08:00 - 20:00, friday: 08:00 - 20:00, saturday: 08:00 - 20:00",3805235139,
Fly2fun Parapendio Biposto,Localit Sottodossi,Malcesine,,3349469757,
Golf Club Folgaria,Localit Maso Spilzi,Folgaria,,0464720480,
"Gym ""G. Pascoli""","Via Znojmo, 24",Trento,,0461992990,
Hotel Maroni,"Via Casarino, 1",Ledro,"sunday: 09:00 - 19:00, monday: 09:00 - 19:00, tuesday: 09:00 - 19:00, wednesday: 09:00 - 19:00, thursday: 09:00 - 19:00, friday: 09:00 - 19:00, saturday: 09:00 - 19:00",0464508198,
Imperial Center,"Via Maccani Ezio, 88",Trento,,"3917414107, 0461262403",
Joyfitness Club,"Localit Acquaviva, 4",Trento,"sunday: 10:00 - 17:00, tuesday: 10:00 - 22:00, wednesday: 10:00 - 22:00, thursday: 10:00 - 22:00, friday: 10:00 - 22:00, saturday: 10:00 - 22:00",3286165313,
Juta Center,"Via Galilei Galileo, 32",Trento,"sunday: 10:00 - 20:00, tuesday: 07:00 - 22:30, wednesday: 07:00 - 22:30, thursday: 07:00 - 22:30, friday: 07:00 - 22:30, saturday: 07:00 - 22:30","0461230797, 3887278568",
Madonna Bianca,"Via Bettini Angelo, 2",Trento,,0461390785,
Maestri di Sci e Snowboard Cristallo A.T.P.,"Localita' Vason, 110",Trento,,3806328814,
Maneggio H-Cadr,"Via Piave, 84",Ledro,,0464508292,
Navarini,"Via Filari Longhi, 2/A",Trento,"sunday: 00:00 - 23:59, monday: 00:00 - 23:59, tuesday: 00:00 - 23:59, wednesday: 00:00 - 23:59, thursday: 00:00 - 23:59, friday: 00:00 - 23:59, saturday: 00:00 - 23:59",0461959812,
Palafonte,"Piazza Giovanni XXIII, 7",Ala,,"0464672883, 3338386367, 0464671261, 3470021458, 0464670205",
Palaghiaccio Palafolgaria,"Via Nazioni Unite, 46",Folgaria,,0464720337,
Palasport di Folgaria,"Via Nazioni Unite, 21/B",Folgaria,,0464720277,
Palestra Povo,"Via dei Masi, 6",Trento,,0461959812,
Piastra del ghiaccio di San Valentino,Localit Mosee,Brentonico,,"0464391602, 0464395149",
Piscina Acquambiez,Localit Promeghin,San Lorenzo Dorsino,"sunday: 09:00 - 13:00 / 15:00 - 21:00, monday: 09:00 - 13:00 / 15:00 - 21:00, tuesday: 09:00 - 13:00 / 15:00 - 21:00, wednesday: 09:00 - 13:00 / 15:00 - 21:00, thursday: 09:00 - 13:00 / 15:00 - 21:00, friday: 09:00 - 13:00 / 15:00 - 21:00, saturday: 09:00 - 13:00 / 15:00 - 21:00",0465730082,
Piscina Comunale Avio,"Viale De Gasperi, 27",Avio,,0464684288,
Piscina di Ala,Piazza Giovanni XXIII,Ala,"sunday: 09:00 - 20:00, monday: 09:00 - 20:00, tuesday: 09:00 - 21:30, wednesday: 09:00 - 21:30, thursday: 09:00 - 21:30, friday: 09:00 - 21:30, saturday: 09:00 - 21:30",0464672682,
S.S. Buonconsiglio Nuoto,"Via Fogazzaro Antonio, 4",Trento,,"0461961625, 0461910464, 0461416164",
Tennis Club Ala Associaz.Sport.Dilettantistica,"Via dei Mille, 6",Ala,"sunday: 08:00 - 22:00, monday: 08:00 - 22:00, tuesday: 08:00 - 22:00, wednesday: 08:00 - 22:00, thursday: 08:00 - 22:00, friday: 08:00 - 22:00, saturday: 08:00 - 22:00",3403758921,
Tennis Club Associazione Sportiva Dilettantistica,Frazione Santa Croce,Bleggio Superiore,,3342925960,
Tennis Club Malcesine,"Via Sommavilla, 12",Malcesine,"sunday: 07:30 - 22:00, monday: 07:30 - 22:00, tuesday: 07:30 - 22:00, wednesday: 07:30 - 22:00, thursday: 07:30 - 22:00, friday: 07:30 - 22:00, saturday: 07:30 - 22:00","3516148134, 0456584136",
Trim,"Via Chini Eusebio, 99/1",Trento,"sunday: 09:00 - 12:30 / 14:30 - 18:00, tuesday: 09:00 - 21:00, wednesday: 09:00 - 21:00, thursday: 09:00 - 21:00, friday: 09:00 - 21:00, saturday: 09:00 - 21:00","0461924604, 0461912600",
Vela Centro Sportivo,Localit Vela,Trento,"sunday: 00:00 - 23:59, monday: 00:00 - 23:59, tuesday: 00:00 - 23:59, wednesday: 00:00 - 23:59, thursday: 00:00 - 23:59, friday: 00:00 - 23:59, saturday: 00:00 - 23:59",0461959812,
Palaghiaccio Palafolgaria,"Via Nazioni Unite, 46",Folgaria,,0464720337,
