name;address;comune;open_hours;phone_number;website
Campo di Golf;Via Ferme;Roncegno Terme;"""""";0461773337;
Centro Equitazione Alpina Spiado;Localit Quarazza, 1;Pieve Tesino;"""""";0461594572;
Centro Polisportivo Borgo Valsugana;Via Giuseppe Gozzer, 52;Borgo Valsugana;"""sunday: 09:00 - 21:00, monday: 09:00 - 21:00, tuesday: 09:00 - 21:00, wednesday: 09:00 - 21:00, thursday: 09:00 - 21:00, friday: 09:00 - 21:00, saturday: 09:00 - 21:00""";0461753836;
Circolo Tennis Borgo Assoc.Sport.Dilettantistica;Piazza Mercato, 12;Borgo Valsugana;"""sunday: 09:00 - 22:00, monday: 09:00 - 22:00, tuesday: 09:00 - 22:00, wednesday: 09:00 - 22:00, thursday: 09:00 - 22:00, friday: 09:00 - 22:00, saturday: 09:00 - 22:00""";0461753711;
Golf Club Tesino;Localit Coldan, 11;Pieve Tesino;"""sunday: 09:00 - 18:00, monday: 09:00 - 18:00, tuesday: 09:00 - 18:00, wednesday: 09:00 - 18:00, thursday: 09:00 - 18:00, friday: 09:00 - 18:00, saturday: 09:00 - 18:00""";3505332726;
Piscina Comunale;Via Giuseppe Gozzer, 52;Borgo Valsugana;"""""";0461241833 0461751227;
S.S.D. Rari Nantes Valsugana a R.L.;Corso Ausugum, 22;Borgo Valsugana;"""""";0461241833 0461751227;
S.S.D. Rari Nantes Valsugana a R.L.;Via Trieste, 7;Roncegno Terme;"""""";0461525178;
Piscina Comunale di Roffo Angelo;Piazzale degli Alpini, 2;Roana;"""sunday: 09:30 - 19:30, monday: 09:30 - 19:30, tuesday: 09:30 - 21:30, wednesday: 09:30 - 21:30, thursday: 09:30 - 21:30, friday: 09:30 - 21:30, saturday: 09:30 - 21:30""";3346879265 3888676170;
Arcieri di Fiemme;Localit Roda;Ziano di Fiemme;"""""";3478579908;
Associazione Maestri Sci Asiago;Via Stazione, 1;Asiago;"""""";3405985746 3458887347;
Azienda Speciale per La Gestione degli Impianti Sportivi del Comune di Trento;Piazza dalla Chiesa Carlo Alberto, 1;Levico Terme;"""""";0461708312 0461708313;
Break Point Golf Club;Localit Maso Grillo, 4;Pergine Valsugana;"""sunday: 08:30 - 21:00, monday: 08:30 - 21:00, tuesday: 08:30 - 21:00, wednesday: 08:30 - 21:00, thursday: 08:30 - 21:00, friday: 08:30 - 21:00, saturday: 08:30 - 21:00""";3474647351;
Campo;Via Latifondi;Valbrenta;"""""";;
Campo da calcio Bedolpian;Localit Bedolpian;Baselga di Pin;"""sunday: 00:00 - 23:59, monday: 00:00 - 23:59, tuesday: 00:00 - 23:59, wednesday: 00:00 - 23:59, thursday: 00:00 - 23:59, friday: 00:00 - 23:59, saturday: 00:00 - 23:59""";0461558634 3496989956;
Campo Da Calcio Regolamentare Mezzano;Via del Pian, 37;Mezzano;"""sunday: 09:00 - 19:00, tuesday: 09:00 - 19:00, wednesday: 09:00 - 19:00, thursday: 09:00 - 19:00, friday: 09:00 - 19:00, saturday: 09:00 - 19:00""";0439678068 043962407;
Campo di pattinaggio;Via Lago;Tesero;"""""";0462814064 0462812358;
Campo Ghiaccio di Pergine;Via al Ponte, 1/A;Pergine Valsugana;"""sunday: 14:00 - 16:30, monday: 14:00 - 16:30, tuesday: 14:00 - 16:30, wednesday: 14:00 - 16:30, thursday: 14:00 - 16:00, friday: 14:00 - 16:30, saturday: 14:00 - 16:30""";0461534423;
Campo Sportivo Comunale;Viale Lido;Levico Terme;"""sunday: 00:00 - 23:59, monday: 00:00 - 23:59, tuesday: 00:00 - 23:59, wednesday: 00:00 - 23:59, thursday: 00:00 - 23:59, friday: 00:00 - 23:59, saturday: 00:00 - 23:59""";0461706892;
Campo Sportivo Moar;Frazione Azzolini, 82;Lavarone;"""sunday: 00:00 - 23:59, monday: 00:00 - 23:59, tuesday: 00:00 - 23:59, wednesday: 00:00 - 23:59, thursday: 00:00 - 23:59, friday: 00:00 - 23:59, saturday: 00:00 - 23:59""";0464783179;
Centro Equitazione Airone;Localit Barco, 3;Levico Terme;"""sunday: 00:00 - 23:59, monday: 00:00 - 23:59, tuesday: 00:00 - 23:59, wednesday: 00:00 - 23:59, thursday: 00:00 - 23:59, friday: 00:00 - 23:59, saturday: 00:00 - 23:59""";3396768993;
Centro Ippico;Via dei Paludi, 22;Baselga di Pin;"""sunday: 09:00 - 12:00 / 14:00 - 19:00, monday: 09:00 - 12:00 / 14:00 - 19:00, tuesday: 09:00 - 12:00 / 14:00 - 19:00, wednesday: 09:00 - 12:00 / 14:00 - 19:00, thursday: 09:00 - 12:00 / 14:00 - 19:00, friday: 09:00 - 12:00 / 14:00 - 19:00, saturday: 09:00 - 12:00 / 14:00 - 19:00""";3470152778;
Centro Ippico Paoli;Localit Lochere, 33;Caldonazzo;"""sunday: 08:00 - 12:00 / 14:00 - 20:00, monday: 08:00 - 12:00 / 14:00 - 20:00, tuesday: 08:00 - 12:00 / 14:00 - 20:00, wednesday: 08:00 - 12:00 / 14:00 - 20:00, thursday: 08:00 - 12:00 / 14:00 - 20:00, friday: 08:00 - 12:00 / 14:00 - 20:00, saturday: 08:00 - 12:00 / 14:00 - 20:00""";0461706186 3200829633;
Centro Natatorio Pergine Valsugana;Via Marconi Guglielmo, 51;Pergine Valsugana;"""sunday: 08:00 - 20:00, monday: 08:00 - 20:00, tuesday: 06:00 - 22:00, wednesday: 07:00 - 22:00, thursday: 06:00 - 22:00, friday: 07:00 - 22:00, saturday: 06:00 - 22:00""";0461531773;
Circolo Tennis Cavalese Asd;Localit Parco della Pieve, 1;Cavalese;"""sunday: 08:00 - 23:00, monday: 08:00 - 23:00, tuesday: 08:00 - 23:00, wednesday: 08:00 - 23:00, thursday: 08:00 - 23:00, friday: 08:00 - 23:00, saturday: 08:00 - 23:00""";0462340003;
Circolo Tennis Pergine Assoc.Sport.Dilettantistica;Viale Petri, 2;Pergine Valsugana;"""""";0461532169;
Comune di Asiago;Via Stazione, 1;Asiago;"""""";042464144;
Dilettantistica Tennis Levico Terme;Localit Belvedere;Levico Terme;"""sunday: 08:00 - 23:00, monday: 08:00 - 23:00, tuesday: 08:00 - 23:00, wednesday: 08:00 - 23:00, thursday: 08:00 - 23:00, friday: 08:00 - 23:00, saturday: 08:00 - 23:00""";3394631152;
Golf Club Asiago;Via Meltar, 2;Asiago;"""""";0424462721;
Ice Rink Pin;Via dello Via dello Stadio, 17;Baselga di Pin;"""sunday: 09:00 - 12:30, tuesday: 09:00 - 12:30 / 14:00 - 16:30, wednesday: 09:00 - 12:30 / 14:00 - 16:30, thursday: 09:00 - 12:30 / 14:00 - 16:30, friday: 09:00 - 12:30 / 14:00 - 16:30, saturday: 09:00 - 12:30 / 14:00 - 16:30""";0461554167;
Ice Rink Pine';Via dello Stadio Fraz Miola 17;Baselga di Pin;"""""";0461554167;
Ice Rink Pine' S.r.l.;Frazione Miola, 17;Baselga di Pin;"""""";0461557476;
Pala Odegar;Piazza della Stazione, 1;Asiago;"""sunday: 00:00 - 23:59, monday: 00:00 - 23:59, tuesday: 00:00 - 23:59, wednesday: 00:00 - 23:59, thursday: 00:00 - 23:59, friday: 00:00 - 23:59, saturday: 00:00 - 23:59""";042464144;
Palaghiaccio di Cavalese;Via Cermis;Cavalese;"""""";0462231252 0462230407;
Palasport Gallio Calcio 5;Via Roma, 1;Gallio;"""""";;
Palazzetto di Caldonazzo;Via Marconi, 9;Caldonazzo;"""tuesday: 17:00 - 21:00, wednesday: 17:00 - 21:00, thursday: 17:00 - 21:00, friday: 17:00 - 21:00, saturday: 17:00 - 21:00""";0461718105;
Panarotta S.r.l.;Localita' Panarotta, 1;Levico Terme;"""""";3470333532;
Piscina Cavalese;Via Fratelli Bronzetti, 60;Cavalese;"""sunday: 09:00 - 21:00 / 09:30 - 20:00, monday: 09:00 - 21:00 / 09:30 - 20:00, tuesday: 09:00 - 21:00 / 09:30 - 20:00, wednesday: 09:00 - 21:00 / 09:30 - 20:00, thursday: 09:00 - 21:00 / 09:30 - 20:00, friday: 09:00 - 21:00 / 09:30 - 20:00, saturday: 09:00 - 21:00 / 09:30 - 20:00""";0462230407;
Piscina Comunale Cavalese;Via Rossini, 3;Cavalese;"""sunday: 10:00 - 20:00, monday: 10:00 - 20:00, tuesday: 09:00 - 21:00, wednesday: 09:00 - 21:00, thursday: 09:00 - 21:00, friday: 09:00 - 21:00, saturday: 09:00 - 21:00""";0462341810;
Pista Motocross;Frazione Canezza;Pergine Valsugana;"""monday: 09:00 - 12:00 / 15:00 - 18:00""";3283636093;
Rocco Angelo Gestioni Impianti Sportivi;Via Maggiore;Roana;"""sunday: 09:30 - 19:30, monday: 09:30 - 19:30, tuesday: 09:30 - 21:30, wednesday: 09:30 - 21:30, thursday: 09:30 - 21:30, friday: 09:30 - 21:30, saturday: 09:30 - 21:30""";0424450154;
Societa' per L'Amministrazione e La Gestione di Impianti Sportivi - S.A.G.I.S. S.r.l.;Localita' Lagorai, 3;Cavalese;"""""";0462341810;
S.S.D. Rari Nantes Valsugana a R.L.;Piazza dalla Chiesa Carlo Alberto, 1;Levico Terme;"""""";0461700373;
Tennis Club Asiago;Via Verdi, 19;Asiago;"""""";3662870953;
Tennis Club Fonzaso;Via Zucco A., 7;Fonzaso;"""sunday: 08:00 - 23:59, monday: 08:00 - 23:59, tuesday: 08:00 - 23:59, wednesday: 08:00 - 23:59, thursday: 08:00 - 23:59, friday: 08:00 - 23:59, saturday: 08:00 - 23:59""";04395132;
