name,address,comune,open_hours,phone_number,website
Azienda Speciale per La Gestione degli Impianti Sportivi del Comune di Trento,"Piazza dalla Chiesa Carlo Alberto, 1",Levico Terme,,"0461708312, 0461708313",
Break Point Golf Club,"Localit Maso Grillo, 4",Pergine Valsugana,"monday: 08:30 - 21:00, tuesday: 08:30 - 21:00, wednesday: 08:30 - 21:00, thursday: 08:30 - 21:00, friday: 08:30 - 21:00, saturday: 08:30 - 21:00, sunday: 08:30 - 21:00",3474647351,
Campo da calcio Bedolpian,Localit Bedolpian,Baselga di Pin,"monday: 00:00 - 23:59, tuesday: 00:00 - 23:59, wednesday: 00:00 - 23:59, thursday: 00:00 - 23:59, friday: 00:00 - 23:59, saturday: 00:00 - 23:59, sunday: 00:00 - 23:59","0461558634, 3496989956",
Campo di Golf,Via Ferme,Roncegno Terme,,0461773337,
Campo Ghiaccio di Pergine,"Via al Ponte, 1/A",Pergine Valsugana,"monday: 14:00 - 16:30, tuesday: 14:00 - 16:30, wednesday: 14:00 - 16:30, thursday: 14:00 - 16:00, friday: 14:00 - 16:30, saturday: 14:00 - 16:30, sunday: 14:00 - 16:30",0461534423,
Campo Sportivo Comunale,Viale Lido,Levico Terme,"monday: 00:00 - 23:59, tuesday: 00:00 - 23:59, wednesday: 00:00 - 23:59, thursday: 00:00 - 23:59, friday: 00:00 - 23:59, saturday: 00:00 - 23:59, sunday: 00:00 - 23:59",0461706892,
Centro Equestre Happy Ranch,Localit Lago Santo,Cembra Lisignago,"monday: 11:00 - 23:59, saturday: 18:00 - 03:00, sunday: 11:00 - 03:00",0461683518,
Centro Ippico,"Via dei Paludi, 22",Baselga di Pin,"monday: 09:00 - 12:00 / 14:00 - 19:00, tuesday: 09:00 - 12:00 / 14:00 - 19:00, wednesday: 09:00 - 12:00 / 14:00 - 19:00, thursday: 09:00 - 12:00 / 14:00 - 19:00, friday: 09:00 - 12:00 / 14:00 - 19:00, saturday: 09:00 - 12:00 / 14:00 - 19:00, sunday: 09:00 - 12:00 / 14:00 - 19:00",3470152778,
Centro Natatorio Pergine Valsugana,"Via Marconi Guglielmo, 51",Pergine Valsugana,"monday: 08:00 - 20:00, tuesday: 06:00 - 22:00, wednesday: 07:00 - 22:00, thursday: 06:00 - 22:00, friday: 07:00 - 22:00, saturday: 06:00 - 22:00, sunday: 08:00 - 20:00",0461531773,
Centro Sportivo M. Zorzi Mattarello,"Via per Castel Vedro, 3",Trento,,0461959812,
Circolo Tennis Pergine Assoc.Sport.Dilettantistica,"Viale Petri, 2",Pergine Valsugana,,0461532169,
Dilettantistica Tennis Levico Terme,Localit Belvedere,Levico Terme,"monday: 08:00 - 23:00, tuesday: 08:00 - 23:00, wednesday: 08:00 - 23:00, thursday: 08:00 - 23:00, friday: 08:00 - 23:00, saturday: 08:00 - 23:00, sunday: 08:00 - 23:00",3394631152,
Ice Rink Pin,"Via dello Via dello Stadio, 17",Baselga di Pin,"tuesday: 09:00 - 12:30 / 14:00 - 16:30, wednesday: 09:00 - 12:30 / 14:00 - 16:30, thursday: 09:00 - 12:30 / 14:00 - 16:30, friday: 09:00 - 12:30 / 14:00 - 16:30, saturday: 09:00 - 12:30 / 14:00 - 16:30, sunday: 09:00 - 12:30",0461554167,
Ice Rink Pine',Via dello Stadio Fraz Miola 17,Baselga di Pin,,0461554167,
Ice Rink Pine' S.r.l.,"Frazione Miola, 17",Baselga di Pin,,0461557476,
Panarotta S.r.l.,"Localita' Panarotta, 1",Levico Terme,,3470333532,
Pista Motocross,Frazione Canezza,Pergine Valsugana,monday: 09:00 - 12:00 / 15:00 - 18:00,3283636093,
S.S.D. Rari Nantes Valsugana a R.L.,"Piazza dalla Chiesa Carlo Alberto, 1",Levico Terme,,0461700373,
S.S.D. Rari Nantes Valsugana a R.L.,"Via Trieste, 7",Roncegno Terme,,0461525178,
Alessio Donzella Coach,"Piazza Tridente, 9",Trento,"tuesday: 08:30 - 21:00, wednesday: 08:30 - 21:00, thursday: 08:30 - 21:00, friday: 08:30 - 21:00, saturday: 08:30 - 21:00, sunday: 08:30 - 19:00",393497682763,
Scuola Italiana Sci Folgaria,"Localit Francolini, 41",Folgaria,"tuesday: 09:00 - 13:00, wednesday: 09:00 - 13:00, thursday: 09:00 - 13:00, friday: 09:00 - 13:00, saturday: 09:00 - 13:00",0464721926,
Circolo Tennis Trento,"Via Venezia, 41/1",Trento,,3381313658,
Star Club,"Via Unterveger Giambattista, 104",Trento,"monday: 05:00 - 20:00, tuesday: 05:00 - 23:00, wednesday: 05:00 - 23:00, thursday: 05:00 - 23:00, friday: 05:00 - 23:00, saturday: 05:00 - 23:00, sunday: 05:00 - 20:00",0461821284,
Centro Sportivo Andalo,"Via del Parco, 1",Andalo,"tuesday: 08:00 - 17:00, wednesday: 08:00 - 17:00, thursday: 08:00 - 17:00, friday: 08:00 - 17:00, saturday: 08:00 - 17:00",0461585776,
Ac Trento 1921 S.r.l.,"Via Roberto da Sanseverino, 41",Trento,,0461524993,
Aquila Basket Trento 2013 S.r.l.,"Via Marighetto Ancilla, 28",Trento,,0461419794,
Aquila Basket Trento 2013 S.r.l.,"Via Bolghera, 37",Trento,,0461528417,
Aquila Basket Trento 2013 S.r.l.,"Via Zara, 14",Trento,,0461262253,
Aquila Basket Trento 2013 S.r.l.,"Via Guardini Romano, 42",Trento,,0461439684,
Aquila Basket Trento 2013 S.r.l.,"Via Fersina, 11",Trento,,0461935181,
Aquila Basket Trento 2013 S.r.l.,"Viale della Costituzione, 5",Trento,,0461437435,
Aquila Basket Trento 2013 S.r.l.,"Passaggio Clementel Ezio, 7",Trento,,0461437387,
Aquila Basket Trento 2013 S.r.l.,"Viale Olivetti Adriano, 20",Trento,,"0461527402, 0461525310",
Aquila Basket Trento 2013 S.r.l.,"Via Chini Eusebio, 59",Trento,,"0461916579, 0461931035",
Associazione Sportiva Sportivando,"Via Brunner Giuseppe, 9",Trento,,0461091706,
Azienda Speciale per La Gestione degli Impianti Sportivi del Comune di Trento,"Via IV Novembre . Gardolo, 23",Trento,,0461959800,
Azienda Speciale per La Gestione degli Impianti Sportivi del Comune di Trento,"Via Menguzzato Veglia Clorinda, 6",Trento,,0461390785,
Azienda Speciale per La Gestione degli Impianti Sportivi del Comune di Trento,"Strada delle Viote, 1",Trento,,0461948032,
Black Ice S.n.c. di Bettin Yuri & C.,"Via al Dos Ciastel, 4",Fai della Paganella,,3292599675,
Body Planet,"Via Gentilotti Benedetto, 4",Trento,"sunday: 10:00 - 16:00, tuesday: 08:00 - 22:00, wednesday: 10:00 - 22:00, thursday: 08:00 - 22:00, friday: 10:00 - 22:00, saturday: 08:00 - 22:00",0461910096,
Campo Baseball,"Via Fersina, 17",Trento,,0461959812,
Campo Baseball,"Via Fersina, 2",Trento,"thursday: 15:15 - 21:00, saturday: 15:15 - 21:00",0461959812,
Campo Calcio Argentario,"Via Ponte Alto, 79",Trento,"tuesday: 08:30 - 17:00, thursday: 08:30 - 17:00, friday: 08:30 - 17:00, saturday: 08:30 - 12:30",0461992990,
Campo Calcio,"Via Lavisotto, 41",Trento,"sunday: 00:00 - 23:59, monday: 00:00 - 23:59, tuesday: 00:00 - 23:59, wednesday: 00:00 - 23:59, thursday: 00:00 - 23:59, friday: 00:00 - 23:59, saturday: 00:00 - 23:59",0461959812,
Campo Calcio Martignano,"Via Talvera, 11",Trento,"tuesday: 08:30 - 12:30 / 14:30 - 17:00, wednesday: 08:30 - 12:30 / 14:30 - 17:00, thursday: 08:30 - 12:30 / 14:30 - 17:00, friday: 08:30 - 17:00, saturday: 08:30 - 12:30",0461959812,
Campo Calcio Meano,"Via Bellaria, 9",Trento,,0461959812,
Campo Calcio Piedicastello,"Via Santissimi Cosma e Damiano, 107",Trento,,0461959812,
Campo Calcio San Bortolomeo,"Viale degli Olmi, 44",Trento,,0461959812,
Campo Calcio Sopramonte,"Via di Mura, 24",Trento,,0461959812,
Campo da calcio La Pineta di Folgaria,Via De Gasperi,Folgaria,,0464723131,
Campo da Softball,Via Hubert Jedin,Trento,"tuesday: 08:30 - 12:30 / 14:30 - 17:00, wednesday: 08:30 - 12:30 / 14:30 - 17:00, thursday: 08:30 - 12:30 / 14:30 - 17:00, friday: 08:30 - 12:30 / 14:30 - 17:00, saturday: 08:30 - 12:30",0461992990,
Campo di Atletica Leggera Comunale,"Via Maccani Ezio, 2",Trento,,0461830454,
Campo di Atletica Leggera Comunale,"Piazzale Camillo Rusconi, 5",Trento,"tuesday: 08:30 - 12:30 / 14:30 - 17:00, wednesday: 08:30 - 12:30 / 14:30 - 17:00, thursday: 08:30 - 12:30 / 14:30 - 17:00, friday: 08:30 - 17:00, saturday: 08:30 - 12:30",0461959812,
Campo Pedemonte,Via Brancafora,Pedemonte,,,
Campo Sportivo Cristo Re,"Via Lavisotto, 41",Trento,,06992990,
Campo sportivo di Mezzocorona,Via San Giovanni Bosco,Mezzocorona,,,
Campo Sportivo Moar,"Frazione Azzolini, 82",Lavarone,"sunday: 00:00 - 23:59, monday: 00:00 - 23:59, tuesday: 00:00 - 23:59, wednesday: 00:00 - 23:59, thursday: 00:00 - 23:59, friday: 00:00 - 23:59, saturday: 00:00 - 23:59",0464783179,
Campo sportivo San Bartolomeo,Via degli Olmi,Trento,,0461992990,
Carli Sport S.r.l.,"Via Cane', 7",Mezzocorona,,0461605049,
Centro Equestre Citt di Trento,"Via della Selva, 34",Trento,,,
Centro Equitazione Airone,"Localit Barco, 3",Levico Terme,"sunday: 00:00 - 23:59, monday: 00:00 - 23:59, tuesday: 00:00 - 23:59, wednesday: 00:00 - 23:59, thursday: 00:00 - 23:59, friday: 00:00 - 23:59, saturday: 00:00 - 23:59",3396768993,
Centro Equitazione Alpina Spiado,"Localit Quarazza, 1",Pieve Tesino,,0461594572,
Centro Equitazione Andalo,"Via Priori, 16",Andalo,"sunday: 09:00 - 12:00 / 14:00 - 18:00, monday: 09:00 - 12:00 / 14:00 - 18:00, wednesday: 09:00 - 12:00 / 14:00 - 18:00, thursday: 09:00 - 12:00 / 14:00 - 18:00, friday: 09:00 - 12:00 / 14:00 - 18:00, saturday: 09:00 - 12:00 / 14:00 - 18:00",0461585900,
Centro Ippico Il Salice,"Via Carducci Giosue', 98",Folgaria,,3487842363,
Centro Ippico Paoli,"Localit Lochere, 33",Caldonazzo,"sunday: 08:00 - 12:00 / 14:00 - 20:00, monday: 08:00 - 12:00 / 14:00 - 20:00, tuesday: 08:00 - 12:00 / 14:00 - 20:00, wednesday: 08:00 - 12:00 / 14:00 - 20:00, thursday: 08:00 - 12:00 / 14:00 - 20:00, friday: 08:00 - 12:00 / 14:00 - 20:00, saturday: 08:00 - 12:00 / 14:00 - 20:00","0461706186, 3200829633",
Centro Natatorio Folgaria,"Via Nazioni Unite, 21/B",Folgaria,"sunday: 15:30 - 20:30, monday: 15:30 - 20:30, tuesday: 10:00 - 21:00, wednesday: 10:00 - 21:00, thursday: 10:00 - 21:00, friday: 10:00 - 21:00, saturday: 10:00 - 21:00",0464720058,
Centro Pilates e Gyrotonic,"Piazza del Duomo, 30",Trento,"sunday: 06:30 - 21:30, monday: 06:30 - 21:30, tuesday: 06:30 - 21:30, wednesday: 06:30 - 21:30, thursday: 06:30 - 21:30, friday: 06:30 - 21:30, saturday: 06:30 - 21:30",3398683083,
Centro Polisportivo Borgo Valsugana,"Via Giuseppe Gozzer, 52",Borgo Valsugana,"sunday: 09:00 - 21:00, monday: 09:00 - 21:00, tuesday: 09:00 - 21:00, wednesday: 09:00 - 21:00, thursday: 09:00 - 21:00, friday: 09:00 - 21:00, saturday: 09:00 - 21:00",0461753836,
Centro Sportivo Di Trilacum,"Via 12 Settembre, 6",Trento,"sunday: 08:00 - 20:00, monday: 08:00 - 20:00, tuesday: 08:00 - 20:00, wednesday: 08:00 - 20:00, thursday: 08:00 - 20:00, friday: 08:00 - 20:00, saturday: 08:00 - 20:00",0461866471,
Centro Sportivo M. Zorzi Mattarello,"Via del Capitel, 3",Trento,"tuesday: 08:30 - 12:30 / 14:30 - 17:00, wednesday: 08:30 - 12:30 / 14:30 - 17:00, thursday: 08:30 - 12:30 / 14:30 - 17:00, friday: 08:30 - 12:30 / 14:30 - 17:00, saturday: 08:30 - 12:30",0461959812,
Centro Sportivo Manazzon,"Via Fogazzaro Antonio, 2",Trento,"sunday: 09:00 - 19:00, monday: 09:00 - 13:00",0461924248,
Centro Sportivo Melta,"Via 25 Aprile, 10",Trento,,0461959812,
Centro Sportivo O. Ceschi - Gabbiolo,"Via alla Cros, 10",Trento,,0461959812,
Centro Sportivo Trento Nord Gardolo,"Via IV Novembre, 23/4",Trento,"sunday: 09:00 - 21:00, monday: 09:00 - 21:00, tuesday: 09:00 - 21:00, wednesday: 09:00 - 21:00, thursday: 09:00 - 21:00, friday: 09:00 - 21:00, saturday: 09:00 - 21:00",0461959812,
Centro Universitario Sportivo Trento Ass.Sp.Dilettantistica,"Via delle Regole, 101",Trento,"sunday: 09:00 - 18:00, monday: 09:00 - 13:00, tuesday: 09:00 - 23:00, wednesday: 09:00 - 23:00, thursday: 09:00 - 23:00, friday: 09:00 - 23:00, saturday: 09:00 - 23:00",0461944356,
Circolo Ippico La Roccia,"Localit Pianiza, 33",Trento,"monday: 09:00 - 19:00, tuesday: 09:00 - 19:00, wednesday: 09:00 - 19:00, thursday: 09:00 - 19:00, friday: 09:00 - 19:00, saturday: 09:00 - 19:00, sunday: 09:00 - 19:00",0461913143,
Circolo Tennis Borgo Assoc.Sport.Dilettantistica,"Piazza Mercato, 12",Borgo Valsugana,"monday: 09:00 - 22:00, tuesday: 09:00 - 22:00, wednesday: 09:00 - 22:00, thursday: 09:00 - 22:00, friday: 09:00 - 22:00, saturday: 09:00 - 22:00, sunday: 09:00 - 22:00",0461753711,
Circolo Tennis Calisio,"Via Pradiscola, 1",Trento,"monday: 09:00 - 23:00, tuesday: 09:00 - 23:00, wednesday: 09:00 - 23:00, thursday: 09:00 - 23:00, friday: 09:00 - 23:00, saturday: 09:00 - 23:00, sunday: 09:00 - 23:00",0461820040,
Circolo Tennis Cavalese Asd,"Localit Parco della Pieve, 1",Cavalese,"monday: 08:00 - 23:00, tuesday: 08:00 - 23:00, wednesday: 08:00 - 23:00, thursday: 08:00 - 23:00, friday: 08:00 - 23:00, saturday: 08:00 - 23:00, sunday: 08:00 - 23:00",0462340003,
Circolo Tennis Grillo,"Via San Pio X, 117",Trento,"tuesday: 09:00 - 23:00, wednesday: 09:00 - 23:00, thursday: 09:00 - 23:00, friday: 09:00 - 23:00, saturday: 09:00 - 23:00, sunday: 09:00 - 23:00",0461925234,
Circolo Tennis Lavarone A.S.D.,"Frazione Gionghi, 107",Lavarone,"monday: 00:00 - 23:59, tuesday: 00:00 - 23:59, wednesday: 00:00 - 23:59, thursday: 00:00 - 23:59, friday: 00:00 - 23:59, saturday: 00:00 - 23:59, sunday: 00:00 - 23:59",0464724146,
Ecosport Italia S.r.l.,"Via Avisio, 24",Trento,,"0438837210, 043882778, 3295459087",
Golf Club Folgaria,Localit Maso Spilzi,Folgaria,,0464720480,
Golf Club Tesino,"Localit Coldan, 11",Pieve Tesino,"monday: 09:00 - 18:00, tuesday: 09:00 - 18:00, wednesday: 09:00 - 18:00, thursday: 09:00 - 18:00, friday: 09:00 - 18:00, saturday: 09:00 - 18:00, sunday: 09:00 - 18:00",3505332726,
"Gym ""G. Pascoli""","Via Znojmo, 24",Trento,,0461992990,
Imperial Center,"Via Maccani Ezio, 88",Trento,,"3917414107, 0461262403",
Joyfitness Club,"Localit Acquaviva, 4",Trento,"tuesday: 10:00 - 22:00, wednesday: 10:00 - 22:00, thursday: 10:00 - 22:00, friday: 10:00 - 22:00, saturday: 10:00 - 22:00, sunday: 10:00 - 17:00",3286165313,
Juta Center,"Via Galilei Galileo, 32",Trento,"tuesday: 07:00 - 22:30, wednesday: 07:00 - 22:30, thursday: 07:00 - 22:30, friday: 07:00 - 22:30, saturday: 07:00 - 22:30, sunday: 10:00 - 20:00","0461230797, 3887278568",
Madonna Bianca,"Via Bettini Angelo, 2",Trento,,0461390785,
Maestri di Sci e Snowboard Cristallo A.T.P.,"Localita' Vason, 110",Trento,,3806328814,
Navarini,"Via Filari Longhi, 2/A",Trento,"monday: 00:00 - 23:59, tuesday: 00:00 - 23:59, wednesday: 00:00 - 23:59, thursday: 00:00 - 23:59, friday: 00:00 - 23:59, saturday: 00:00 - 23:59, sunday: 00:00 - 23:59",0461959812,
Palaghiaccio di Cavalese,Via Cermis,Cavalese,,"0462231252, 0462230407",
Palaghiaccio Palafolgaria,"Via Nazioni Unite, 46",Folgaria,,0464720337,
Palasport di Folgaria,"Via Nazioni Unite, 21/B",Folgaria,,0464720277,
Palazzetto di Caldonazzo,"Via Marconi, 9",Caldonazzo,"tuesday: 17:00 - 21:00, wednesday: 17:00 - 21:00, thursday: 17:00 - 21:00, friday: 17:00 - 21:00, saturday: 17:00 - 21:00",0461718105,
Palestra Povo,"Via dei Masi, 6",Trento,,0461959812,
Piscina Cavalese,"Via Fratelli Bronzetti, 60",Cavalese,"monday: 09:00 - 21:00 / 09:30 - 20:00, tuesday: 09:00 - 21:00 / 09:30 - 20:00, wednesday: 09:00 - 21:00 / 09:30 - 20:00, thursday: 09:00 - 21:00 / 09:30 - 20:00, friday: 09:00 - 21:00 / 09:30 - 20:00, saturday: 09:00 - 21:00 / 09:30 - 20:00, sunday: 09:00 - 21:00 / 09:30 - 20:00",0462230407,
Piscina Comunale Cavalese,"Via Rossini, 3",Cavalese,"monday: 10:00 - 20:00, tuesday: 09:00 - 21:00, wednesday: 09:00 - 21:00, thursday: 09:00 - 21:00, friday: 09:00 - 21:00, saturday: 09:00 - 21:00, sunday: 10:00 - 20:00",0462341810,
Piscina Comunale,"Via Giuseppe Gozzer, 52",Borgo Valsugana,,"0461241833, 0461751227",
SEIK G.M.B.H. - S.R.L.,"Zona San Lugano, 6",Trodena nel Parco Naturale,,"0471887087, 0471887040",
SEIK G.M.B.H. - S.R.L.,"Zona Artigianale, 26",Trodena nel Parco Naturale,,0471887087,
Societa' per L'Amministrazione e La Gestione di Impianti Sportivi - S.A.G.I.S. S.r.l.,"Localita' Lagorai, 3",Cavalese,,0462341810,
Sportarena Unterland,"Via Brenner, 7",Egna,,"0471820900, 0471813614, 0471813613",
Sportarena Unterland,"Via Brennero, 7",Egna,,"0471813625, 0471820900, 0471813613, 0471823224, 0471813614, 3382285799",
S.S. Buonconsiglio Nuoto,"Via Fogazzaro Antonio, 4",Trento,,"0461961625, 0461910464, 0461416164",
S.S. Buonconsiglio Nuoto,"Via IV Novembre, 23",Trento,,"0461416162, 0461910464, 0461961625, 0461416164, 0461416163",
S.S.D. Rari Nantes Valsugana a R.L.,"Corso Ausugum, 22",Borgo Valsugana,,"0461241833, 0461751227",
Studio Tecnico Associato Gasperotti di Ing. Dott. Gasperotti Luca ed Ing. Dott. Gasperotti Giorgio,"Salita S. Agata, 23",Trento,,0461811409,
Tennisclub Dilettanti Laghetti,"Via Cauria, 57",Egna,,3407433050,
Tennisclub Neumarkt,"Via Schiesstandweg, 4",Egna,,0471812438,
Trim,"Via Chini Eusebio, 99/1",Trento,"sunday: 09:00 - 12:30 / 14:30 - 18:00, tuesday: 09:00 - 21:00, wednesday: 09:00 - 21:00, thursday: 09:00 - 21:00, friday: 09:00 - 21:00, saturday: 09:00 - 21:00","0461924604, 0461912600",
Vela Centro Sportivo,Localit Vela,Trento,"sunday: 00:00 - 23:59, monday: 00:00 - 23:59, tuesday: 00:00 - 23:59, wednesday: 00:00 - 23:59, thursday: 00:00 - 23:59, friday: 00:00 - 23:59, saturday: 00:00 - 23:59",0461959812,
Wild Goose Stadium,"Via Roma, 14",Egna,,0471812649,
Woody Valley S.r.l.,Localita' Spini,Trento,,0461950811,
Woody Valley S.r.l.,"Via Vienna, 92",Trento,,360041005200,
Palaghiaccio Palafolgaria,"Via Nazioni Unite, 46",Folgaria,,0464720337,
A.S.I.S.,"Via IV Novembre, 23/4",Trento,,"0461992888, 0461959799, 0461992990",
