name;address;comune;open_hours;phone_number;website
Campo di pattinaggio;Via Lago;Tesero;;0462812358 0462814064;
El Zerilo Ranch;Localit Stava;Tesero;;0462814649 3343535108;
Arcieri di Fiemme;Localit Roda;Ziano di Fiemme;;3478579908;
Circolo Tennis Cavalese Asd;Localit Parco della Pieve, 1;Cavalese;sunday: 08:00 - 23:00, monday: 08:00 - 23:00, tuesday: 08:00 - 23:00, wednesday: 08:00 - 23:00, thursday: 08:00 - 23:00, friday: 08:00 - 23:00, saturday: 08:00 - 23:00;0462340003;
Ippico Fontanelle;Via Lagorai, 117;Predazzo;;3357057094;
Palaghiaccio di Cavalese;Via Cermis;Cavalese;;0462230407 0462231252;
Piscina Cavalese;Via Fratelli Bronzetti, 60;Cavalese;sunday: 09:00 - 21:00 / 09:30 - 20:00, monday: 09:00 - 21:00 / 09:30 - 20:00, tuesday: 09:00 - 21:00 / 09:30 - 20:00, wednesday: 09:00 - 21:00 / 09:30 - 20:00, thursday: 09:00 - 21:00 / 09:30 - 20:00, friday: 09:00 - 21:00 / 09:30 - 20:00, saturday: 09:00 - 21:00 / 09:30 - 20:00;0462230407;
Piscina Comunale Cavalese;Via Rossini, 3;Cavalese;sunday: 10:00 - 20:00, monday: 10:00 - 20:00, tuesday: 09:00 - 21:00, wednesday: 09:00 - 21:00, thursday: 09:00 - 21:00, friday: 09:00 - 21:00, saturday: 09:00 - 21:00;0462341810;
Progetto Lavaze' S.r.l.;Passo di Lavaze';Ville di Fiemme;;0462230447;
SEIK G.M.B.H. - S.R.L.;Zona San Lugano, 6;Trodena nel Parco Naturale;;0471887087 0471887040;
SEIK G.M.B.H. - S.R.L.;Zona Artigianale, 26;Trodena nel Parco Naturale;;0471887087;
Societa' per L'Amministrazione e La Gestione di Impianti Sportivi - S.A.G.I.S. S.r.l.;Localita' Lagorai, 3;Cavalese;;0462341810;
Weisshorn S.p.a. % Weisshorn A.G.;Via Obereggen - Eggen, 31;Nova Ponente;;0471615511 0471615627 0471615122;
Fiera Bolzano S.p.a.;Piazza Fiera, 1;Bolzano;;3346954229 0471516000;
Paintball Sdtirol;Via Maso della Pieve, 5;Bolzano;;3336889299 3488843134 3461028816;
Ristorante Forst Fiera;Messeplatz 1 Bozen;Bolzano;;0471932292;
Asv Tiers;Via Georg Strasse, 25;Tires;sunday: 00:00 - 23:59, monday: 00:00 - 23:59, tuesday: 00:00 - 23:59, wednesday: 00:00 - 23:59, thursday: 00:00 - 23:59, friday: 00:00 - 23:59, saturday: 00:00 - 23:59;3491404634;
A.S.V. Tramin - Sektion Tennis;Via Weinstrasse, 154;Termeno sulla Strada del Vino;;0471860812;
Asv Welschnofen - Sektion Tennis Raiffeisen;Via Dolomitenstrasse, 26/A;Nova Levante;;0471613273;
Bolzano Nuoto;Via Maso della Pieve, 11;Bolzano;;0471250171;
Campo ghiaccio naturale;Via Laghetto, 40;Primiero San Martino di Castrozza;;0439769312;
Campo Sportivo Pfarrhof - Maso della Pieve;Via Maso della Pieve, 11;Bolzano;sunday: 00:00 - 23:59, monday: 00:00 - 23:59, tuesday: 00:00 - 23:59, wednesday: 00:00 - 23:59, thursday: 00:00 - 23:59, friday: 00:00 - 23:59, saturday: 00:00 - 23:59;0471251926 335252614;
Circolo Tennis Cassa di Risparmio;Via San Giacomo, 158;Laives;sunday: 09:00 - 23:00, monday: 09:00 - 23:00, tuesday: 09:00 - 23:00, wednesday: 09:00 - 23:00, thursday: 09:00 - 23:00, friday: 09:00 - 23:00, saturday: 09:00 - 23:00;0471251565;
Comune di Caldaro sulla Strada del Vino;Via Castelvecchio, 45;Caldaro sulla Strada del Vino;;0471961114;
Comune di Moena;Piazza De Navalge;Moena;;0462574013;
Frasnelli Kart S.r.l.;Ischia Frizzi, 3/A;Vadena;;3356069288;
Golf Club Petersberg;Via Unterwinkel, 5;Nova Ponente;;0471615122;
Golfclub Carezza;Via Carezza, 171;Nova Levante;;04711888167 3664648302;
Hotel Markushof S.a.s. di Graiff Markus & C.;Via Truidn, 1;Ora;;0471814243 047181243 0471802872 0471810272 0471810025;
Impianti Falcade Col Margherita S.p.a.;Localita' Pian della Sussistenza, 1;Falcade;;0437599585;
Leichtathletik Ssv - Leifers;Via Pietralba, 64;Laives;;0471952434;
Palaghiaccio;Via Rio Nero, 7;Ora;;0471802022;
Palaonda;Via Galvani, 34;Bolzano;sunday: 08:00 - 20:00, tuesday: 08:00 - 20:00, wednesday: 08:00 - 20:00, thursday: 08:00 - 20:00, friday: 08:00 - 20:00, saturday: 08:00 - 20:00;0471914813 0471913968;
Piscina Comunale;Via Rio Nero, 1;Ora;;3490058257 3492637459;
Pista da ghiaccio Maso della Pieve;Via Maso della Pieve, 11;Bolzano;sunday: 09:00 - 22:00, monday: 09:00 - 22:00, tuesday: 09:00 - 22:00, wednesday: 09:00 - 22:00, thursday: 09:00 - 22:00, friday: 09:00 - 22:00, saturday: 09:00 - 22:00;0471250598;
Polisportiva Pineta;Via Aldo Moro, 9;Laives;sunday: 08:00 - 22:00, monday: 08:00 - 22:00, tuesday: 08:00 - 22:00, wednesday: 08:00 - 22:00, thursday: 08:00 - 22:00, friday: 08:00 - 22:00, saturday: 08:00 - 22:00;0471951633;
Sportarena Unterland;Via Brenner, 7;Egna;;0471813613 0471820900 0471813614;
Sportarena Unterland;Via Brennero, 7;Egna;;0471813614 0471813613 3382285799 0471820900 0471823224 0471813625;
Sportcenter;Via del Campo Sportivo, 16;Aldino;;0471886072;
Technoalpin S.p.a.;Via Vurza, 5;Laives;;0471254236;
Tennis Academy Service A.S.D.;Via Nazionale, 23;Bronzolo;sunday: 08:00 - 22:00, tuesday: 08:00 - 22:00, wednesday: 08:00 - 22:00, thursday: 08:00 - 22:00, friday: 08:00 - 22:00, saturday: 08:00 - 22:00;3283786609;
Tennis Club Bronzolo Branzoll Sportiva Dilettantistica;Via Aldino, 23;Bronzolo;;3474479818 0471967351 3317351051;
Tennis Club Moena;Localit Navalge;Moena;sunday: 10:00 - 12:00 / 14:00 - 18:00, monday: 10:00 - 12:00 / 14:00 - 18:00, tuesday: 10:00 - 12:00 / 14:00 - 18:00, wednesday: 10:00 - 12:00 / 14:00 - 18:00, thursday: 10:00 - 12:00 / 14:00 - 18:00, friday: 10:00 - 12:00 / 14:00 - 18:00, saturday: 10:00 - 12:00 / 14:00 - 18:00;0462574013;
Tennis Club Ora;Localita' Rio Nero, 1;Ora;;0471810272;
Tennis Sparer;Via Monticolo, 80;Appiano sulla Strada del Vino;sunday: 09:00 - 22:00, monday: 09:00 - 18:00, tuesday: 09:00 - 22:00, wednesday: 09:00 - 22:00, thursday: 09:00 - 22:00, friday: 09:00 - 22:00, saturday: 09:00 - 22:00;3387629002 0471664657;
Tennisclub Dilettanti Laghetti;Via Cauria, 57;Egna;;3407433050;
Tennisclub Neumarkt;Via Schiesstandweg, 4;Egna;;0471812438;
Weisshorn S.p.a. % Weisshorn A.G.;Localita' Unterrain, 5;Nova Ponente;;0471615122;
Wild Goose Stadium;Via Roma, 14;Egna;;0471812649;
Zelger Albert S.r.l.;Localit Stenk,, 6/C;Nova Ponente;;0471618084 04711969950;
Zelger Albert;Localita' Stenk, 6;Nova Ponente;;0471618084 04711969950;
