remoteId,published,modified,Titolo,"Titolo breve",Sottotitolo,Descrizione,Testo,Inizio,Termine,Durata,Quando,Orario,Dove,Location,Informazioni,Destinatari,Costi,Stato,Tipologia,Materia,"Tipo evento",Immagine,"Manifestazione collegata (numero)","Manifestazione collegata (testo)",Manifestazione,Associazione,"Immagine correlata",Progressivo,Link,Comune,lat,lon,address,Fonte
91dbb09ea2bdb2f04cf2aff4fd785517,2015-03-14T16:00:00+01:00,2015-06-10T15:49:00+02:00,"L'angolo morbido",,"Per tutti i genitori con bambine e bambini di età compresa tra gli 0 e i 3 anni (ma sono benvenuti anche sorelle e fratelli maggiori!), la Comunità della Paganella organizza in collaborazione con la Cooperativa Sociale Tagesmutter del Trentino – Il Sorriso, nell’ambito del progetto Intrecci in Comunità… conoscenza e accoglienza, una serie di incontri itineranti nei 5 Comuni dell’altopiano, nel pomeriggio di ogni secondo sabato del mese.","TAGESMUTTER DI MOLVENO","http://www.comunita.paganella.tn.it/content/download/145295/2483910/1/ANGOLO MORBIDO.pdf",2015-03-14T16:00:00+01:00,2015-03-14T18:00:00+01:00,,,,,interno,,,,,,,,/var/comunitapaganella/storage/images/comunita-della-paganella/aree-tematiche/mondo-famiglia/eventi-mondo-famiglia/l-angolo-morbido10/2483925-1-ita-IT/L-angolo-morbido.jpg,0,,,,,,,,46.141734,10.965146,molveno,
48a5942d980f4fa5462928e48affea07,2015-02-26T10:15:00+01:00,2015-02-26T16:01:26+01:00,"Hansel e Gretel (dei fratelli Grimm) messo in scena dal Teatro Laboratorio del Mago, di Mantova",,"Molveno a Teatro - stagione teatrale 2014-2015, chiama a raccolta tutte le scuole materne dell'altopiano!","Prossimo spettacolo, organizzato dalla biblioteca e dedicato ai bambini e alle bambine di tutte le scuole materne dell'altopiano: Hansel e Gretel dei fratelli Grimm messo in scena dalla compagnia Teatro Laboratorio del Mago, di Mantova. Appuntamento per lunedì 2 marzo alle ore 10.00 presso la Sala Congressi di Molveno",,2015-02-26T10:15:00+01:00,2015-02-26T11:30:00+01:00,,,,,interno,,"Riservato alle scuole d'infanzia dell'altopiano della Paganella",,,,,,/var/comunitapaganella/storage/images/comunita-della-paganella/il-territorio-della-paganella/eventi/hansel-e-gretel-dei-fratelli-grimm-messo-in-scena-dal-teatro-laboratorio-del-mago-di-mantova/2383472-2-ita-IT/Hansel-e-Gretel-dei-fratelli-Grimm-messo-in-scena-dal-Teatro-Laboratorio-del-Mago-di-Mantova.jpg,0,,,,,"Laboratorio del Mago",http://www.laboratoriodelmago.it/index2.htm,,46.13857,10.95892,"via lungolago 27 molveno",
2a5fec56c3fba44affae0613b211f622,2015-02-14T16:00:00+01:00,2015-06-10T15:49:24+02:00,"L'angolo morbido",,"Per tutti i genitori con bambine e bambini di età compresa tra gli 0 e i 3 anni (ma sono benvenuti anche sorelle e fratelli maggiori!), la Comunità della Paganella organizza in collaborazione con la Cooperativa Sociale Tagesmutter del Trentino – Il Sorriso, nell’ambito del progetto Intrecci in Comunità… conoscenza e accoglienza, una serie di incontri itineranti nei 5 Comuni dell’altopiano, nel pomeriggio di ogni secondo sabato del mese.","BIBLIOTECA DI SPORMAGGIORE","http://www.comunita.paganella.tn.it/content/download/145296/2483940/1/ANGOLO MORBIDO.pdf",2015-02-14T16:00:00+01:00,2015-02-14T18:00:00+01:00,,,,,interno,,,,,,,,/var/comunitapaganella/storage/images/comunita-della-paganella/aree-tematiche/mondo-famiglia/eventi-mondo-famiglia/l-angolo-morbido11/2483965-1-ita-IT/L-angolo-morbido.jpg,0,,,,,,,,46.217032,11.047589,spormaggiore,
ff634944c6af009726e38e6efd4f7938,2015-01-17T16:00:00+01:00,2015-06-10T15:49:54+02:00,"L'angolo morbido",,"Per tutti i genitori con bambine e bambini di età compresa tra gli 0 e i 3 anni (ma sono benvenuti anche sorelle e fratelli maggiori!), la Comunità della Paganella organizza in collaborazione con la Cooperativa Sociale Tagesmutter del Trentino – Il Sorriso, nell’ambito del progetto Intrecci in Comunità… conoscenza e accoglienza, una serie di incontri itineranti nei 5 Comuni dell’altopiano, nel pomeriggio di ogni secondo sabato del mese.","TAGESMUTTER DI CAVEDAGO","http://www.comunita.paganella.tn.it/content/download/145298/2483983/1/ANGOLO MORBIDO.pdf",2015-01-17T16:00:00+01:00,2015-01-17T18:00:00+01:00,,,,,interno,,,,,,,,/var/comunitapaganella/storage/images/comunita-della-paganella/aree-tematiche/mondo-famiglia/eventi-mondo-famiglia/l-angolo-morbido12/2483998-1-ita-IT/L-angolo-morbido.jpg,0,,,,,,,,46.18362,11.028348,CAVEDAGO,
7fe6ac15f8714d31707a3e9042b05a52,2014-11-07T20:00:00+01:00,2014-11-05T11:42:10+01:00,"Alcide De Gasperi. La buona politica",,"Venerdì 7 novembre alle ore 20.00, la sala Consiliare di Cavedago ospiterà la conferenza del prof. Romano Viola sul grande statista italiano ed europeo."," 
Il Comune di Cavedago - Assessorato alla cultura, propone un'interessante appuntamento su Alcide De Gasperi, da molti considerato il più importante statista italiano del '900. A parlarne sarà il prof. Romano Viola, originario di Cavedago. Nato a Villadossola nel 1941, Viola è stato insegnante di filosofia a Bolzano, dove ha ricoperto l’incarico di segretario provinciale del sindacato CGIL-scuola negli anni Settanta. Dal 1980 al 1985 ha occupato un seggio in Consiglio comunale a Bolzano come rappresentante del PCI, dal 1988 al 1998 ha fatto parte del Consiglio provinciale, del quale nel 1993 venne eletto presidente. Dal 1993 al 1998 è stato assessore della Giunta provinciale e ha partecipato ai lavori di numerose commissioni legislative. È autore di vari scritti sull'Autonomia in Alto Adige.",,2014-11-07T20:00:00+01:00,,,,,,interno,,"Tutti gli interessati",Gratuito,,,Storia,Conferenza,/var/comunitapaganella/storage/images/comunita-della-paganella/il-territorio-della-paganella/eventi/alcide-de-gasperi.-la-buona-politica/2274300-1-ita-IT/Alcide-De-Gasperi.-La-buona-politica.jpg,0,,,,,,,,46.18362,11.028348,cavedago,
2b36cd0a35341078f866fe29fae6cc12,2014-10-12T08:00:00+02:00,2014-09-12T12:34:37+02:00,"Corso di arrampicata in falesia",,"Iscriviti al corso, partecipa alle lezioni nelle giornate del 27 settembre, 4-5 e 12 ottobre 2014, per due uscite diurne e un pernottamento.","Che tu abbia provato o non sappia ancora se ti piace l'arrampicata, questo corso saprà svelarti i segreti dell'ascesa lungo la parete rocciosa: la prima lezione in falesia ti impegnerà il pomeriggio di sabato 27 settembre in Val delle Giudicarie, per un esordio sulle norme di sicurezza e le manovre essenziali, il secondo appuntamento prevede la partenza sabato 4 ottobre, con cena e pernottamento in rifugio nel contesto dolomitico: domenica 5 ottobre si approfondiranno i temi dell'arrampicata su vie a più tiri e della differenza dalla falesia, domenica 12 ottobre, ultimo incontro per conoscere la &quot,Regina del Lago&quot,: suggestiva falesia in Val di Ledro. Scopri qui tutte le info",,2014-10-12T08:00:00+02:00,,,,,,interno,,,,,,,,/var/comunitapaganella/storage/images/comunita-della-paganella/aree-tematiche/area-giovani/calendario-per-i-giovani/corso-di-arrampicata-in-falesia2/2210083-1-ita-IT/Corso-di-arrampicata-in-falesia.jpg,0,,,,,,,,0,0,,
073ddb052d2ae2b71ecf9e6b1797466b,2014-10-04T08:00:00+02:00,2014-09-12T12:31:22+02:00,"Corso di arrampicata in falesia",,"Iscriviti al corso, partecipa alle lezioni nelle giornate del 27 settembre, 4-5 e 12 ottobre 2014, per due uscite diurne e un pernottamento.","Che tu abbia provato o non sappia ancora se ti piace l'arrampicata, questo corso saprà svelarti i segreti dell'ascesa lungo la parete rocciosa: la prima lezione in falesia ti impegnerà il pomeriggio di sabato 27 settembre in Val delle Giudicarie, per un esordio sulle norme di sicurezza e le manovre essenziali, il secondo appuntamento prevede la partenza sabato 4 ottobre, con cena e pernottamento in rifugio nel contesto dolomitico: domenica 5 ottobre si approfondiranno i temi dell'arrampicata su vie a più tiri e della differenza dalla falesia, domenica 12 ottobre, ultimo incontro per conoscere la &quot,Regina del Lago&quot,: suggestiva falesia in Val di Ledro.",,2014-10-04T08:00:00+02:00,2014-10-05T19:00:00+02:00,,,,,interno,,,,,,,,,0,,,,,,,,0,0,,
9dc458fd95f224bf9616b0cbd130428c,2014-09-27T13:00:00+02:00,2014-09-12T12:28:46+02:00,"Corso di arrampicata",,"Iscriviti al corso, partecipa alle lezioni nelle giornate del 27 settembre, 4-5 e 12 ottobre 2014, per due uscite diurne e un pernottamento.","Che tu abbia provato o non sappia ancora se ti piace l'arrampicata, questo corso saprà svelarti i segreti dell'ascesa lungo la parete rocciosa: la prima lezione in falesia ti impegnerà il pomeriggio di sabato 27 settembre in Val delle Giudicarie, per un esordio sulle norme di sicurezza e le manovre essenziali, il secondo appuntamento prevede la partenza sabato 4 ottobre, con cena e pernottamento in rifugio nel contesto dolomitico: domenica 5 ottobre si approfondiranno i temi dell'arrampicata su vie a più tiri e della differenza dalla falesia, domenica 12 ottobre, ultimo incontro per conoscere la &quot,Regina del Lago&quot,: suggestiva falesia in Val di Ledro. Scopri qui tutte le info",,2014-09-27T13:00:00+02:00,2014-09-27T19:00:00+02:00,,,,,interno,,,,,,,,/var/comunitapaganella/storage/images/comunita-della-paganella/aree-tematiche/area-giovani/calendario-per-i-giovani/corso-di-arrampicata/2209990-2-ita-IT/Corso-di-arrampicata.jpg,0,,,,,,,,0,0,,
pat_2552698,2014-09-12T00:00:00+02:00,2014-07-06T01:02:13+02:00,"Il laboratorio della natura",,,,,2014-09-12T00:00:00+02:00,2014-09-12T00:00:00+02:00,,,"ore 15.30","Sito archeologico di Doss Castel, , Fai della Paganella",,"
Note: Archeologia Estate 2014
Ogni venerdì dal 6 giugno al 12 settembre, ore 15.30
Il laboratorio della natura: piante, fiori da osservare, conoscere e gustarePrenotazione obbligatoria entro le ore 17 del giorno prima dellattività agli uffici ACTIVITY di Molveno ed Andalo, tel. 0461 585353, www activitytrentino.itTelefono: 0461/492161Altri organizzatori: P.A. T. Soprintendenza per i Beni culturali - Ufficio Beni archeologici",,,,"Manifestazioni ed eventi",,,,0,,,,,,,"Comune di Fai della Paganella",0,0,,
pat_2556535,2014-08-28T00:00:00+02:00,2014-07-12T01:01:35+02:00,"Buskers e artisti di strada",,,,,2014-08-28T00:00:00+02:00,2014-08-28T00:00:00+02:00,,,"ore 17.00-23.00","Vie del centro storico, , Andalo",,"
Note: Arriva il Barbatàngheri
Trasformano la strada in un teatro, le piazzette in un palcoscenico, trasfigurano i passanti distratti in un pubblico meravigliato...
Questi sono i buskers, questo è il teatro di strada che proponiamo nei mesi di luglio e agosto nei centri storici di Andalo e Molveno. Giocolieri, mangiafuoco, musicisti, mimi, burattinai e acrobati provenienti dall'Italia e da vari paesi europei si esibiranno in street performance audaci, tenere e divertenti, e toccherà al pubblico di ogni età premiarli con sorrisi e applausi, onorando il &quot,cappello&quot, dei più bravi con monete tintinnanti (e magari banconote...)
Non mancate, Signore e Signori!
3 luglio
Teatro del Molino (Brasile - Italia)
Panda Jazz (Milano)
Dario Zisa Conte Von Tok (Vicenza)
Clown Barabba (Croazia)
10 luglio
I Quattro Elementi 
Lalize - Alincirco 
I Mattacchioni Volanti Gera Circus Telefono: 0461/585275 (Biblioteca Intercomunale Alopiano Paganella Brenta) Fax: 0461/589627Altri organizzatori: Biblioteca Intercomunale Altopiano Paganella Brenta",,,,"Manifestazioni ed eventi",,,,0,,,,,,"http://www.bibliopaganella.it/|Biblioteca Intercomunale Altopiano Paganella Brenta","Comune di Andalo",0,0,,"Redazione Trentino Cultura"
pat_2543642,2014-08-09T00:00:00+02:00,2014-06-15T01:00:33+02:00,"#Albeinmalga: Malga Spora",,,,,2014-08-09T00:00:00+02:00,2014-08-09T00:00:00+02:00,,,,"Malga Spora, , Spormaggiore",,"
Note: #Albeinmalga
Info e prenotazioni: 
Apt Dolomiti di Brenta Paganella
Tel. 0461 585836info@visitdolomitipaganella.it",,,,"Manifestazioni ed eventi",,,,0,,,,,,http://www.visittrentino.it/albeinmalga,"Comune di Spormaggiore",0,0,,
pat_2556560,2014-08-08T00:00:00+02:00,2014-07-12T01:02:30+02:00,Verdi!,,,,,2014-08-08T00:00:00+02:00,2014-08-08T00:00:00+02:00,,,"ore 21.00 (in caso di maltempo Sala Consiliare del Municipio)","Piazza San Lorenzo, , Cavedago",,"
Note: Arriva il Barbatàngheri
Teatro medico-ipnotico (Bologna)
Verdi!
Tecnica usata: Burattini tradizionaliImmaginiamo Giuseppe Verdi e Richard Wagner a passeggio per Parma mentre discutono di melodramma e tragedia. Il Maestro si accalora un po' troppo andandosene in malo modo e così Wagner decide di dare una lezione a lui e a tutta la città: sguinzaglia il suo feroce cane Tannhauser per scatenare l'apocalisse. Dopo tante distruzioni viene messa una taglia sul cane infernale, ma solo un uomo riuscirà a domarlo e a liberare così la città dall'ondata di ultra-violenza.Telefono: 0461/585275 (Biblioteca Intercomunale Alopiano Paganella Brenta) Fax: 0461/589627Altri organizzatori: Biblioteca Intercomunale Altopiano Paganella Brenta",,,,Teatro,,,,0,,,,,,"http://www.bibliopaganella.it/|Biblioteca Intercomunale Altopiano Paganella Brenta","Comune di Cavedago",0,0,,"Redazione Trentino Cultura"
pat_2556539,2014-08-08T00:00:00+02:00,2014-07-12T01:01:54+02:00,"Buskers e artisti di strada",,,,,2014-08-08T00:00:00+02:00,2014-08-08T00:00:00+02:00,,,"ore 10.00-19.00","Vie del centro storico, , Molveno",,"
Note: Arriva il Barbatàngheri
Trasformano la strada in un teatro, le piazzette in un palcoscenico, trasfigurano i passanti distratti in un pubblico meravigliato...
Questi sono i buskers, questo è il teatro di strada che proponiamo nei mesi di luglio e agosto nei centri storici di Andalo e Molveno. Giocolieri, mangiafuoco, musicisti, mimi, burattinai e acrobati provenienti dall'Italia e da vari paesi europei si esibiranno in street performance audaci, tenere e divertenti, e toccherà al pubblico di ogni età premiarli con sorrisi e applausi, onorando il &quot,cappello&quot, dei più bravi con monete tintinnanti (e magari banconote...)Non mancate, Signore e Signori!Telefono: 0461/585275 (Biblioteca Intercomunale Alopiano Paganella Brenta) Fax: 0461/589627Altri organizzatori: Biblioteca Intercomunale Altopiano Paganella Brenta",,,,"Manifestazioni ed eventi",,,,0,,,,,,"http://www.bibliopaganella.it/|Biblioteca Intercomunale Altopiano Paganella Brenta","Comune di Molveno",0,0,,"Redazione Trentino Cultura"
pat_2556557,2014-08-07T00:00:00+02:00,2014-07-12T01:02:40+02:00,"Appeso a un filo",,,,,2014-08-07T00:00:00+02:00,2014-08-07T00:00:00+02:00,,,"ore 21.00","Teatro Parrocchiale, , Spormaggiore",,"
Note: Arriva il Barbatàngheri
Di Filippo Marionette (Italia-Spagna)
Appeso a un filo
Autore, produttore e regista: Remo Di Filippo
Creatore Marionette: Remo Di Filippo
Operatore di luce e suono: Santiago Durieux
Costumi: Daniela Sergiacomi
Tecnica usata: marionette a filo.
Sette marionette, attraverso la manipolazione dellattore-marionettista, danno vita a una successione di storie e situazioni sempre diverse, poetiche e surreali. Uno spettacolo pieno di poesia, ingenuo poiché genuino, delicato e intimo. Lo sguardo, diretto sulle marionette, è una messa a fuoco che porta ad una dimensione introspettiva, e trasporta altrove. I piedi del marionettista, sempre presenti sullo sfondo, sostengono l'attaccamento di questa nuvola al terreno. Viene voglia di disporsi orizzontalmente come volatili che, spiccando il volo, hanno il privilegio di altri punti di vista.Remo di Filippo arriva dal mondo del teatro, si laurea al Dams Teatro di Bologna e negli ultimi quindici anni frequenta corsi di tutti i tipi, sperimentando la commedia dellarte, la maschera neutra, la maschera larvaria, la pantomima, la magia , la giocoleria, la voce e il movimento dellattore. Lavora con varie compagnie teatrali italiane come attore e nel 2010 si avvicina al mondo del teatro di figura e delle marionette grazie alla scoperta di un piccolo e affascinate laboratorio nascosto nel centro di Barcellona.Telefono: 0461/585275 (Biblioteca Intercomunale Alopiano Paganella Brenta) Fax: 0461/589627Altri organizzatori: Biblioteca Intercomunale Altopiano Paganella Brenta",,,,Teatro,,,,0,,,,,,"http://www.bibliopaganella.it/|Biblioteca Intercomunale Altopiano Paganella Brenta","Comune di Spormaggiore",0,0,,"Redazione Trentino Cultura"
pat_2556555,2014-08-06T00:00:00+02:00,2014-07-12T01:01:41+02:00,"Alle porte del Paradiso",,,,,2014-08-06T00:00:00+02:00,2014-08-06T00:00:00+02:00,,,"ore 21.00 (in caso di maltempo Palazzetto Polivalente)","Arena del Bosco, , Fai della Paganella",,"
Note: Arriva il Barbatàngheri
Teatro alla Panna (Ancona)
Alle porte del Paradiso
Tecnica usata: Burattini in baracca e attori
L'ultimo spettacolo della non prolifica compagnia.
Il più discusso, quello che a loro piace di più.
E al pubblico? Un vecchio lasciato all'ospizio, l'insofferenza e i suoi deliri, i suoi sbiaditi ricordi, la morte.La trama è stramata: le giornate trascorrono, il tempo si annulla nella estrema vecchiezza e il presente svanisce con la perdita della memoria. Comico, drammatico, evanescente come la vita.Telefono: 0461/585275 (Biblioteca Intercomunale Alopiano Paganella Brenta) Fax: 0461/589627Altri organizzatori: Biblioteca Intercomunale Altopiano Paganella Brenta",,,,Teatro,,,,0,,,,,,"http://www.bibliopaganella.it/|Biblioteca Intercomunale Altopiano Paganella Brenta","Comune di Fai della Paganella",0,0,,"Redazione Trentino Cultura"
pat_2540523,2014-08-04T00:00:00+02:00,2014-05-14T01:01:31+02:00,"Mario Brunello, Isabelle Faust, Danusha Waskiewicz",,,,,2014-08-04T00:00:00+02:00,2014-08-04T00:00:00+02:00,,,"ore 14.00","Rifugio Tommaso Pedrotti alla Tosa, Dolomiti di Brenta, Molveno",,"
Note: I Suoni delle Dolomiti
I concerti delle 14
Mario Brunello, Isabelle Faust, Danusha Waskiewicz
Le Variazioni Goldberg per trio d'archi
Dopo il trekking del 2012 sul Cevedale, Mario Brunello e Isabelle Faust sono di nuovo insieme per condividere unaltra appassionante avventura musicale. Questa volta cè con loro la violista tedesca Danusha Waskiewicz, alla sua prima esperienza concertistica sulle Dolomiti. Il trio si cimenta in una affascinante impresa: lesecuzione delle celebri Variazioni Goldberg di Johann Sebastian Bach.
Luogo: Rifugio Tommaso Pedrotti alla Tosa
Quota: 2.491 m
Gestore: Franco Nicolini
Tel: 0461 948115
Come arrivare
da Molveno a piedi risalendo la Val delle Seghe lungo il sentiero 319 
ore 4,30 di cammino, dislivello 1.500 metri, difficoltà EE
o con bidonvia, che aprirà alle ore 7 per loccasione, e poi a piedi seguendo il segnavia 340 e 319 
ore 4 di cammino, dislivello 1.000 metri, difficoltà EE
Escursione 
con le Guide Alpine passando dai Rifugi Croz dellAltissimo e Selvata
ore 4 di cammino, dislivello 1.100 metri, difficoltà E
info e prenotazione 0461 586924
Recupero
ore 21 Sala Congressi Lido di Molveno
Info 
0461 585836  586924 
www.visitdolomitipaganella.it
**
Uniniziativa
Trentino Turismo e Promozione
APT Dolomiti Paganella
Parco Naturale Adamello Brenta
Comune Molveno
Società Incremento Turistico Molveno
Molveno HolidayFunivie Molveno Pradel SpaTelefono: 0461/219300Altri organizzatori: Trentino Sviluppo spa - in collaborazione con le Apt di ambito e i Consorzi Pro Loco, oltre a numerose istituzioni locali",,,,Musica,,,,0,,,,,,"http://www.isuonidelledolomiti.it|Trentino Sviluppo spa - in collaborazione con le Apt di ambito e i Consorzi Pro Loco, oltre a numerose istituzioni locali","Comune di Molveno",0,0,,"Redazione Trentino Cultura"
pat_2556551,2014-08-01T00:00:00+02:00,2014-07-12T01:01:38+02:00,"Sisto, miseria e la creatura 2.0",,,,,2014-08-01T00:00:00+02:00,2014-08-01T00:00:00+02:00,,,"ore 21.00","Teatro Parrocchiale, , Spormaggiore",,"
Note: Arriva il Barbatàngheri
L'aprisogni (Treviso)
Sisto, miseria e la creatura 2.0
Di e Con: Paolo Saldari
Regia: Cristina Cason
Tecnica usata: Burattini in baracca e attriceIl dottor Pinkerton e la sua splendida moglie Penelope si accingono a trasferirsi nella casa che hanno appena acquistata allasta. Lo stabile è vecchio e tetro, ma i giovani sposi progettano di risistemarlo: con qualche lavoretto si trasformerà nel loro nido damore! Una telefonata della vecchia madre ipocondriaca allontana però Penelope dal trasloco, Pinkerton si troverà così ad affrontare la situazione unicamente con l'aiuto del giardiniere Sisto e del cuoco Miseria. Pasticcioni e litigiosi come sono, i due combinano un monte di guai e si bastonano in continuazione. Pinkerton, genio dell'ingegneria genetica, estenuato da questi comportamenti, fantastica di costruire il burattino &quot,perfetto&quot,, intelligente, carismatico, che reciti con voce impostata: la Creatura 2.0. Si chiude nel suo laboratorio e dà inizio all'audace progetto. Ma ecco che ritorna, dopo un sabba durato mille anni, la strega, vera proprietaria della casa. Una spericolata giostra di situazioni travolgerà i personaggi e farà decollare nella comicità più irresistibile lo spettacolo verso un lieto fine inaspettato e rutilante. Un &quot,FRANKENSTEIN&quot, burattinesco e demenziale, come mai ve lo sareste immaginato!Telefono: 0461/585275 (Biblioteca Intercomunale Alopiano Paganella Brenta) Fax: 0461/589627Altri organizzatori: Biblioteca Intercomunale Altopiano Paganella Brenta",,,,Teatro,,,,0,,,,,,"http://www.bibliopaganella.it/|Biblioteca Intercomunale Altopiano Paganella Brenta","Comune di Spormaggiore",0,0,,"Redazione Trentino Cultura"
pat_2556548,2014-07-31T00:00:00+02:00,2014-07-12T01:02:05+02:00,"Che ScotchATURA!",,,,,2014-07-31T00:00:00+02:00,2014-07-31T00:00:00+02:00,,,"ore 21.00 (in caso di maltempo Sala Consiliare del Municipio)","Piazza San Lorenzo, , Cavedago",,"
Note: Arriva il Barbatàngheri
Eccentrici di Dadarò
Che ScotchATURA! 
di e con Dadde Visconti
regia Francesca Zoccarato
burattini Brina Babini
collaborazione regia burattini Luca RongaÈ un omaggio al clown russo Slava Polunin, che con il suo Slava's Snowshow ha entusiasmato pochi mesi fa al Teatro Sociale un pubblico di tutte le età. Vincitore del Concorso nazionale Cantieri di strada 2012, Che ScotchATURA! è uno spettacolo nello spettacolo. Boris, burattinaio d'antica tradizione, arriva in piazza, saluta il pubblico e si prepara. Tra cinque minuti s'inizia! Sistema l'orologio, il cartellone, la valigia ma cosa succede? Spuntano lettere da ogni dove e Boris, involontario clown, dovrà combattere contro gli oggetti che sembrano vivere di vita propria, ribellandosi al suo volere. Sarà l'aiuto del suo fidato nastro adesivo a permettergli di vincere la battaglia e così, anche se malconcio, potrà finalmente iniziare.Telefono: 0461/585275 (Biblioteca Intercomunale Alopiano Paganella Brenta) Fax: 0461/589627Altri organizzatori: Biblioteca Intercomunale Altopiano Paganella Brenta",,,,Teatro,,,,0,,,,,,"http://www.bibliopaganella.it/|Biblioteca Intercomunale Altopiano Paganella Brenta","Comune di Cavedago",0,0,,"Redazione Trentino Cultura"
pat_2556546,2014-07-28T00:00:00+02:00,2014-07-12T01:02:02+02:00,Raperonzola,,,,,2014-07-28T00:00:00+02:00,2014-07-28T00:00:00+02:00,,,"ore 21.00 (in caso di maltempo Palazzetto Polivalente)","Arena del Bosco, , Fai della Paganella",,"
Note: Arriva il Barbatàngheri
Erba Matta (Savona)
Raperonzola
Tecnica usata: Teatro d'attore e figuraLa storia che raccontiamo ha origini antiche (le prime forme risalgono al 1600) e, come spesso accade, si è diffusa in tutta Europa con alcune variazioni, ma i personaggi e i luoghi sono rimasti gli stessi. Lo scrittore italiano Cesare Basile nel 1600 scrisse PETROSINELLA, Italo Calvino ripropose nella raccolta fiabe italiane PREZZEMOLINA e in Germania i Fratelli Grimm scrivono RAPERONZOLO. Ed è proprio da questa versione che siamo partiti a realizzare uno spettacolo frizzante e ricco di comicità. Uno spettacolo dedicato alla figura femminile, alle madri, alle figlie e alle  orche! RAPERONZOLA è l'avventura di una fanciulla dalle lunghe trecce e di un'orca che la tiene prigioniera in una torre, ma arriverà un principe che la libererà. Su questa semplice trama abbiamo realizzato uno sviluppo scenografico magico agli occhi di chi guarda. Dentro ad una specie di torre di Babele che gira su se stessa, ispirata alle sculture dell'artista trentino Pietro Weber, si tutta la storia. I protagonisti sono grandi pupazzi mossi a vista dal narratore che convive con loro: raccontando, litigando e muovendo tutto in una armonia di suoni e rumori che caratterizzano i vari stati d'animo. È uno spettacolo comico e poetico che promuove una riflessione: la vita è un ciclo continuo dove ne finisce uno comincia l'altro.Telefono: 0461/585275 (Biblioteca Intercomunale Alopiano Paganella Brenta) Fax: 0461/589627Altri organizzatori: Biblioteca Intercomunale Altopiano Paganella Brenta",,,,Teatro,,,,0,,,,,,"http://www.bibliopaganella.it/|Biblioteca Intercomunale Altopiano Paganella Brenta","Comune di Fai della Paganella",0,0,,"Redazione Trentino Cultura"
pat_2556542,2014-07-23T00:00:00+02:00,2014-07-12T01:01:57+02:00,"Il grande trionfo di Fagiolino",,,,,2014-07-23T00:00:00+02:00,2014-07-23T00:00:00+02:00,,,"ore 21.00 (in caso di maltempo Palazzetto Polivalente)","Arena del Bosco, , Fai della Paganella",,"
Note: Arriva il Barbatàngheri
Teatro del Drago (Ravenna)
Il grande trionfo di Fagiolino
Tecnica usata: Burattini in baracca
Lo spettacolo di burattini tradizionali Emiliani &quot,Il grande trionfo di Fagiolino pastore e guerriero&quot, è rappresentato dal burattinaio solista Mauro Monticelli della Compagnia &quot,Teatro del Drago&quot, di Ravenna. È una produzione del 1988 che ha conseguito molto successo in Italia ed è inoltre stato segnalato in alcuni importanti Festivals internazionali per la ricerca nel campo della tradizione della commedia burattinesca.
Questo spettacolo, dalla trama molto semplice, proviene da un vecchio canovaccio del burattinaio bolognese Angelo Cuccoli (metà '800).
&quot,Il caso più curioso, cari cinni e cari adulteri, l'è quello che vedrete proprio adesso in tal casot di buratéin, e ciovè io mè Fagiolino Fan Fan squattrinato e senza un baiocco, con tanta fame da vendere e niente soldi da spendere, guarir n'a pranzipessa e diventar tota in t'una volta un re !!! ...&quot,.
Con queste battute di presentazione si apre la storia di Fagiolino che con tanta fortuna è diventato uno dei più ricchi agricoltori del regno di Tracia.
Nel frattempo il Mago Norandino viene rifiutato come sposo dalla bella Altea, Principessa nel regno di Tracia, per vendetta il terribile Mago, con una stregoneria ... toglie la favella alla Principessa.
Fagiolino aiutato da una Fata di nome Alcina, andrà prima a rubar la &quot,nocciolina fatata&quot, al Diavolo Farfarello e poi a guarir la Principessa.
Ovviamente alla fine affronterà anche il Mago Norandino a suon di sane randellate.
Si concluderà lo spettacolo con Fagiolino pastore che diventerà prode guerriero e sposo prediletto della bella Altea.E per concludere ... il balletto finale! Musica maestro !!!Telefono: 0461/585275 (Biblioteca Intercomunale Alopiano Paganella Brenta) Fax: 0461/589627Altri organizzatori: Biblioteca Intercomunale Altopiano Paganella Brenta",,,,Teatro,,,,0,,,,,,"http://www.bibliopaganella.it/|Biblioteca Intercomunale Altopiano Paganella Brenta","Comune di Fai della Paganella",0,0,,"Redazione Trentino Cultura"
70ae0c1c7d5440d759c2060827091acd,2014-06-06T20:30:00+02:00,2014-05-19T14:59:13+02:00,"5 storie per dar voce al cambiamento",,"
Incontro con Afra Slanzi“Ammalarsi, capire e guarire: un ritorno a casa”.","Afra Slanzi è bibliotecaria esperta di letteratura giovanile per vent'anni. Poi, lascia l’impiego a seguito di una dolorosa malattia: la ricerca di una cura la porta a scoprire il Metodo Bertelè, di cui diventa interprete e apprezzata terapeuta. Oggi si prende cura delle persone.",http://www.comunita.paganella.tn.it/content/download/113673/2054648/2/manifesto_pari_opportunità.pdf,2014-06-06T20:30:00+02:00,,,,,,interno,,,,,,,,/var/comunitapaganella/storage/images/comunita-della-paganella/aree-tematiche/pari-opportunita/eventi/5-storie-per-dar-voce-al-cambiamento3/2054663-1-ita-IT/5-storie-per-dar-voce-al-cambiamento.jpg,0,,,,,,,,46.178281,11.069331,"fai della paganella",
efac9e5d9cedc38416c58d7edd8e4fca,2014-05-28T20:30:00+02:00,2014-05-19T14:52:54+02:00,"5 storie per dar voce al cambiamento",,"Incontro con Sibilla Mastrangelo e Stefano Delugan","
Sibilla Mastrangelo era una funzionaria pubblica dei Beni Culturali. Ha lasciato quel lavoro per “mettere su&quot, un'azienda zootecnica. Oggi ha più di 100 caprette da latte, fa formaggi, frequenta il Mercato Contadino.Stefano Delugan, dopo un'impegnativa scelta di vita, è oggi tecnico esperto di agricoltura: cura i castagni, si occupa di vigneti, orti biologici e biodinamici, di rotazioni agrarie, di erbe aromatiche e di essenze.",http://www.comunita.paganella.tn.it/content/download/113671/2054613/1/manifesto_pari_opportunità.pdf,2014-05-28T20:30:00+02:00,,,,,,interno,,,,,,,,/var/comunitapaganella/storage/images/comunita-della-paganella/aree-tematiche/pari-opportunita/eventi/5-storie-per-dar-voce-al-cambiamento2/2054628-1-ita-IT/5-storie-per-dar-voce-al-cambiamento.jpg,0,,,,,,,,46.178281,11.069331,"fai della paganella",
ddceffbb9d76c9526196f6382cffc22d,2014-05-26T20:30:00+02:00,2014-05-19T14:54:10+02:00,"5 storie per dar voce al cambiamento",,"Incontro con Maria Cheyenne Daprà ed Elisabetta Foradori
Cheyenne: Mi sento la giardiniera alternativa della valle.Elisabetta: Come mi definirei? Una custode della terra.","Maria Cheyenne Daprà nasce in Baviera, frequenta una scuola steineriana di Wangen, poi una scuola per pastori e lavora come transumante nella Foresta Nera e in Svizzera, oggi è pastora nelle Valli del Trentino. La sua vita è diventata un film-documentario.Elisabetta Foradori intraprende la scuola di enologia a San Michele all’Adige e alla fine degli anni Ottanta inizia la sua vita in azienda. A metà degli anni Novanta decide di abbracciare la filosofia biodinamica di Rudolf Steiner, oggi la sua azienda è certificata per il biologico e biodinamica.",http://www.comunita.paganella.tn.it/content/download/113663/2054520/6/manifesto_pari_opportunità.pdf,2014-05-26T20:30:00+02:00,,,,,"Biblioteca di Fai della Paganella",interno,,,,,,,,/var/comunitapaganella/storage/images/comunita-della-paganella/aree-tematiche/pari-opportunita/eventi/5-storie-per-dar-voce-al-cambiamento/2054535-1-ita-IT/5-storie-per-dar-voce-al-cambiamento.jpg,0,,,,,,,,46.178281,11.069331,"fai della paganella",
pat_2533029,2014-05-18T00:00:00+02:00,2014-05-01T01:08:17+02:00,"Palazzi Aperti a Molveno",,,,,2014-05-18T00:00:00+02:00,2014-05-18T00:00:00+02:00,,,,"Chiesetta di S. Vigilio e Palazzo Saracini, , Molveno",,"
Note: Palazzi Aperti
Domenica 11 maggio 2014 ore 11.00
CHIESETTA DI S. VIGILIO
Uno dei beni culturali tutelati del Trentino, fu edificata nel XIII secolo e dedicata al vescovo di Trento Vigilio. Linterno è caratterizzato dalla presenza contestuale di unantica chiesa in stile romanico del XIII secolo e di una successiva in stile gotico risalente al 1536.
Ritrovo c/o Piazza della Chiesa.
Visita guidata gratuita con la dott.ssa Silvia Tait
Domenica 18 maggio 2014 ore 11.00
PALAZZO SARACINI
Visita alla seicentesca residenza nobiliare dei Conti Saracini nel Centro storico di Molveno, ora sede della Parrocchia.
Ritrovo c/o Piazza della Chiesa.
Visita guidata gratuita con la dott.ssa Silvia Tait
Info
Comune di Molveno tel. 0461.586936www.comune.molveno.tn.itTelefono: 0461/586936Altri organizzatori: Comune di Molveno",,,,"Manifestazioni ed eventi",,,,0,,,,,,"http://www.comune.molveno.tn.it|Comune di Molveno","Comune di Molveno",0,0,,
pat_2540459,2014-05-17T00:00:00+02:00,2014-05-14T01:04:40+02:00,"Slow Food Day",,,,,2014-05-17T00:00:00+02:00,2014-05-17T00:00:00+02:00,,,"ore 9.00","Casa Santel, , Fai della Paganella",,"
Note: Slow Food Trentino Alto Adige invita allo SLOW FOOD DAY, giunto ormai alla sua quarta edizione! &quot,Abbiamo pensato di vivere insieme una giornata speciale alla scoperta delle piante spontanee commestibili. Il programma prevede al mattino una passeggiata alla ricerca delle piante spontanee commestibili nei prati, coltivi e boschi di Fai della Paganella, accompagnati dal naturalista Giorgio Perini che ci guiderà nel riconoscimento. Nel pomeriggio ci sarà un laboratorio di riconoscimento delle specie e la preparazione di una mousse dolce alle erbe. E il pranzo? Imperdibile!
MENU PRANZO A BASE DI ERBE SPONTANEE DELLA STAGIONE
Antipasto e verdura
Pane alla trigonella fatto a mano con lievitazione naturale e salsette di erbe selvatiche
Insalata con erbe selvatiche e fiori
 
Primo piatto
Spatzle alle erbe selvatiche condito con burro e salvia spagnola
 
Secondo
Polenta di con farina Spin della Valsugana pasticciata con formaggio ed erbe selvatiche accompagnata da fagioli varietà locale coltivata dall'azienda agricola biologica Perlot con santoreggia montana e formaggi dell'azienda agricola Le Mandre di Bedollo
 
Dolce
Pan di Spagna con crema al limone e fiori.
 
Un infuso di menta marocchina sarà la bevanda che accompagnerà questo pranzo speciale.
 
La quota di partecipazione all'intera giornata è di 35  per i soci Slow Food e di 45  per chi ancora non lo fosse. Per chi lo volesse sarà possibile associarsi a solo 25  direttamente domenica.
Per iscrivervi compilate il seguente MODULO &gt,&gt, entro il 14 maggio!Per informazioni scrivere a alessiacapozzi.ac@gmail.com",,,,"Manifestazioni ed eventi",,,,0,,,,,,http://slowfoodtrentinoaltoadige.it/,"Comune di Fai della Paganella",0,0,,
pat_2497850,2014-03-02T00:00:00+01:00,2014-03-01T01:00:51+01:00,"Ballo di Carnevale",,,,,2014-03-02T00:00:00+01:00,2014-03-02T00:00:00+01:00,,,"ore 21.00","Palazzetto polifunzionale, , Fai della Paganella",,"
Note: In occasione del Carnevale, una serata danzante per tutte le età: dal liscio alla musica popolare e moderna, con laccompagnamento musicale di Piergiorgio Lunelli e Alessio Dicaro.
Chi desidera può truccarsi o indossare una maschera!!INGRESSO GRATUITO!!!Telefono: 0461/583130 (APT )",,,,Danza,,,,0,,,,,,http://www.visitdolomitipaganella.it,"Comune di Fai della Paganella",0,0,,"Redazione Trentino Cultura"
pat_2497848,2014-03-01T00:00:00+01:00,2014-03-01T01:00:44+01:00,"Carnevale a Molveno",,,,,2014-03-01T00:00:00+01:00,2014-03-01T00:00:00+01:00,,,"ore 14.45","Piazza Scuole, , Molveno",,"
Note: Il Gruppo Giovani Molveno presenta &quot,CARNIVAL PARTY 2014&quot,
 Lasciate a casa i vostri vestiti abituali e mascheratevi con noi!!!! 
 
Programma:
Ore 14.45: SFILATA IN MASCHERA per le vie del paese con giochi e intrattenimento per grandi e piccini (La sfilata parte da &quot,Piazza Scuole&quot,).
Ore 15.15: &quot,INDOVINA IL PESO&quot, (in &quot,Piazza Chiesa&quot,), in palio &quot,Na peza de Speck&quot,, vin brulè, the caldo e tanti dolci fatti in casa!! (Si ringrazia anticipatamente coloro che daranno la propria disponibiiltà coi dolci!)
Ore 21.00: la sera persso &quot,Alpotel Venezia Molveno&quot, Karaoke, balli di gruppo...Dalle ore 23.00 alle ore 02.00 musica a 360° con &quot,Niko S Dj.Telefono: 0461/583130 (APT )",,,,"Manifestazioni ed eventi",,,,0,,,,,,http://www.visitdolomitipaganella.it,"Comune di Molveno",0,0,,"Redazione Trentino Cultura"
pat_2497785,2014-03-01T00:00:00+01:00,2014-02-28T01:01:37+01:00,"La tv dei Toni Marci",,,,,2014-03-01T00:00:00+01:00,2014-03-01T00:00:00+01:00,,,"ore 21.00","Sala Congressi, via Lungolago, Molveno",,"
Note: Toni Marci di Trento
La Tv dei Toni Marci
spettacolo di cabaret
&quot,La Tv dei Toni Marci&quot, è uno spettacolo comico, della durata di 80 minuti circa, che prende spunto da una serie di parodie di note trasmissioni televisive (Chi vuol vincere un Contributo? Provini del Grande Fratello. Tg Regionale e Tg Gusto. Guinness dei primati!), momenti musicali e sportivi (Finale Olimpica dei 100 metri piano) all'interno dei quali si intrecciano vite di personaggi caratteristici, noir ed esilaranti: un becchino con l'hobby della poesia, un ragazzo ümile e tacitürno alla ricerca dell'anima gemella, un miope fanatico dei quiz a premi. Tutto questo condito da un dialogo con il pubblico sempre frizzante e mai volgare, all'insegna di una sana risata.
Franco, Gabriele e Marcello sono l'unico trio comico trentino.
Uniti da una forte amicizia e dalla passione per la comicità, dopo una decennale esperienza teatrale decidono di dedicarsi al cabaret e debuttano nel 2007 come trio comico &quot,I Toni Marci&quot,.
I Toni Marci sono autori, attori e interpreti di personaggi e sketch originali, si esibiscono in serate d'intrattenimento comico in diversi locali, teatri e piazze, cene e convention, fiere e feste.
Dal 2009 sono Direttori Artistici delle stagioni comiche di &quot,Punto.Cabaret&quot, presso il locale Video.music.lounge Ventuno.uno di Trento.
Dal 2010 presentato le selezioni e le finali regionali del Concorso Nazionale &quot,La Bella d'Italia&quot,.Frequentano i &quot,Laboratori Zelig&quot, di Bologna e Verona e collaborano attivamente con il comico e autore televisivo Lucio Gardin in &quot,El Mega-Bait&quot, e &quot,Notizie alla Brace&quot, su RTTR.Telefono: 0461/586936 - 586293 Altri organizzatori: Comune di Molveno Assessorato alla Cultura",,,,Teatro,,,,0,,,,,,"http://www.comune.molveno.tn.it|Comune di Molveno Assessorato alla Cultura","Comune di Molveno",0,0,,
pat_2497846,2014-02-24T00:00:00+01:00,2014-03-01T01:00:36+01:00,CarnevalAndalo,,,,,2014-02-24T00:00:00+01:00,2014-03-04T00:00:00+01:00,,,,"Vari luoghi, , Andalo",,"
Note: Lunedì 24 Febbraio
&quot,OPEN DAYLIBERI DI PRO-FARE&quot, (ore 15.00, Winter Park Andalo):
prezzo speciale per tutti i bambini che con solo  3,00 potranno provare il nuovo Winter Park, il Maso Effo con i suoi giochi e lo Stadio del Ghiaccio.
&quot,LIVE IMITATION SHOW&quot, (ore 21.15, Palacongressi):
con Luciano Maci che darà vita ai più celebri personaggi del mondo della musica.
Martedì 25 Febbraio
Musica e animazione per le vie del paese (ore 17.00 per le vie del centro).
Concerto del Corpo Bandistico Altopiano di Andalo (ore 21.15 Palacongressi).
Mercoledì 26 Febbraio
&quot,SKI NIGHT SHOW&quot, (ore 21.30, Loc. Laghet):
al Campo scuola Laghet torna la festa del divertimento sulla neve. Lo spettacolo si svolgerà in notturna e vedrà impegnati grandi professionisti dello sci che regaleranno momenti di pura emozione e divertimento. Servizio di Skibus serale.
Giovedì 27 Febbraio
Sfilata del giovedì di carnevale (ore 16.00 Piazza Paganella):
ritrovo ore 16.00 per tutti i gruppi mascherati, carri, maschere e trenino di carnevale.Partenza tutti insieme in sfilata fino al palacongressi dove si svolgerà la festa del giovedì grasso. Balli di gruppo e baby dance, sculture di palloncini, il trucca bimbi e laboratori dove giocare. Ci saranno i gonfiabili e tanto zucchero filato per tutti. finale con il nutella party e the caldo.
&quot,SHOPPING SOTTO LE STELLE&quot, (dalle 20.30 per le vie del centro):
apertura serale dei negozi, artisti di strada, musicisti itineranti e animazione per le vie del paese.
Venerdì 28 Febbraio
&quot,GRAN GALA DI CARNEVALE&quot,
esibizioni di vari stili di ballo, dalla danza moderna all'hip-hop. Performance preparate ed eseguite dallo staff della scuola di ballo RITMOMISTO. La serata è condotta da Luiz Henrique Belmiro, presentatore ufficiale di &quot,VARTALENT&quot,, il più importante ed affermato &quot,format&quot, musicale del Trentino e NordItalia. Esibizione di alcuni degli Artisti/Cantanti facenti parte dello staff Vartalent 2014.
Sabato 1 Marzo
&quot,II° edizione &quot,MARE, NEVE E SAPORI&quot, (ore 11.00 presso piazza Paganella):
degustazione dei &quot,Moscioli&quot, di Numana. Organizzatori Comune di Numana e Comune di Andalo.
Martedì 4 Marzo
SFILATA DI FINE CARNEVALE (ore 17.00 per le vie del paese):
ore 16.30 ritrovo presso i campi da tennis/parco giochi per tutti quelli che vogliono partecipare alla sfilata rigorosamente in maschera. Partenza ore 17.00 per le vie del paese con arrivo in piazza Paganella. Musica con il duo Teste Toste, animazione con DJ e vin brulè e cioccolata calda per tutti. 
Accensione del falò di Carnevale con SPETTACOLO PIROTECNICO (ore 21.30 piazza Paganella):
a seguire musica Live con il gruppo folk Teste Toste. Non mancherà un buon bicchiere di vin brulè e tè caldo per tutti!Tutte le serate sono ad ingresso libero.Oltre a questi appuntamenti, il nostro equipe d'animazione offrirà tutti i giorni un ricco programma di svago diurno (come da locandina esposta in hotel/residence)Telefono: 0461/583130 (APT )",,,,"Manifestazioni ed eventi",,,,0,,,,,,http://www.visitdolomitipaganella.it,"Comune di Andalo",0,0,,"Redazione Trentino Cultura"
pat_2496349,2014-02-22T00:00:00+01:00,2014-02-18T11:02:14+01:00,"Sarò come la Tatiana!",,,,,2014-02-22T00:00:00+01:00,2014-02-22T00:00:00+01:00,,,"ore 21.00","Sala Congressi, via Lungolago, Molveno",,"
Note: Associazione teatrale &quot,Strapaes&quot, di San Giacomo (Laives)
Sarò come la Tatiana
di Massimo Brusasco
commedia brillante
È una divertente commedia di Massimo Brusasco, che in questa storia prende di mira l'effimero e luccicante mondo della televisione leggera o cosiddetta d'intrattenimento ma molto spesso vuota se non maleducata. Viene quindi messo in luce il sogno che spesso incanta molti giovani e non: la smania dell'apparire dentro quella &quot,scatola magica&quot, ad ogni costo.
L'importante è andare in onda! E... in un attimo si è famosi, proprio come la TATIANA!Per raggiungere l'obiettivo ogni mezzo è lecito!.... o quasi!Telefono: 0461/586936 - 586293 Altri organizzatori: Comune di Molveno Assessorato alla Cultura",,,,Teatro,,,,0,,,,,,"http://www.comune.molveno.tn.it|Comune di Molveno Assessorato alla Cultura","Comune di Molveno",0,0,,
pat_2495113,2014-02-08T00:00:00+01:00,2014-02-05T11:03:17+01:00,"Non tutti i ladri vengono per nuocere",,,,,2014-02-08T00:00:00+01:00,2014-02-08T00:00:00+01:00,,,"ore 21.00","Sala Congressi, via Lungolago, Molveno",,"
Note: Filo El Grotel di Condino 
Non tutti i ladri vengono per nuocere 
di Dario FoUn ladro che si introduce di soppiatto in un appartamento di notte non è detto che debba, necessariamente, provocare cose spiacevoli, anzi... soprattutto se il padrone di casa e sua moglie hanno qualcosa da nascondere. &quot,Non tutti i ladri vengono per nuocere&quot, è un atto unico, quasi una farsa, del primo Dario Fo che lascia intravedere tra le pieghe di una comicità apparentemente fine a se stessa l'accenno alle tematiche che diverranno classiche dell'autore. Lo spettacolo che ne viene tratto è un'elaborazione in due atti quanto mai piacevole. Scritto come altri atti unici improntati sullo stesso filone nel 1958, resta, come tutto ciò che vale, estremamente attuale pur collocandosi (o forse proprio per questo...) nella più autentica tradizione del nostro teatro comico. &quot,Non tutti i ladri vengono per nuocere&quot, è una commedia scandita dagli squilli del telefono prima e dal rintocchi di una mastodontica pendola poi. Nell'ingarbugliato ritrovo di mogli, mariti ed amanti tanti equivoci in miniatura costringono i personaggi a districarsi in un crescendo di improbabili situazioni alle quali solo il finale tenta di dare un senso. Anche se non sempre un senso va necessariamente cercato.Telefono: 0461/586936 - 586293 Altri organizzatori: Comune di Molveno Assessorato alla Cultura",,,,Teatro,,,,0,,,,,,"http://www.comune.molveno.tn.it|Comune di Molveno Assessorato alla Cultura","Comune di Molveno",0,0,,
pat_2494582,2014-01-31T00:00:00+01:00,2014-01-29T11:03:01+01:00,Zapping,,,,,2014-01-31T00:00:00+01:00,2014-01-31T00:00:00+01:00,,,"ore 20.45","Sala Congressi, via Lungolago, Molveno",,"
Note: Mario Cagol
Zapping
di e con Mario Cagol
Arriva nei migliori teatri della regione il nuovo spettacolo comico dell'attore trentino Mario Cagol.
Ormai è una garanzia e il divertimento è assicurato.
Una caratteristica immancabile nei suoi show è l'attenzione al mondo che ci circonda, alla quotidianità che diventa modo per &quot,riderci un po' su&quot,, sdrammatizzare.
Lo spettacolo è una sorta di viaggio nel mondo della televisione. Si parte dalla tv &quot,col tubo catodico&quot, con poca scelta a disposizione ma con tanta emozione, per arrivare all'assalto mediatico di centinaia di canali tematici offerti dalle nuove piattaforme digitali. Nonostante la possibilità di scorrere facendo il classico &quot,Zapping&quot, ovvero il rapido giro di tutti i canali disponibili, una frase spesso aleggia nelle nostre case: «Cento canali e nulla da vedere!». Ormai in tv si sono raggiunti limiti impensabili, il vero protagonista è l'uomo comune che diventa fenomeno da mostrare al mondo, debolezze, insicurezze, problemi, sogni... diventano di dominio pubblico.
Con la sua innata verve e l'abilità dell'improvvisazione, rendendo ogni serata unica e irripetibile, Mario vi porterà in questo viaggio a volte allucinante, prendendo spunto dai programmi più assurdi che le tv di oggi ci offrono. Fra gente sepolta in casa dalle cianfrusaglie, agli attrezzi ginnici più folli, avremo modo di passare una serata all'insegna del buonumore!Risate e applausi in teatro con Mario Cagol a caratterizzare una serata nella quale, finalmente, la tv a casa rimarrà spenta!Telefono: 0461/586936 - 586293 Altri organizzatori: Comune di Molveno Assessorato alla Cultura",,,,Teatro,,,,0,,,,,,"http://www.comune.molveno.tn.it|Comune di Molveno Assessorato alla Cultura","Comune di Molveno",0,0,,
pat_2494233,2014-01-24T00:00:00+01:00,2014-01-24T11:00:46+01:00,"Pù busie che poesie",,,,,2014-01-24T00:00:00+01:00,2014-01-24T00:00:00+01:00,,,"ore 20.45","Sala Congressi, via Lungolago, Molveno",,"
Note: Filodrammatica &quot,I Dialettanti&quot, di Rovereto 
Pù busie che poesie
spettacolo brillante di e con Loredana Cont
«Se la ragione è il sale della vita, la poesia è lo zucchero», dice Loredana Cont nel suo ultimo lavoro Pù busie che poesie, un monologo brillante in cui, rispolverando la memoria scolastica, parla di poeti e di poesie, di donne e di &quot,busie&quot,, ma anche della vita di tutti i giorni che è spunto di divertita riflessione. Il tutto è, come sempre, condito da una buona dose di ironia e umorismo perché, come dice la Cont, l'umorismo è l'unica via di fuga dalla realtà che abbiamo. E di questi tempi ce n'è proprio bisogno...Loredana Cont, autrice e interprete dei suoi monologhi ma anche di testi teatrali tradotti nei vari dialetti regionali, è interprete convinta del dialetto trentino che ritiene essere un valore aggiunto da salvaguardare e non certamente un limite. Telefono: 0461/586936 - 586293 Altri organizzatori: Comune di Molveno Assessorato alla Cultura",,,,Teatro,,,,0,,,,,,"http://www.comune.molveno.tn.it|Comune di Molveno Assessorato alla Cultura","Comune di Molveno",0,0,,
pat_2493568,2014-01-18T00:00:00+01:00,2014-01-16T11:02:59+01:00,"Sal e pever",,,,,2014-01-18T00:00:00+01:00,2014-01-18T00:00:00+01:00,,,"ore 20.45","Sala Congressi, via Lungolago, Molveno",,"
Note: Associazione Teatrale &quot,Dolomiti&quot, di San Lorenzo in Banale 
Sal e pever
di Alfredo Pitteri
Personaggi Interpreti 
Irene Miriam Aldrighetti
Gervasio (marito di Irene) Angelo Pozza
Maria Cornelia Baldessari
Marcello (marito di Maria) Alfredo Sansoni
Giuliana Ida Orlandi
Giulio Giorgio Zappacosta
Gigiota Agnese Tomasi
Don Gaudenzio Alessandro Ragnica
Assistente di scena Lorenza Giuliani
Tecnico audio e luci Sandro Rigotti, Michele Bosetti, Paolo Chinetti
Tecnico di palco Antonio Rigotti, Roberto Sottovia
Regia Bruno VanzoLa commedia è ambientata negli anni '90. Due donne tutte casa e chiesa e i loro mariti, la cui unica passione è cedere alle tentazioni. &quot,Tra moglie e marito non mettere il dito&quot,, ma cosa succederà se ci si mette una provocante cameriera? Condimento di risate garantito.Telefono: 0461/586936 - 586293 Altri organizzatori: Comune di Molveno Assessorato alla Cultura",,,,Teatro,,,,0,,,,,,"http://www.comune.molveno.tn.it|Comune di Molveno Assessorato alla Cultura","Comune di Molveno",0,0,,
pat_2493087,2014-01-16T00:00:00+01:00,2014-01-10T11:01:59+01:00,"Fiabe... in biblioteca",,,,,2014-01-16T00:00:00+01:00,2014-01-16T00:00:00+01:00,,,"ore 10.00","Biblioteca Intercomunale, , Andalo",,"Note: Nel bellissimo angolo colorato dedicato ai bimbi della biblioteca un'esperta di racconti per i piccoli leggerà delle piacevoli fiabe ai bambini dai 3 ai 6 anniTelefono: 0461/585275 (Biblioteca Intercomunale Alopiano Paganella Brenta) Fax: 0461/589627Altri organizzatori: Biblioteca Intercomunale Altopiano Paganella Brenta",,,,"Manifestazioni ed eventi",,,,0,,,,,,"http://www.bibliopaganella.it/|Biblioteca Intercomunale Altopiano Paganella Brenta","Comune di Andalo",0,0,,"Redazione Trentino Cultura"
0e5e8a20640e27694f40400338e2b94a,2014-01-15T08:00:00+01:00,2014-01-08T11:15:53+01:00,"XV edizione del Festival di Sciare e degli Sci club italiani",,"Come ogni anno, i Presidenti di 200 Sci Club, CRAL e Associazioni Sportive saranno ospiti dell'altipiano.","Programma Festival  
RISULTATI DELLA GARA DI SLALOM GIGANTE DELL'EDIZIONE 2013 (VENERDI' 18 GENNAIO 2013)
1. Classifica generale
2. Classifica presidenti M
3. Classifica presidenti F
4. Classifica aggregati M5. Classifica aggregati F",,2014-01-15T08:00:00+01:00,2014-01-19T22:00:00+01:00,,,,,interno,"info@paganella.net tel 0461 585298fax 0461 585707",,,,,,,/var/comunitapaganella/storage/images/comunita-della-paganella/il-territorio-della-paganella/eventi/xv-edizione-del-festival-di-sciare-e-degli-sci-club-italiani/1834556-2-ita-IT/XV-edizione-del-Festival-di-Sciare-e-degli-Sci-club-italiani.jpg,0,,,,,,,,0,0,,
24abde42b8e134e9e74d150d87e44afd,2013-12-28T21:00:00+01:00,2013-12-05T15:08:40+01:00,"Ski Night Show",,"Andalo, va in scena la festa del mondo della neveLo SKI NIGHT SHOW è un concentrato della bravura di quanti per lavoro o per passione dedicano la loro vita alla montagna, alle varie discipline sportive a essa legate, alla sicurezza e alla protezione dei turisti.","In programma discese dei maestri di sci di tutte le scuole del comprensorio che mostreranno le varie discipline e tecniche di discesa: con sci storici, telemark, carving, snowboard, doghe. Inoltre discese con ciaspole, una simulazione di soccorso dopo valanga del Gruppo Croce Bianca della Paganella e dei Vigili del Fuoco volontari di Andalo. Quindi l’atterraggio in notturna dei parapendii degli atleti del Club Vola Bass di Molveno, i salti acrobatici su sci e snowboard di atleti freestyle professionisti, le manovre di quattro gatti delle nevi che dimostreranno tutta la potenza delle migliaia di cavalli che rombano sotto i loro cofani, un’esibizione a cavallo di skijoring curata dal Centro equitazione Andalo, lo “sci e sliton de na volta” con il Paganella Telemark Club, la discesa dei ragazzi del Paganella Ski Team e l’esibizione di numerose motoslitte.Per chiudere, una bellissima fiaccolata tricolore sulle piste!",,2013-12-28T21:00:00+01:00,,,,,"Campo Scuola Laghet - Andalo",interno,,,,,,,,/var/comunitapaganella/storage/images/comunita-della-paganella/aree-tematiche/area-giovani/calendario-per-i-giovani/ski-night-show/1782926-1-ita-IT/Ski-Night-Show.jpg,0,,,,,,,,46.164137,11.002407,"Campo Scuola Laghet - Andalo",
a3b63cf80b9df5cfb7256efc7054aef8,2013-12-26T08:00:00+01:00,2013-12-05T15:00:36+01:00,"Parallelo di Natale - Children, 26 dicembre 2013",,"Il Trentino dello sci si arricchisce di un nuovo evento singolare, innovativo e sicuramente entusiasmante. Si tratta del &quot,Parallelo di Natale Children&quot,, una competizione che si svolgerà giovedì 26 dicembre 2013 a Fai della Paganella con una formula esclusiva che premierà le squadre di sci club, senza dimenticare i veri protagonisti: i giovani sciatori delle categorie ragazzi e allievi, compresi fra i 12 e i 15 anni.","Decisamente interessante il montepremi messo in palio dagli organizzatori del Team Nardelli di Mezzolombardo, che ammonta a oltre 10 mila euro fra gadget, premi e buoni spesa presso il negozio sportivo del centro rotaliano. Il Parallelo di Natale Children si svolgerà sulla pista Rolly Marchi di Fai della Paganella (situata in località Meriz) e si articola sulla sfida fra 16 team di atleti iscritti allo stesso sci club. ",,2013-12-26T08:00:00+01:00,2013-12-26T08:00:00+01:00,,,,,interno,,,,,,,,/var/comunitapaganella/storage/images/comunita-della-paganella/aree-tematiche/area-giovani/calendario-per-i-giovani/parallelo-di-natale-children-26-dicembre-2013/1782896-1-ita-IT/Parallelo-di-Natale-Children-26-dicembre-2013.jpg,0,,,,,,,,0,0,,
67af0459a2a40fead125aedcf4e88440,2013-12-23T08:00:00+01:00,2013-12-02T15:22:38+01:00,"Alpine Rockfest 2013",,"I più forti atleti del mondo si confronteranno sulle nevi della Paganella a ritmo di Rock. Il 23 dicembre 2013 la Paganella, nello splendido scenario delle Dolomiti di Brenta, ospiterà l’ALPINE ROCKFEST.","L’esibizione sarà trasmessa in diretta su EuroSport, RaiSport, sulle maggiori televisioni europee ed in streaming (90 minuti). L’evento produce più di1.700 ore di copertura televisiva globale e più di 1.100 ore di spettacolo in diretta soltanto in Europa. Avrà il formato di una manche di slalom gigante con l’inserimento di un salto. L’atleta verrà eliminato sulla base dei tempi di discesa (3 o 4 giri). Quest’anno all’atleta più veloce nell’ultimo round sarà assegnato il premio di 70.000 euro, il montepremi più ricco assegnato nel mondo dello sci!Sono invitate 15 star, i migliori gigantisti del Mondo, che cercheranno di qualificarsi in una fase eliminatoria dove solo i primi 4 si sfideranno con i campioni. Le qualificazioni avranno inizio di prima mattina: alcuni atleti selezionati gareggeranno per qualificarsi alle gare principali (solo 5 i posti disponibili). ",,2013-12-23T08:00:00+01:00,,,,,,interno,,,,,,,,/var/comunitapaganella/storage/images/comunita-della-paganella/aree-tematiche/area-giovani/calendario-per-i-giovani/alpine-rockfest-2013/1776219-1-ita-IT/Alpine-Rockfest-2013.png,0,,,,,,,,0,0,,http://www.paganella.net/alpine-rock-fest/alpine-rockfest.php
c3d7e3e85a9186735cf4a3eb047f6818,2013-12-14T20:30:00+01:00,2013-12-10T09:58:31+01:00,"Cena al buio",,"Il Gruppo Giovani Spormaggiore nell'ambito del progetto Indovina chi viene a cena organizza:Una serata per capire il valore della luce, per conoscere il mondo di chi la luce non la vede mai, per un'esperienza di rara forza e rara umanità. Un'occasione per riflettere, ma non solo...In collaborazione con: Dark Solutions, Associazione Progresso Ciechi, Unione Italiana Ciechi e Ipovedenti sezione di Trento",,"http://www.comunita.paganella.tn.it/content/download/97948/1787475/2/cena al buio 14dec2013.pdf",2013-12-14T20:30:00+01:00,,,,,"Mansarda del Teatro Parrocchiale",interno,"
Gabriele 3465750641
Jacopo 349 5642294Antonio 347 0799287",,"20€, necessaria la prenotazione",,,,,/var/comunitapaganella/storage/images/comunita-della-paganella/aree-tematiche/area-giovani/calendario-per-i-giovani/cena-al-buio/1787490-1-ita-IT/Cena-al-buio.jpg,0,,,,,,,,46.217032,11.047589,"spormaggiore ",
9af42a99fed60eda1ced29810f0e01cd,2013-12-12T08:00:00+01:00,2013-12-02T15:12:57+01:00,"Coppa Europa Femminile di Sci",,"Giovedì 12 e venerdì 13 dicembre 2013 torna in Paganella la Coppa Europa Femminile di Sci. La Paganella Ski Area ospiterà due gare di slalom gigante femminile di Coppa Europa, un circuito internazionale di gare organizzato dalla Federazione Internazionale Sci (FIS).","
La Coppa Europa è l’occasione per le giovani promesse dello sci di fare esperienza a livello internazionale: come in Coppa del Mondo, gli atleti raccolgono punti secondo il sistema del punteggio FIS, in cinque discipline (discesa libera, supergigante, slalom gigante, slalom speciale e supercombinata).
I prime tre atleti classificati in ogni disciplina acquisiscono la possibilità di gareggiare in Coppa del Mondo per la stagione seguente in quella specialità!Nella passata stagione, Nina Loesseth e Eva-Maria Brem hanno tagliato per prime il traguardo nelle gare disputate sulle piste della Paganella Ski Area.",,2013-12-12T08:00:00+01:00,2013-12-13T22:00:00+01:00,,,,,interno,,,,,,,,/var/comunitapaganella/storage/images/comunita-della-paganella/aree-tematiche/area-giovani/calendario-per-i-giovani/coppa-europa-femminile-di-sci/1776141-1-ita-IT/Coppa-Europa-Femminile-di-Sci.jpg,0,,,,,,,,0,0,,
pat_2491314,2013-12-07T00:00:00+01:00,2013-12-12T11:00:45+01:00,"Mostra permanente dei Presepi",,,,,2013-12-07T00:00:00+01:00,2014-04-01T00:00:00+02:00,,,"periodo natalizio: mercoledì e venerdì ore 16.00-18.00

poi: da martedì a domenica ore 10.00-12.00 e 15.30-18.30","Palacongressi, , Andalo",,"
Note: Alla mostra permanente dei Presepi del Mondo di Andalo potrete ammirare, grazie all'estro e all'ingegno di Gino Simoni, dei veri e propri gioielli dell'arte del presepio.Espressioni d'arte sacra si fondono ad una puntuale cultura artigianale trentina, per proporre una suggestiva e di straordinaria belelzza interpretazione della Natività.Telefono: 0461/583130 (APT )",,,,Mostra,,,,0,,,,,,http://www.visitdolomitipaganella.it,"Comune di Andalo",0,0,,"Redazione Trentino Cultura"
f82fa724fcb75649e20264380abdf2c3,2013-11-30T20:30:00+01:00,2013-11-13T22:07:08+01:00,"Cena Impro",,"A Spormaggiore, una cena unica e irripetibile animata dal gruppo di Improvvisazione Comica gli Improvedibili. ","
Menù del giorno
La forchettata d’antipasto di stagione con nocciole
Il cannellone del pastore ai formaggi di malga
Il cuore di lombatina saltata al pepe rosa con duchessa di patateStrudel di mele della valleNecessaria la prenotazione entro venerdì 29 novembrePrezzo della cena: 15€",http://www.comunita.paganella.tn.it/content/download/94366/1731989/1/cenaIMPROteatrale.pdf,2013-11-30T20:30:00+01:00,,,,,"Sala mensa di Spormaggiore - centro diurno anziani sopra il teatro parrocchiale",interno,"Gabriele 346 5750641 - Jacopo 349 5642294 - Antonio 347 0799287",,,,,,,/var/comunitapaganella/storage/images/comunita-della-paganella/aree-tematiche/area-giovani/calendario-per-i-giovani/cena-impro/1732004-1-ita-IT/Cena-Impro.jpg,0,,,,,,,,0,0,,
76aef27b7b1b465bb966d43f53b5d8d0,2013-11-27T14:30:00+01:00,2013-11-11T16:48:05+01:00,"G.I.G.I. Informa, Sportello di Supporto Ascolto e Informazione",,"Ad Andalo, presso il centro di aggregazione giovanile nel centro sportivo (di fronte ai campi da tennis)A seguire, pubblicazione del calendario degli appuntamenti fissatiOppure, su appuntamento +39 348 4619086 e altopianogiovani@lancora.it",,http://www.comunita.paganella.tn.it/content/download/94282/1730952/1/GIGInforma_novembre2013.pdf,2013-11-27T14:30:00+01:00,2013-11-27T16:00:00+01:00,,,,,interno,,,,,,,,,0,,,,,,,"Comune di Andalo",0,0,,
82b9921966735fa59c3e4812b4f2c736,2013-11-26T16:30:00+01:00,2013-11-11T16:53:16+01:00,"G.I.G.I. Informa, Sportello di Supporto Ascolto e Informazione",,"A Molveno, presso la biblioteca.A seguire, pubblicazione del calendario degli appuntamenti fissatiOppure, su appuntamento +39 348 4619086 e altopianogiovani@lancora.it",,http://www.comunita.paganella.tn.it/content/download/94281/1730922/2/GIGInforma_novembre2013.pdf,2013-11-26T16:30:00+01:00,2013-11-26T18:00:00+01:00,,,,,interno,,,,,,,,,0,,,,,,,"Comune di Molveno",0,0,,
650c3bc2002be64c71f0b32885db8407,2013-11-26T14:30:00+01:00,2013-11-11T16:52:25+01:00,"G.I.G.I. Informa, Sportello di Supporto Ascolto e Informazione",,"A Fai della Paganella, presso la biblioteca.A seguire, pubblicazione del calendario degli appuntamenti fissatiOppure, su appuntamento +39 348 4619086 e altopianogiovani@lancora.it",,http://www.comunita.paganella.tn.it/content/download/94280/1730892/2/GIGInforma_novembre2013.pdf,2013-11-26T14:30:00+01:00,2013-11-26T16:00:00+01:00,,,,,interno,,,,,,,,,0,,,,,,,"Comune di Fai della Paganella",0,0,,
d63fd8e00154ca6771fbdfe9a1118f96,2013-11-25T16:30:00+01:00,2013-11-11T16:51:00+01:00,"G.I.G.I. Informa, Sportello di Supporto Ascolto e Informazione",,"A Spormaggiore, presso la biblioteca.A seguire, pubblicazione del calendario degli appuntamenti fissatiOppure, su appuntamento +39 348 4619086 e altopianogiovani@lancora.it",,http://www.comunita.paganella.tn.it/content/download/94279/1730862/3/GIGInforma_novembre2013.pdf,2013-11-25T16:30:00+01:00,2013-11-25T18:00:00+01:00,,,,,interno,,,,,,,,,0,,,,,,,"Comune di Spormaggiore",0,0,,
857ee0fe5c9b931b34750a48e62a6238,2013-11-25T14:30:00+01:00,2013-11-11T16:49:35+01:00,"G.I.G.I. Informa, Sportello di Supporto Ascolto e Informazione",,"A Cavedago, presso la biblioteca.A seguire, pubblicazione del calendario degli appuntamenti fissatiOppure, su appuntamento +39 348 4619086 e altopianogiovani@lancora.it",,http://www.comunita.paganella.tn.it/content/download/94278/1730832/2/GIGInforma_novembre2013.pdf,2013-11-25T14:30:00+01:00,2013-11-25T16:00:00+01:00,,,,,interno,,,,,,,,,0,,,,,,,"Comune di Cavedago",0,0,,
4067f3d6f401d9100836e9c68af55db4,2013-10-19T20:30:00+02:00,2013-11-07T13:13:34+01:00,"A cena con l'esperto!",,,"Il Gruppo Giovani di Spormaggiore propone tre cene a tema ideate, organizzate e gestite dai giovani:- 19 ottobre 2013 &quot,A cena con l'Azoto&quot,- 9 novembre 2013 &quot,Cena a due passi dalla via lattea&quot, (ANNULLATO, in sostituzione)- 30 novembre 2013 &quot,Cena con improvvisazione&quot,",http://www.comunita.paganella.tn.it/content/download/92916/1712092/4/AZOTOMANIA.pdf,2013-10-19T20:30:00+02:00,2013-10-19T23:00:00+02:00,,"sabato 19 ottobre 2013","ore 20.30","c/o Sala mensa di Spormaggiore",interno,"&quot,A cena con l'Azoto&quot,Necessaria la prenotazione entro venerdì 18 ottobre.Prezzo della cena: euro 15",,,,,,,/var/comunitapaganella/storage/images/comunita-della-paganella/aree-tematiche/area-giovani/calendario-per-i-giovani/a-cena-con-l-esperto/1712107-1-ita-IT/A-cena-con-l-esperto.jpg,0,,,,,,,,0,0,,
pat_2482498,2013-09-16T00:00:00+02:00,2013-09-17T11:05:25+02:00,"Traversata nel Parco: dal Passo della Gaiarda ad Andalo",,,,,2013-09-30T00:00:00+02:00,2013-09-30T00:00:00+02:00,,,,"Piazza Dolomiti, , Andalo",,"
Note: Un'estate da Parco
Splendida traversata di una giornata con le Guide alpine Altopiano della Paganella per ammirare le Dolomiti di Brenta, diventate nel 2009 patrimonio dellUnesco.
Trasferimento in pullman da Andalo a Madonna di Campiglio, salita in cabinovia al Passo Grostè e, attraverso il Passo della Gaiarda, discesa ad Andalo(circa 5 ore di cammino). 
Pranzo al sacco e risalita in cabinovia a carico dei partecipanti.
Ritrovo: ore 7.00 Andalo - piazzale Dolomiti, trasferimento in pullmanQuota di partecipazione: 25,00   bambini fino ai 12 anni 25,00Telefono: 0465/804637Altri organizzatori: Parco Adamello Brenta",,,,"Manifestazioni ed eventi",,,,0,,,,,,"http://www.pnab.it|Parco Adamello Brenta","Comune di Andalo",0,0,,
80a876d35cfa3a29f573aa557c41e9e4,2013-09-13T14:09:36+02:00,2013-09-13T14:14:48+02:00,"Molveno com'era",,"50 anni di attività delle botteghe storiche in paese","
VENERDì 13 SETTEMBRE Sala Civica, ore 15.00



Inaugurazione mostra fotografica delle botteghe storichealla presenza degli operatori economici e delle istituzioni


Presentazione iniziativa artistica &quot,Molveno com’era&quot, in collaborazione con la Scula Elementare &quot,Luigi Nicolussi&quot,


 
SABATO 14 SETTEMBRE Centro storico di Molveno, ore 15.00


Consegna itinerante delle targhe di bottega storica con accompagnamento musicale

Mostra degli antichi mestieri


 
DOMENICA 15 SETTEMBRECentro storico di Molveno, ore 10.00



Concerto di musica dal vivo itinerante anni Trenta, Quaranta e Cinquantacon gruppo musicale Bèl e Poc

Esposizione macchine d’epoca


",,2013-09-13T15:00:00+02:00,2013-09-15T00:00:00+02:00,,,,,esterno,"
Molveno Holiday
Piazza Guglielmo Marconi, 3 (Molveno), 
tel 0461 586086 - 0461 586924fax 0461 586412email info@dolomitimolveno.com",,,,,,,,0,,,,,,,"Comune di Molveno",0,0,,VisitDolomitiPaganella
1674b0ab69bc67efe83b578e67eb17e4,2013-09-13T11:00:35+02:00,2013-09-13T11:08:50+02:00,"Rifugi del Gusto",,"Anche nel 2013 tantissimi rifugi alpini rimangono aperti dal 21 settembre al 6 ottobre, per offrirti l’alta qualità di un ambiente incontaminato, una stagione che valorizza al meglio la bellezza della montagna, sapori che rinnovano le tradizioni enogastronomiche del Trentino nelle Dolomiti Patrimonio Naturale dell’Umanità Unesco.","Sapori trentini in alta quotaIn ciascun rifugio verrai accolto dal sorriso cordiale dei gestori, da una familiare benvenuto e da un calice di TRENTODOC Metodo Classico accompagnato dai sapori della nostra terra.A Tavola potrai quindi gustare le zuppe della tradizione gastronomica trentina, su ricette elaborate appositamente dallo chef Stellato Rinaldo Dalsasso e proposte dai suoi colleghi dei rifugi. Per un pasto con Zuppa, dolce, un calice di vino ed un bicchiere di Trentino Grappa, pagherai solo 10 €!I Rifugi del nostro ambito aderenti all’iniziativa sono: 


Rifugio Croz dell’Altissimo  





Rifugio Tosa &quot,Tommaso Pedrotti&quot,





Rifugio Selvata


",,2013-09-21T12:00:00+02:00,2013-10-06T12:00:00+02:00,,,,,interno,,,,,,,,,0,,,,,,http://www.visittrentino.it/it/cosa_fare/eventiapt/dettagli/dett/rifugi-del-gusto-1,"Comune di Andalo
Comune di Molveno",0,0,,VisitTrentino
pat_2483753,2013-09-11T11:08:58+02:00,2013-09-15T11:05:53+02:00,"Angeli e arcangeli",,,,,2013-09-14T00:00:00+02:00,2013-09-15T00:00:00+02:00,,,,"Sala Congressi, via Lungo Lago, 27, Molveno",,"
Note: Gli angeli hanno una missione da compiere sulla Terra: sono deputati da Dio, presso gli uomini, per custodirli. Ogni uomo ha il proprio angelo custode. Non appena nasciamo, presso la nosta culla, cè un angelo, attento e vigilate. 
Gli angeli sono dei puri Spiriti: questo deve spingerci a capire a quale splendore giuonge la loro perfezione. E una nota costante che un essere è tanto più bello quanto più egli si distacca dalla materia per spingersi al divino. Nulla di ciò che racchiude luniverso visibile può comparasi alla bellezza di un angelo. 
Essi sono di unenergia e di unagilità che appena si possono immaginare, perché il loro essere spirituali non offre alcuna resistenza alla traslazione: possono andare veloci come il loro pensiero e spostarsi, in un attimo, in spazi incommensurabili.
Chi sono i 3 principali Arcangeli venerati dal cattolicesimo di cui racconta la storia? I loro nomi sono Michele, Gabriele e Raffaele.
Michele è il Principe delle Milizie Celesti, lArcangelo militante per eccellenza, simbolo della lotta contro il Male, nella quale di gioca tutta la nostra esistenza. Gabriele è scelto da Dio per annunciare alla Madonna il mistero dellIncarnazione di Gesù. Raffaele, uno dei sette spiriti che stanno dinanzi a Dio, è lArcangelo Medico, accompagnatore ed amico delluomo che custodisce e protegge nella necessità.
Sabato 14 settembre
ore 11.00: Internventi di saluto
ore 11.15: Don Marcello Stanzione (angelologo): &quot,Gli Angeli e San Michele: identità e missione&quot,
ore 12.15: Marco Gionta (scrittore): &quot,Pregare gli angeli e gli arcangeli&quot,
ore 13.00: Pranzo libero
ore 15.00: Don Roberto Gorgerino (salesiano): &quot,Gli angeli di Don Bosco&quot,
ore 16.00: Grazia Francescato (scrittrice): &quot,Angeli ed ecologia&quot,
ore 17.00: Testimonianze sugli Angeli dei partecipanti
ore 17.30: Termine dei lavori della giornata e tempo libero per la visita di Molveno
Domenica 15 settembre
ore 9.00: Ovidio Melis (scultore): &quot,Raffigurare angeli ed arcangeli&quot,
ore 10.30: Grazia Francescato (scrittrice): &quot,In viaggio con larcangelo&quot,
ore 11.30: Presentazione ed intervento dellospite donore (sono stati invitati Enzo De Caro, Tania Cagnotto e Francesca Dallapè)
ore 12.00: Don Marcello Stanzione (angelologo): &quot,Angeli, piante e fiori&quot,
ore 13.00: Pranzo libero
ore 15.00: Video sul santuario garganico di Monte SantAngelo
ore 16.00: Marco Gionta (scrittore): &quot,Gli angeli custodi&quot,
ore 17.00: Santa Messa di conclusione presediuta da Don MArcello Stanzione in parrocchia e consegna scapolare dellangelo custode.A cura di Milizia di San Michele ArcangeloTelefono: 0461/586924",,,,Convegno,,,,0,,,,,,http://www.visitdolomitipaganella.it,"Comune di Molveno",0,0,,"Redazione Trentino Cultura"
pat_2482441,2013-09-06T00:00:00+02:00,2013-09-07T11:05:16+02:00,"A caccia di risposte camminando nella storia",,,,,2013-09-13T00:00:00+02:00,2013-09-13T00:00:00+02:00,,,,"Bar Aquilone, , Molveno",,"
Note: Un'estate da Parco
Comè nato il lago di Molveno? Come mai il ponte romano si chiama così? I fortini del Dosso di Mezzolago erano davvero di Napoleone? Queste e altre sono le domande che troveranno risposta durante la facile escursione che presenta tematiche adatte sia agli adulti che ai bambini. Dal lago si raggiungono i famosi Fortini di Napoleone, per poi proseguire verso lAntica Segheria Taialacqua, da dove si imbocca un sentiero giocoso dedicato ai più piccoli, alla scoperta delle semplici regole da rispettare per risparmiare e rispettare lacqua, il nostro oro blu. Rientro per le 17.30 circa.
Ritrovo: ore 14.30 Molveno  bar AquiloneQuota di partecipazione: 5,00   bambini fino ai 12 anni 3,50   Tariffa famiglia 14,00 Telefono: 0465/804637Altri organizzatori: Parco Adamello Brenta",,,,"Manifestazioni ed eventi",,,,0,,,,,,"http://www.pnab.it|Parco Adamello Brenta","Comune di Molveno",0,0,,
pat_2478779,2013-09-06T00:00:00+02:00,2013-09-13T11:04:47+02:00,"Archeotrek passeggiata tra storia e natura",,,,,2013-09-13T00:00:00+02:00,2013-09-13T00:00:00+02:00,,,"ore 16.00","Sito archeologico di Doss Castel, , Fai della Paganella",,"
Note: Archeologia Estate 2013
Ogni venerdì dal 15 giugno al 15 settembre, ore 16
Archeotrek passeggiata tra storia e natura
Prenotazione obbligatoria entro le ore 17 del giorno prima dellattività agli uffici ACTIVITY di Molveno ed Andalo.Info: Associazione Activity, tel. 0461.585353, www activitytrentino.itTelefono: 0461/492161Altri organizzatori: P.A. T. Soprintendenza per i beni architettonici e archeologici - Ufficio Beni archeologici",,,,"Manifestazioni ed eventi",,,,0,,,,,,,"Comune di Fai della Paganella",0,0,,
pat_2482448,2013-09-05T00:00:00+02:00,2013-09-06T10:06:47+02:00,"Il bosco, officina di Idee",,,,,2013-09-12T00:00:00+02:00,2013-09-12T00:00:00+02:00,,,,"Palestra di roccia del centro sportivo, , Andalo",,"
Note: Un'estate da Parco
Escursione per bambini dai 6 ai 12 anni lungo il sentiero Raiss accompagnati dagli Educatori ambientali del Parco alla ricerca di piccoli tesori che il bosco custodisce. I bambini avranno la possibilità di dar sfogo alla loro fantasia e creatività realizzando mascherine e altri vivaci oggetti.Quota di partecipazione: bambini fino ai 12 anni 3,50Telefono: 0465/804637Altri organizzatori: Parco Adamello Brenta",,,,"Manifestazioni ed eventi",,,,0,,,,,,"http://www.pnab.it|Parco Adamello Brenta","Comune di Andalo",0,0,,
pat_2482450,2013-09-03T00:00:00+02:00,2013-09-04T11:08:01+02:00,"Due passi con l'orso",,,,,2013-09-10T00:00:00+02:00,2013-09-10T00:00:00+02:00,,,,"Ritrovo c/o piazzale di fronte alla Chiesa, , Spormaggiore",,"
Note: Un'estate da Parco
Escursione in collaborazione con la Società Parco Faunistico di Spormaggiore: visita guidata alla Casa del Parco Orso: il signore dei boschi e passeggiata a piedi per raggiungere il Parco Faunistico dove sono ospitati, in semilibertà, alcuni esemplari di orso bruno e tre lupi. Rientro per le 13.00 circa. Nel caso in cui lattività raggiunga il numero massimo di partecipanti, vi sarà lattivazione di un turno pomeridiano (ore 14.30) con un numero minimo di sei iscritti.
Ritrovo: ore 9.30 Spormaggiore  piazzale di fronte alla ChiesaQuota di partecipazione: 7,00   bambini fino ai 12 anni 3,50   Tariffa famiglia 14,00 Telefono: 0465/804637Altri organizzatori: Parco Adamello Brenta",,,,"Manifestazioni ed eventi",,,,0,,,,,,"http://www.pnab.it|Parco Adamello Brenta","Comune di Spormaggiore",0,0,,
pat_2481456,2013-08-31T00:00:00+02:00,2013-09-08T11:05:22+02:00,"Summer Bonsai Festival",,,,,2013-08-31T00:00:00+02:00,2013-09-08T00:00:00+02:00,,,,"Palazzetto dello Sport, , Fai della Paganella",,"
Note: Workshop, dimostrazioni, conferenze, escursioni!
10 giorni di vacanza con il bonsai nella splendida cornice delle Dolomiti di Brenta. 
Con workshop, dimostrazioni, incontri con esperti, escursioni e spettacoli si potrà scoprire questa particolare tecnica/arte di creare miniature di alberi, coltivandoli per anni in un piccolo vaso, con la quale si guida del materiale vegetale ad assumere forme e dimensioni volute, pur rispettandone completamente lequilibrio vegetativo e funzionale. 
Saranno presenti maestri e istruttori internazionali accreditati presso la Casa Madre.
Tutte le attività sono aperte a chiunque e completamente gratuite. Convenzioni alberghiere per i partecipanti allevento e per le loro famiglie.
Consorzio Fai Vacanze
via Villa, 21 
Tel: 331 4173245
Tel: 0461 583561
Fax: 0461 583561 
info@sakkakyookay-e.com www.sakkakyookai-e.com",,,,"Manifestazioni ed eventi",,,,0,,,,,,,"Comune di Fai della Paganella",0,0,,"Redazione Trentino Cultura"
f0c383d19406b5f0e076c0e7301974b3,2016-02-04T13:55:00+01:00,2016-02-04T14:06:16+01:00,"Cibo e CambiaMenti",,"Morire per fame o per obesità?","Riflessione sui cambiamenti dei consumi alimentari, sul problema degli sprechi alimentari e sugli impatti ambientali, economici e sociologici di tali fenomeni",http://www.comunita.paganella.tn.it/content/download/164559/2714652/1/CIBO_E_CAMBIAMENTI_-_LOCANDINA.pdf,2016-02-04T13:55:00+01:00,2016-02-12T00:00:00+01:00,,,,,interno,,,,,,,,,0,,,,,,,,0,0,,
6c6448c2e247f4c5ec5726f47b69fec8,2015-07-11T16:00:00+02:00,2015-06-10T14:48:44+02:00,"L'angolo morbido",,"Per tutti i genitori con bambine e bambini di età compresa tra gli 0 e i 3 anni (ma sono benvenuti anche sorelle e fratelli maggiori!), la Comunità della Paganella organizza in collaborazione con la Cooperativa Sociale Tagesmutter del Trentino – Il Sorriso, nell’ambito del progetto Intrecci in Comunità… conoscenza e accoglienza, una serie di incontri itineranti nei 5 Comuni dell’altopiano, nel pomeriggio di ogni secondo sabato del mese.","BIBLIOTECA DI SPORMAGGIORE","http://www.comunita.paganella.tn.it/content/download/145280/2483563/2/ANGOLO MORBIDO.pdf",2015-07-11T16:00:00+02:00,2015-07-11T18:00:00+02:00,,,,,interno,,,,,,,,/var/comunitapaganella/storage/images/comunita-della-paganella/aree-tematiche/mondo-famiglia/eventi-mondo-famiglia/l-angolo-morbido3/2483578-1-ita-IT/L-angolo-morbido.jpg,0,,,,,,,,46.217032,11.047589,spormaggiore,
380a221d44b545be72f6f2800cc5a202,2015-07-09T17:00:00+02:00,2015-07-25T16:34:43+02:00,"Arriva il Barbatangheri - Buskers e artisti di strada",,,"Ad Andalo, dalle 17 al Parco Sportivo, dalle 21 nel Centro del paeseA Spormaggiore, alle 20.30 in Centro Storico",,2015-07-09T17:00:00+02:00,,,,,"Parco sportivo nel pomeriggio, centro storico in serata",interno,,"Famiglie, bambini e ragazzi",,,,,,,0,,,,,,,,0,0,,
a4224d991f978ac05dcbd0bd67b96cff,2015-07-04T09:00:00+02:00,2015-07-23T23:37:46+02:00,"Biblioigloo in-Gaggia",,,,,2015-07-04T09:00:00+02:00,2015-09-06T18:00:00+02:00,,,,,interno,,,,,,,,/var/comunitapaganella/storage/images/comunita-della-paganella/aree-tematiche/biblioteche-della-paganella/calendario-degli-eventi/biblioigloo-in-gaggia/2563642-1-ita-IT/Biblioigloo-in-Gaggia.jpg,0,,,,,,,,0,0,,
39e65f7357839a5ca69ecc17a08e4db0,2015-07-02T17:00:00+02:00,2015-07-25T16:33:54+02:00,"Arriva il Barbatangheri - Buskers e artisti di strada",,,"Ad Andalo, dalle 17 al Parco Sportivo, dalle 21 nel Centro del paese",,2015-07-02T17:00:00+02:00,,,,,"Parco sportivo nel pomeriggio, centro storico in serata",esterno,,"Famiglie, bambini e ragazzi",Gratuito,,"teatro di strada",,"Spettacolo dal vivo",,0,,,,,,,,0,0,,
338e539780f28bb8d9fcd7a8e6e31a88,2015-06-30T20:30:00+02:00,2015-06-17T11:20:41+02:00,"Circolo letterario",,"L'incontro mensile per confrontarsi sul libro letto e concordarne uno da affrontare al prossimo appuntamento!","Martedì 30 giugno alle 20.30 ci incontriamo nel nostro Spazio per parlare di Venere in pelliccia di Leopold von Sacher-Masoch",,2015-06-30T20:30:00+02:00,,,,,,interno,,,,,,,,/var/comunitapaganella/storage/images/comunita-della-paganella/aree-tematiche/area-giovani/calendario-per-i-giovani/circolo-letterario/2533246-1-ita-IT/Circolo-letterario.jpg,0,,,,,,,,46.170913,11.003893,,
663e5202587055067de24ea980705a2b,2015-06-29T20:30:00+02:00,2015-06-17T11:05:53+02:00,"CINEFORUM - Grand Budapest Hotel",,"A grande richiesta, la rassegna Cinefuso prosegue nel mese di giugno con alcune opere del fantastico regista Wes Anderson!","Gli appuntamenti del cineforum:15 giugno FANTASTIC MR FOX di Wes Anderson (2009)22 giugno I TENENBAUM di Wes Anderson (2001)29 giugno GRAND BUDAPEST HOTEL di Wes Anderson (2014)","http://www.comunita.paganella.tn.it/content/download/148319/2533150/1/attivita giugno .jpg",2015-06-29T20:30:00+02:00,,"2 ore",,,"Spazio Giovani Altropiano",interno,,,gratuito,,,,,/var/comunitapaganella/storage/images/comunita-della-paganella/aree-tematiche/area-giovani/calendario-per-i-giovani/cineforum-grand-budapest-hotel/2533165-1-ita-IT/CINEFORUM-Grand-Budapest-Hotel.jpg,0,,,,,,"http://www.imdb.com/title/tt2278388/?ref_=nv_sr_1|Grand Budapest Hotel on IMDB",,0,0,,
3ea668cb8e751335a595c2f05dbe5d11,2015-06-22T20:30:00+02:00,2015-06-17T11:12:59+02:00,"CINEFORUM - I Tenenbaum",,"A grande richiesta, la rassegna Cinefuso prosegue nel mese di giugno con alcune opere del fantastico regista Wes Anderson!","Gli appuntamenti del cineforum:15 giugno FANTASTIC MR FOX di Wes Anderson (2009)22 giugno I TENENBAUM di Wes Anderson (2001)29 giugno GRAND BUDAPEST HOTEL di Wes Anderson (2014)","http://www.comunita.paganella.tn.it/content/download/148321/2533201/1/attivita giugno .jpg",2015-06-22T20:30:00+02:00,,"2 ore",,,"Spazio Giovani Altropiano",interno,,,gratuito,,,,,/var/comunitapaganella/storage/images/comunita-della-paganella/aree-tematiche/area-giovani/calendario-per-i-giovani/cineforum-i-tenenbaum/2533216-1-ita-IT/CINEFORUM-I-Tenenbaum.jpg,0,,,,,,"http://www.imdb.com/title/tt0265666/|I Tenenbaum on IMDB",,0,0,,
2694a78556da7c1c9520c031a3f9ee7d,2015-06-19T20:30:00+02:00,2015-06-17T11:43:38+02:00,"Il gioco è una cosa seria",,"Dopo il successo della prima serata, tornano il torneo di Play e la sfida ai giochi da tavolo.. Iscriviti all'evento!!",,,2015-06-19T20:30:00+02:00,,,,,,interno,,,,,,,,/var/comunitapaganella/storage/images/comunita-della-paganella/aree-tematiche/area-giovani/calendario-per-i-giovani/il-gioco-e-una-cosa-seria/2533276-1-ita-IT/Il-gioco-e-una-cosa-seria.jpg,0,,,,,,,,46.170868,11.00428,,
1eef85786695546594f735931772331f,2015-06-15T20:30:00+02:00,2015-06-17T11:09:12+02:00,"CINEFORUM - Fantastic Mr Fox",,"A grande richiesta, la rassegna Cinefuso prosegue nel mese di giugno con alcune opere del fantastico regista Wes Anderson!","Gli appuntamenti del cineforum:15 giugno FANTASTIC MR FOX di Wes Anderson (2009)22 giugno I TENENBAUM di Wes Anderson (2001)29 giugno GRAND BUDAPEST HOTEL di Wes Anderson (2014)","http://www.comunita.paganella.tn.it/content/download/148318/2533120/4/attivita giugno .jpg",2015-06-15T20:30:00+02:00,,"2 ore",,,"Spazio Giovani Altropiano",interno,,,gratuito,,,,,/var/comunitapaganella/storage/images/comunita-della-paganella/aree-tematiche/area-giovani/calendario-per-i-giovani/cineforum-fantastic-mr-fox/2533135-1-ita-IT/CINEFORUM-Fantastic-Mr-Fox.jpg,0,,,,,,"http://www.imdb.com/title/tt0432283/?ref_=nv_sr_1|Fantastic Mr Fox on IMDB",,0,0,,
0313954ec548ffe4269644f0e0344129,2015-06-13T16:00:00+02:00,2015-06-10T14:32:56+02:00,"L'angolo morbido",,"Per tutti i genitori con bambine e bambini di età compresa tra gli 0 e i 3 anni (ma sono benvenuti anche sorelle e fratelli maggiori!), la Comunità della Paganella organizza in collaborazione con la Cooperativa Sociale Tagesmutter del Trentino – Il Sorriso, nell’ambito del progetto Intrecci in Comunità… conoscenza e accoglienza, una serie di incontri itineranti nei 5 Comuni dell’altopiano, nel pomeriggio di ogni secondo sabato del mese.","
Sabato 13 giugno ci troviamo dalle 16.00 alle 18.00, presso Tagesmutter di Cavedago.La nuova Tagesmutter Dora Fernandez terrà due laboratori:


facciamo il Didò con le mamme per i bambini più piccoli, 

costruiamo giochi di legno per i bambini più grandi.


","http://www.comunita.paganella.tn.it/content/download/145279/2483533/1/ANGOLO MORBIDO.pdf",2015-06-13T16:00:00+02:00,2015-06-13T18:00:00+02:00,,,,,interno,,,,,,,,/var/comunitapaganella/storage/images/comunita-della-paganella/aree-tematiche/mondo-famiglia/eventi-mondo-famiglia/l-angolo-morbido2/2483548-1-ita-IT/L-angolo-morbido.jpg,0,,,,,,,,46.18362,11.028348,cavedago,
b36cb90b45f2d33b7d8b4bcb4559fce1,2015-06-11T17:00:00+02:00,2015-06-04T12:22:09+02:00,"Musica in culla",,"Per avvicinare dolcemente e da subito i più piccoli all'armonia, questi gli appuntamenti dell'iniziativa promossa dalla Comunità della Paganella con la cooperativa Tagesmutter del Trentino - Il Sorriso: Musica in culla.","Gli incontri saranno il giovedì dalle ore 17.00 alle 18.00 nella sala Polifunzionale, 3° Piano ex scuole elementari di Cavedago.
CALENDARIO
14 maggio
21 maggio
28 maggio
4 giugno11 giugno",http://www.comunita.paganella.tn.it/content/download/144718/2477822/2/musicaINculla.pdf,2015-06-11T17:00:00+02:00,,,,,,interno,,,,,,,,/var/comunitapaganella/storage/images/comunita-della-paganella/aree-tematiche/mondo-famiglia/eventi-mondo-famiglia/musica-in-culla2/2477837-2-ita-IT/Musica-in-culla.jpg,0,,,,,,,,46.183317,11.027746,,
ee721f132e8ed2bd27cc8bb4062496b2,2015-06-04T17:00:00+02:00,2015-06-04T12:15:52+02:00,"Musica in culla",,"Per avvicinare dolcemente e da subito i più piccoli all'armonia, questi gli appuntamenti dell'iniziativa promossa dalla Comunità della Paganella con la cooperativa Tagesmutter del Trentino - Il Sorriso: Musica in culla. ","Gli incontri saranno il giovedì dalle ore 17.00 alle 18.00 nella sala Polifunzionale, 3° Piano ex scuole elementari di Cavedago. 
CALENDARIO
14 maggio
21 maggio
28 maggio
 4 giugno11 giugno",http://www.comunita.paganella.tn.it/content/download/144711/2477780/2/musicaINculla.pdf,2015-06-04T17:00:00+02:00,,,,,,interno,,,,,,,,/var/comunitapaganella/storage/images/comunita-della-paganella/aree-tematiche/mondo-famiglia/eventi-mondo-famiglia/musica-in-culla/2477795-1-ita-IT/Musica-in-culla.jpg,0,,,,,,,,46.18341,11.027831,,
344092573788dc8b91ebcb122190aeac,2015-06-03T20:30:00+02:00,2015-05-29T06:16:48+02:00,"CINEFORUM - Catfish",,"Con questa rassegna, approfondiamo il tema di come i social media hanno cambiato le nostre relazioni sociali",,http://www.comunita.paganella.tn.it/content/download/144018/2470654/3/attivitàALTROpiano.pdf,2015-06-03T20:30:00+02:00,,"2 ore",,,"Spazio Giovani Altropiano",interno,"Gli appuntamenti del cineforum:11 maggio THE SOCIAL NETWORK di David Fincher (2012)18 maggio DISCONNECT di Henry Alex Rubin (2014)25 maggio HER di Spike Jonze (2014)3 giugno CATFISH di Henry Joost e Ariel Schulman (2010)",,gratuito,,,,,/var/comunitapaganella/storage/images/comunita-della-paganella/aree-tematiche/area-giovani/calendario-per-i-giovani/cineforum-catfish/2470669-1-ita-IT/CINEFORUM-Catfish.jpg,0,,,,,,"http://www.imdb.com/title/tt1584016/?ref_=ttfc_fc_tt|Catfish on IMDB",,46.170914,11.003952,,
b04530d94316692a7289248ef520ddfa,2015-05-28T19:00:00+02:00,2015-06-04T12:41:19+02:00,"Musica in culla",,"Per avvicinare dolcemente e da subito i più piccoli all'armonia, questi gli appuntamenti dell'iniziativa promossa dalla Comunità della Paganella con la cooperativa Tagesmutter del Trentino - Il Sorriso: Musica in culla.","Gli incontri saranno il giovedì dalle ore 17.00 alle 18.00 nella sala Polifunzionale, 3° Piano ex scuole elementari di Cavedago.
CALENDARIO
14 maggio
21 maggio
28 maggio
4 giugno11 giugno",http://www.comunita.paganella.tn.it/content/download/144721/2477912/2/amministrazione_trasparente.pdf,2015-05-28T19:00:00+02:00,,,,,,interno,,,,,,,,/var/comunitapaganella/storage/images/comunita-della-paganella/aree-tematiche/mondo-famiglia/eventi-mondo-famiglia/musica-in-culla5/2477927-1-ita-IT/Musica-in-culla.jpg,0,,,,,,,,46.183382,11.02779,,
96706fee892ba7f6164407b096d562f8,2015-05-25T20:30:00+02:00,2015-05-25T10:07:30+02:00,"CINEFORUM - Her",,"Con questa rassegna, approfondiamo il tema di come i social media hanno cambiato le nostre relazioni sociali",,http://www.comunita.paganella.tn.it/content/download/144015/2470609/1/attivitàALTROpiano.pdf,2015-05-25T20:30:00+02:00,,"2 ore",,,"Spazio Giovani Altropiano",interno,"Gli appuntamenti del cineforum:11 maggio THE SOCIAL NETWORK di David Fincher (2012)18 maggio DISCONNECT di Henry Alex Rubin (2014)25 maggio HER di Spike Jonze (2014)1 giugno CATFISH di Henry Joost e Ariel Schulman (2010)",,gratuito,,,,,/var/comunitapaganella/storage/images/comunita-della-paganella/aree-tematiche/area-giovani/calendario-per-i-giovani/cineforum-her/2470624-1-ita-IT/CINEFORUM-Her.jpg,0,,,,,,"http://www.imdb.com/title/tt1798709/?ref_=nv_sr_3|Her on IMDB",,46.170914,11.003995,,
5ac9e35f4853259c5969b46b4f8e3533,2015-05-21T17:00:00+02:00,2015-06-04T12:32:49+02:00,"Musica in culla",,"Per avvicinare dolcemente e da subito i più piccoli all'armonia, questi gli appuntamenti dell'iniziativa promossa dalla Comunità della Paganella con la cooperativa Tagesmutter del Trentino - Il Sorriso: Musica in culla.","Gli incontri saranno il giovedì dalle ore 17.00 alle 18.00 nella sala Polifunzionale, 3° Piano ex scuole elementari di Cavedago.
CALENDARIO
14 maggio
21 maggio
28 maggio
4 giugno11 giugno",http://www.comunita.paganella.tn.it/content/download/144720/2477882/1/amministrazione_trasparente.pdf,2015-05-21T17:00:00+02:00,,,,,,interno,,,,,,,,/var/comunitapaganella/storage/images/comunita-della-paganella/aree-tematiche/mondo-famiglia/eventi-mondo-famiglia/musica-in-culla4/2477897-1-ita-IT/Musica-in-culla.jpg,0,,,,,,,,46.18333,11.027725,,
6e95be86dece5ede4922df7a55f41045,2015-05-18T20:30:00+02:00,2015-05-25T10:02:56+02:00,"CINEFORUM - Disconnect",,"Con questa rassegna, approfondiamo il tema di come i social media hanno cambiato le nostre relazioni sociali",,http://www.comunita.paganella.tn.it/content/download/144013/2470562/1/attivitàALTROpiano.pdf,2015-05-18T20:30:00+02:00,,"2 ore",,,"Spazio Giovani Altropiano",interno,"Gli appuntamenti del cineforum:11 maggio THE SOCIAL NETWORK di David Fincher (2012)18 maggio DISCONNECT di Henry Alex Rubin (2014)25 maggio HER di Spike Jonze (2014)1 giugno CATFISH di Henry Joost e Ariel Schulman (2010)",,,,,,,/var/comunitapaganella/storage/images/comunita-della-paganella/aree-tematiche/area-giovani/calendario-per-i-giovani/cineforum-disconnect/2470577-1-ita-IT/CINEFORUM-Disconnect.jpg,0,,,,,,"http://www.imdb.com/title/tt1433811/?ref_=fn_al_tt_1|Disconnect on IMDB",,46.171047,11.004065,,
4a1c33012cf84af1e48c78b5a87925af,2015-05-14T17:00:00+02:00,2015-06-04T12:26:23+02:00,"Musica in culla",,"Per avvicinare dolcemente e da subito i più piccoli all'armonia, questi gli appuntamenti dell'iniziativa promossa dalla Comunità della Paganella con la cooperativa Tagesmutter del Trentino - Il Sorriso: Musica in culla.","Gli incontri saranno il giovedì dalle ore 17.00 alle 18.00 nella sala Polifunzionale, 3° Piano ex scuole elementari di Cavedago.
CALENDARIO
14 maggio
21 maggio
28 maggio
4 giugno11 giugno",http://www.comunita.paganella.tn.it/content/download/144719/2477852/1/musicaINculla.pdf,2015-05-14T17:00:00+02:00,,,,,,interno,,,,,,,,/var/comunitapaganella/storage/images/comunita-della-paganella/aree-tematiche/mondo-famiglia/eventi-mondo-famiglia/musica-in-culla3/2477867-1-ita-IT/Musica-in-culla.jpg,0,,,,,,,,46.183434,11.027822,,
ad65fb83e2591ada21e12ff5fe8d52cd,2015-05-11T20:30:00+02:00,2015-05-25T10:14:38+02:00,"CINEFORUM - The Social Network",,"Con questa rassegna, approfondiamo il tema di come i social media hanno cambiato le nostre relazioni sociali",,http://www.comunita.paganella.tn.it/content/download/144006/2470439/4/attivitàALTROpiano3.jpg,2015-05-11T20:30:00+02:00,,"2 ore",,,"Spazio Giovani Altropiano",interno,"Gli appuntamenti del cineforum:11 maggio THE SOCIAL NETWORK di David Fincher (2012)18 maggio DISCONNECT di Henry Alex Rubin (2014)25 maggio HER di Spike Jonze (2014)1 giugno CATFISH di Henry Joost e Ariel Schulman (2010)",,gratuito,,,,,/var/comunitapaganella/storage/images/comunita-della-paganella/aree-tematiche/area-giovani/calendario-per-i-giovani/cineforum-the-social-network/2470454-3-ita-IT/CINEFORUM-The-Social-Network.jpg,0,,,,,,"http://www.imdb.com/title/tt1285016/?ref_=nv_sr_2|The Social Network on IMDB",,46.170839,11.003797,,
5ea3477f7d6514ffd8a0d0892d15276b,2015-05-09T13:28:00+02:00,2015-05-04T13:37:44+02:00,"L'angolo morbido",,"Ogni pomeriggio del secondo sabato del mese, la Comunità della Paganella invita tutti i genitori con bambini e bambine tra 0 e 36 mesi, con le sorelline e i fratellini maggiori, a frequentare l'Angolo Morbido allestito con giochi e attività in diverse sedi dell'altopiano.","L'appuntamento è sabato 9 maggio 2015 nella biblioteca di Fai della Paganella dalle ore 16 alle 18: promosso e voluto nell’ambito del progetto Intrecci in Comunità… conoscenza e accoglienza, in collaborazione con la Cooperativa Sociale Tagesmutter del Trentino – Il Sorriso, l’Angolo Morbido è un luogo protetto, un momento dedicato alle famiglie, una possibilità per sostenere la capacità genitoriale, un servizio che intende favorire incontri al fine di promuovere relazioni amicali e forme di mutuo aiuto. L’Angolo Morbido viene gestito da educatrici qualificate ed esperte per aiutare le famiglie a stare in intimità e vicinanza anche in una situazione diversa dalla routine quotidiana.",http://www.comunita.paganella.tn.it/content/download/142436/2453834/2/ANGOLOmorbido.pdf,2015-05-09T13:28:00+02:00,,,,,,interno,"
Elisa Endrizzi, sportellodonna@comunita.paganella.tn.it e 0461 585230Tiziana Gatto, progettifamiglia@tagesmutter-ilsorriso.it",,Gratuito,,,,,/var/comunitapaganella/storage/images/comunita-della-paganella/aree-tematiche/mondo-famiglia/eventi-mondo-famiglia/l-angolo-morbido/2453849-1-ita-IT/L-angolo-morbido.jpg,0,,,,,,,,46.177914,11.069454,,
68f0c5d0ca0d82a2470163df235e8d4e,2015-04-11T16:00:00+02:00,2015-06-10T15:48:40+02:00,"L'angolo morbido",,"Per tutti i genitori con bambine e bambini di età compresa tra gli 0 e i 3 anni (ma sono benvenuti anche sorelle e fratelli maggiori!), la Comunità della Paganella organizza in collaborazione con la Cooperativa Sociale Tagesmutter del Trentino – Il Sorriso, nell’ambito del progetto Intrecci in Comunità… conoscenza e accoglienza, una serie di incontri itineranti nei 5 Comuni dell’altopiano, nel pomeriggio di ogni secondo sabato del mese.","BIBLIOTECA DI ANDALO","http://www.comunita.paganella.tn.it/content/download/145294/2483880/1/ANGOLO MORBIDO.pdf",2015-04-11T16:00:00+02:00,2015-04-11T18:00:00+02:00,,,,,interno,,,,,,,,/var/comunitapaganella/storage/images/comunita-della-paganella/aree-tematiche/mondo-famiglia/eventi-mondo-famiglia/l-angolo-morbido9/2483895-1-ita-IT/L-angolo-morbido.jpg,0,,,,,,,,46.163892,11.00333,,
ecb363d7e0f019427877ad6e90c6d9aa,2017-06-14T08:50:00+02:00,2017-06-14T09:02:10+02:00,"Prima Montegada in Paganella alla Malga di  Fai","Montegada della malga Fai - 18 giugno 2017","Programma:ore 10 Ritrovo al rifugioMerizore 11.30 presentazione dell'apeggio: la tradizione della Montegadaore 12.30 pranzo tipico con l'accademia della polenta Meriz.ore14.30 La Montegada: partenza e accompagnamento delle mucche a malga Fai.","Info e prenotazioni:Paganella Rifugi - Fabrizio Tonidandelmail: meriz@paganellarifugi.itTel. o461-1636378Cell. 333 1276483",,2017-06-14T08:50:00+02:00,2017-06-19T12:00:00+02:00,,,,,interno,,,,,,,,/var/comunitapaganella/storage/images/la-comunita/news-dal-territorio/montegada-della-malga-fai-18-giugno-2017/2988389-3-ita-IT/Montegada-della-malga-Fai-18-giugno-2017.jpg,0,,,,,,,,0,0,,
c5f0751c803a692f80887064e222cc43,2015-11-14T16:00:00+01:00,2015-06-10T14:54:52+02:00,"L'angolo morbido",,"Per tutti i genitori con bambine e bambini di età compresa tra gli 0 e i 3 anni (ma sono benvenuti anche sorelle e fratelli maggiori!), la Comunità della Paganella organizza in collaborazione con la Cooperativa Sociale Tagesmutter del Trentino – Il Sorriso, nell’ambito del progetto Intrecci in Comunità… conoscenza e accoglienza, una serie di incontri itineranti nei 5 Comuni dell’altopiano, nel pomeriggio di ogni secondo sabato del mese.","La nuova Tagesmutter Dora Fernandez terrà due laboratori:


facciamo il Didò con le mamme per i bambini più piccoli, 

costruiamo giochi di legno per i bambini più grandi.


","http://www.comunita.paganella.tn.it/content/download/145284/2483683/1/ANGOLO MORBIDO.pdf",2015-11-14T16:00:00+01:00,2015-11-14T18:00:00+01:00,,,,,interno,,,,,,,,,0,,,,,,,,46.18362,11.028348,cavedago,
b3aadd4df95e15bb9fc6817dfa2e47f5,2015-10-10T16:00:00+02:00,2015-06-10T14:51:37+02:00,"L'angolo morbido",,"Per tutti i genitori con bambine e bambini di età compresa tra gli 0 e i 3 anni (ma sono benvenuti anche sorelle e fratelli maggiori!), la Comunità della Paganella organizza in collaborazione con la Cooperativa Sociale Tagesmutter del Trentino – Il Sorriso, nell’ambito del progetto Intrecci in Comunità… conoscenza e accoglienza, una serie di incontri itineranti nei 5 Comuni dell’altopiano, nel pomeriggio di ogni secondo sabato del mese.","BIBLIOTECA DI FAI DELLA PAGANELLA","http://www.comunita.paganella.tn.it/content/download/145283/2483653/1/ANGOLO MORBIDO.pdf",2015-10-10T16:00:00+02:00,2015-10-10T18:00:00+02:00,,,,,interno,,,,,,,,/var/comunitapaganella/storage/images/comunita-della-paganella/aree-tematiche/mondo-famiglia/eventi-mondo-famiglia/l-angolo-morbido5/2483668-1-ita-IT/L-angolo-morbido.jpg,0,,,,,,,,46.177851,11.069546,,
2afb8d47704609bdc67bc323a47ccbe0,2015-10-09T18:00:00+02:00,2015-07-23T23:38:04+02:00,"Concorso fotografico Sandro Leonardelli",,"Scadenza presentazione opere ",,"http://www.comunita.paganella.tn.it/content/download/150759/2563657/2/Concorso Fotografico 2015.pdf",2015-10-09T18:00:00+02:00,,,,,,interno,,,,,,,,/var/comunitapaganella/storage/images/comunita-della-paganella/aree-tematiche/biblioteche-della-paganella/calendario-degli-eventi/concorso-fotografico-sandro-leonardelli/2563672-2-ita-IT/Concorso-fotografico-Sandro-Leonardelli.jpg,0,,,,,,,,0,0,,
7ed0baf9105fa78cfdd9afb27fa8f26c,2015-09-12T16:00:00+02:00,2015-06-10T14:54:29+02:00,"L'angolo morbido",,"Per tutti i genitori con bambine e bambini di età compresa tra gli 0 e i 3 anni (ma sono benvenuti anche sorelle e fratelli maggiori!), la Comunità della Paganella organizza in collaborazione con la Cooperativa Sociale Tagesmutter del Trentino – Il Sorriso, nell’ambito del progetto Intrecci in Comunità… conoscenza e accoglienza, una serie di incontri itineranti nei 5 Comuni dell’altopiano, nel pomeriggio di ogni secondo sabato del mese.","BIBLIOTECA DI ANDALO","http://www.comunita.paganella.tn.it/content/download/145282/2483623/1/ANGOLO MORBIDO.pdf",2015-09-12T16:00:00+02:00,2015-09-12T18:00:00+02:00,,,,,interno,,,,,,,,,0,,,,,,,,46.163929,11.003319,,
dd24d79a383bb141fd3125ad89cf8976,2015-08-08T16:00:00+02:00,2015-06-10T14:48:10+02:00,"L'angolo morbido",,"Per tutti i genitori con bambine e bambini di età compresa tra gli 0 e i 3 anni (ma sono benvenuti anche sorelle e fratelli maggiori!), la Comunità della Paganella organizza in collaborazione con la Cooperativa Sociale Tagesmutter del Trentino – Il Sorriso, nell’ambito del progetto Intrecci in Comunità… conoscenza e accoglienza, una serie di incontri itineranti nei 5 Comuni dell’altopiano, nel pomeriggio di ogni secondo sabato del mese.","TAGESMUTTER DI MOLVENO","http://www.comunita.paganella.tn.it/content/download/145281/2483593/1/ANGOLO MORBIDO.pdf",2015-08-08T16:00:00+02:00,2015-08-08T18:00:00+02:00,,,,,interno,,,,,,,,/var/comunitapaganella/storage/images/comunita-della-paganella/aree-tematiche/mondo-famiglia/eventi-mondo-famiglia/l-angolo-morbido4/2483608-1-ita-IT/L-angolo-morbido.jpg,0,,,,,,,,46.141734,10.965146,molveno,
Montagna_di_latte_evento_4523,2015-08-01T17:00:00+02:00,2015-07-31T13:00:29+02:00,"LA CASARADA ALL'APERTO",,"ASSISTEREMO ALLA LAVORAZIONE DEL LATTE PER SCOPRIRE TUTTI I SEGRETI PER OTTENERE UN BUON FORMAGGIO",,,2015-08-01T17:00:00+02:00,2015-08-01T19:00:00+02:00,,,"Dalle 17.00 alle 19.00","FAI DELLA PAGANELLA",,"Caseificio Sociale di Coredo",,,,,,,/var/comunitapaganella/storage/images/comunita-della-paganella/i-comuni/comune-di-fai-della-paganella/la-casarada-all-aperto/2574102-4-ita-IT/LA-CASARADA-ALL-APERTO.jpg,0,,,,,,,"Comune di Fai della Paganella",46.17828,11.069331,,
deb98b7caa57970f1cb266795f0300ac,2015-07-30T17:00:00+02:00,2015-07-25T16:41:45+02:00,"Arriva il Barbatangheri - Buskers e artisti di strada",,,"Ad Andalo, dalle 17 al Parco Sportivo, dalle 21 nel Centro del paeseA Fai della Paganella, dalle 17 alle 23 ",,2015-07-30T17:00:00+02:00,,,,,"Parco sportivo nel pomeriggio, centro storico in serata",interno,,"Famiglie, bambini e ragazzi",,,,,,,0,,,,,,,,0,0,,
dc34d93df9df717ac7b60967906ac9d1,2015-07-23T17:00:00+02:00,2015-07-25T16:39:51+02:00,"Arriva il Barbatangheri - Buskers e artisti di strada",,,"Ad Andalo, dalle 17 al Parco Sportivo, dalle 21 nel Centro del paeseA Spormagggiore, alle 20.30 in Centro Storico",,2015-07-23T17:00:00+02:00,,,,,"Parco sportivo nel pomeriggio, centro storico in serata",interno,,"Famiglie, bambini e ragazzi",,,,,,,0,,,,,,,,0,0,,
49d0f802f36e64656fcaf6e38c7552e9,2015-07-16T17:00:00+02:00,2015-07-25T16:40:53+02:00,"Arriva il Barbatangheri - Buskers e artisti di strada",,,"Ad Andalo, dalle 17 al Parco Sportivo, dalle 21 nel Centro del paese",,2015-07-16T17:00:00+02:00,,,,,"Parco sportivo nel pomeriggio, centro storico in serata",esterno,,"Famiglie, bambini e ragazzi",,,,,,,0,,,,,,,,0,0,,
6f0b1bf5c836caa9353c9a3a9cb9ded1,2018-06-05T20:30:00+02:00,2018-06-06T10:03:16+02:00,"I quattro codici della vita umana","I quattro codici della vita umana","Istruzioni per l'uso","Ereditare il codice materno e il codice paterno.",,2018-06-05T20:30:00+02:00,2018-06-05T23:59:00+02:00,,"Martedì 5 giugno 2018",20:30,"Andalo, AltroPiano Spazio Giovani, via Priori 14",interno,,,"Partecipazione gratuita",,,,,/var/comunitapaganella/storage/images/aree-tematiche/mondo-famiglia/eventi-mondo-famiglia/i-quattro-codici-della-vita-umana2/2993002-1-ita-IT/I-quattro-codici-della-vita-umana.jpg,0,,,,,,,,0,0,,
ef82d1b63b420f1a7003d5718524a1db,2018-05-30T20:00:00+02:00,2018-05-30T09:39:35+02:00,"Leggimi perchè mi vuoi bene","Leggimi perchè mi vuoi bene","Incontro a Fai della Paganella con Maria Lunelli, bibliotecaria esperta in letteratura per l'infanzia","Incontro rivolto a genitori, educatori, insegnanti e chiunque interessato all'importanza della lettura ad alta voce in famiglia e a scuola.Perché leggere a un bambino? Cosa leggere? Come proporre la lettura? La lettura ad alta voce rivolta ai bambini sin dalla più tenera età, se svolta con una certa continuità, porta grandi benefici affettivi e cognitivi. Durante l'incontro vi mostreremo una selezione di libri per bambini particolarmente significativi e apprezzati, e vi racconteremo cos’è Nati per Leggere, il Progetto nazionale a cui aderiamo dal 2002. Sarà l’occasione per informare i genitori sull’importanza della lettura ad alta voce in famiglia e dare spunti di aggiornamento per le insegnanti che abitualmente usano la lettura come attività educativa a scuola. E per tutti qualche consiglio nella scelta dei libri da proporre ai propri bambini, da 0 a 10 anni. Siete tutti invitati!","http://www.comunita.paganella.tn.it/content/download/201878/2992957/1/LEGGIMI PERCHè MI VUOI BENE Incontro per genitori Fai della Paganella.pdf",2018-05-30T20:00:00+02:00,2018-05-30T23:00:00+02:00,,"Mercoledì 30 maggio 2018",20:00,"Fai della Paganella, biblioteca",interno,,"genitori, educatori, insegnanti ","Partecipazione gratuita",,,,,/var/comunitapaganella/storage/images/aree-tematiche/mondo-famiglia/eventi-mondo-famiglia/leggimi-perche-mi-vuoi-bene3/2992972-1-ita-IT/Leggimi-perche-mi-vuoi-bene.jpg,0,,,,,,,,0,0,,
35a2e3b559d5aeaa0b5fa86e753274aa,2018-05-29T17:00:00+02:00,2018-05-30T09:29:30+02:00,"Leggimi perchè mi vuoi bene","Leggimi perchè mi vuoi bene","Incontro a Cavedago con Maria Lunelli, bibliotecaria esperta in letteratura per l'infanzia","Incontro rivolto a genitori, educatori, insegnanti e chiunque interessato all'importanza della lettura ad alta voce in famiglia e a scuola.Perché leggere a un bambino? Cosa leggere? Come proporre la lettura? La lettura ad alta voce rivolta ai bambini sin dalla più tenera età, se svolta con una certa continuità, porta grandi benefici affettivi e cognitivi. Durante l'incontro vi mostreremo una selezione di libri per bambini particolarmente significativi e apprezzati, e vi racconteremo cos’è Nati per Leggere, il Progetto nazionale a cui aderiamo dal 2002. Sarà l’occasione per informare i genitori sull’importanza della lettura ad alta voce in famiglia e dare spunti di aggiornamento per le insegnanti che abitualmente usano la lettura come attività educativa a scuola. E per tutti qualche consiglio nella scelta dei libri da proporre ai propri bambini, da 0 a 10 anni. Siete tutti invitati!","http://www.comunita.paganella.tn.it/content/download/201877/2992927/1/LEGGIMI PERCHè MI VUOI BENE Cavedago Incontro per genitori bis.pdf",2018-05-29T17:00:00+02:00,2018-05-29T21:00:00+02:00,,"Martedì 29 maggio 2018",17:00,"Cavedago presso la Scuola materna",interno,,"genitori, educatori, insegnanti ","partecipazione gratuita",,,,,/var/comunitapaganella/storage/images/aree-tematiche/mondo-famiglia/eventi-mondo-famiglia/leggimi-perche-mi-vuoi-bene2/2992942-1-ita-IT/Leggimi-perche-mi-vuoi-bene.jpg,0,,,,,,,,0,0,,
ce35e15e678fde221fd9e4a2810d4c7d,2018-05-23T20:30:00+02:00,2018-05-21T15:34:05+02:00,"Tutto troppo presto! Adolescenti e sessualità - istruzioni per l'uso","Tutto troppo presto! Adolescenti e sessualità - istruzioni per l'uso","Secondo incontro con le esperte Alice Marcolla (ostetrica) e Laura Mincone (psicologa)",,"http://www.comunita.paganella.tn.it/content/download/201872/2992823/1/locandina incontri sessualità.pdf",2018-05-23T20:30:00+02:00,2018-05-23T23:59:00+02:00,,"Secondo incontro: mercoledì 23 maggio 2018",20:30,"Spormaggiore, aula magna scuole medie",interno,,,"Partecipazione gratuita",,,,,/var/comunitapaganella/storage/images/aree-tematiche/mondo-famiglia/eventi-mondo-famiglia/tutto-troppo-presto!-adolescenti-e-sessualita-istruzioni-per-l-uso2/2992838-1-ita-IT/Tutto-troppo-presto!-Adolescenti-e-sessualita-istruzioni-per-l-uso.jpg,0,,,,,,,,46.219385,11.048705,"Scuole, Via Alt Spaur, Maso Trentini, Spormaggiore, Comunit&agrave, della Paganella, TN, Trentino-Alto Adige, 38017, Italia",
8eec33438dddc5e1a8928d9d0a1321b7,2018-05-23T16:00:00+02:00,2018-05-21T15:40:56+02:00,"Leggimi perchè mi vuoi bene","Leggimi perchè mi vuoi bene","Incontro a Spormaggiore con Maria Lunelli, bibliotecaria esperta in letteratura per l'infanzia","Incontro rivolto a genitori, educatori, insegnanti e chiunque interessato all'importanza della lettura ad alta voce in famiglia e a scuola.Perché leggere a un bambino? Cosa leggere? Come proporre la lettura? La lettura ad alta voce rivolta ai bambini sin dalla più tenera età, se svolta con una certa continuità, porta grandi benefici affettivi e cognitivi. Durante l'incontro vi mostreremo una selezione di libri per bambini particolarmente significativi e apprezzati, e vi racconteremo cos’è Nati per Leggere, il Progetto nazionale a cui aderiamo dal 2002. Sarà l’occasione per informare i genitori sull’importanza della lettura ad alta voce in famiglia e dare spunti di aggiornamento per le insegnanti che abitualmente usano la lettura come attività educativa a scuola. E per tutti qualche consiglio nella scelta dei libri da proporre ai propri bambini, da 0 a 10 anni. Siete tutti invitati!","http://www.comunita.paganella.tn.it/content/download/201873/2992853/1/LEGGIMI PERCHè MI VUOI BENE Incontro per genitori Spormaggiore.pdf",2018-05-23T16:00:00+02:00,2018-05-23T23:00:00+02:00,,"Mercoledì' 23 maggio 2018",16.00,"Spormaggiore, Scuola materna",interno,,"genitori, educatori, insegnanti ","partecipazione gratuita",,,,,/var/comunitapaganella/storage/images/aree-tematiche/mondo-famiglia/eventi-mondo-famiglia/leggimi-perche-mi-vuoi-bene/2992868-1-ita-IT/Leggimi-perche-mi-vuoi-bene.jpg,0,,,,,,,,46.218958,11.047109,"Scuola Equiparata dell&#039,Infanzia di Spormaggiore, Via dell&#039,Asilo, Maso Trentini, Spormaggiore, Comunit&agrave, della Paganella, TN, Trentino-",
ebcacd55556185129cb01608e0faa981,2018-05-21T20:30:00+02:00,2018-05-17T16:29:39+02:00,"I quattro codici della vita umana","I quattro codici della vita umana","Istruzioni per l'uso","&quot,Il codice paterno - il padre consegna un'eredità, veglia sulla notte dei figli e incoraggia la partenza e il viaggio&quot,Incontro con lo psicoterapeuta familiare dott. Ignazio Punzi",,2018-05-21T20:30:00+02:00,2018-05-21T23:59:00+02:00,,"lunedì 21 maggio 2018",20:30,"Spormaggiore - aula magna scuole medie",interno,,,"partecipazione gratuita",,,,,/var/comunitapaganella/storage/images/aree-tematiche/mondo-famiglia/eventi-mondo-famiglia/i-quattro-codici-della-vita-umana/2992808-1-ita-IT/I-quattro-codici-della-vita-umana.jpg,0,,,,,,,,0,0,,
1287393faf7679f55fd5deac36987912,2018-05-18T16:00:00+02:00,2018-05-10T08:52:15+02:00,"Non solo pappe!","Non solo pappe!","Incontro sullo svezzamento dei bambini","Venerdì 18 maggio 2018 alle ore 16.00 a Spormaggiore in via dell'Asilo 1 presso il Centro Anziani, parliamo dello svezzamento dei bambini insieme alla biologa nutrizionista Marizza Lamprecht e alla Tagesmutter Luisa Bandinu","http://www.comunita.paganella.tn.it/content/download/201832/2992488/2/locandina non solo pappe svezzamento.pdf",2018-05-18T16:00:00+02:00,2018-05-18T20:00:00+02:00,,"Venerdì 18 maggio 2018",16.00,"Spormaggiore, via dell'Asilo 1 presso Centro Anziani",interno,"Parleremo di svezzamento.Vedremo insieme dei piatti buoni e sani per i nostri bambini.Parleremo degli alimenti adatti, le loro proprietà nutrizionali e come proporli in modo sano e gustoso ai nostri piccoli.",,"partecipazione gratuita",,,,,/var/comunitapaganella/storage/images/aree-tematiche/mondo-famiglia/eventi-mondo-famiglia/non-solo-pappe2/2992503-1-ita-IT/Non-solo-pappe.jpg,0,,,,,,,,46.219317,11.04724,"Teatro Parrocchiale, Via dell&#039,Asilo, Maso Trentini, Spormaggiore, Comunit&agrave, della Paganella, TN, Trentino-Alto Adige, 38017, Italia",
f8e2c3f34154cdd9fd7e5ce3f27e6ed8,2018-05-16T12:14:00+02:00,2018-05-16T12:23:58+02:00,"“Ricostruiamo Bio, ripartiamo con Paolo” ","“Ricostruiamo Bio, ripartiamo con Paolo” ",,"Nella notte tra il 15 e il 16 aprile 2018 un sogno è andato in fumo. Era il sogno di Paolo Perlot e della sua famiglia, che avevano investito in un progetto che a breve si sarebbe concretizzato: un bio-agriturismo a Fai della Paganella, pensato in armonia con l’ambiente e alimentato esclusivamente da energie rinnovabili, a coronamento dei sacrifici di una vita. Purtroppo questo sogno è stato distrutto nell'arco di poche ora a causa di un fuoco nemico.Anche la Comunità, con l’Amministrazione Comunale di Fai della Paganella garante dell’iniziativa, si vuole stringere a Paolo per non lasciarlo solo, per sostenerlo concretamente, per stargli accanto in questa nuova sfida. Per questo è stata attivata una raccolta libera di fondi a sostegno dell’iniziativa “Ricostruiamo Bio, ripartiamo con Paolo”.A questo link del Comune di Fai della Paganella tutti i dettagli: http://www.comune.faidellapaganella.tn.it/Comune/Comunicazione/Avvisi-e-news/Ricostruiamo-Bio-ripartiamo-con-Paolo2",,2018-05-16T12:14:00+02:00,2018-09-01T12:00:00+02:00,,,,,interno,,,,,,,,/var/comunitapaganella/storage/images/la-comunita/la-comunita-informa/ricostruiamo-bio-ripartiamo-con-paolo/2992563-1-ita-IT/Ricostruiamo-Bio-ripartiamo-con-Paolo.jpg,0,,,,,,,,0,0,,
4a3880d092239c1169d3b60bdc3c03f6,2018-05-14T20:30:00+02:00,2018-05-02T08:50:03+02:00,"Corso di primo soccorso pediatrico","Corso di primo soccorso pediatrico","In collaborazione con Croce Bianca Paganella","Il corso è strutturato con una parte teorica a cura dell’infermiere pediatrico Stefano Larcher e una parte pratica con la collaborazione dell’istruttore provinciale di primo soccorso Claudio Endrizzi.Argomenti principali trattati:


disostruzione delle vie aeree

traumi e cadute

febbre

quando andare effettivamente al pronto soccorso

come effettuare correttamente la chiamata al 112.


","http://www.comunita.paganella.tn.it/content/download/201830/2992428/2/locandina primo soccorso pediatrico.pdf",2018-05-14T20:30:00+02:00,2018-05-14T23:30:00+02:00,,"Lunedì 14 maggio 2018",20.30,"Andalo, presso Centro Giovani, via Priori",interno,"Iscrizione obbligatoria gratuita fino ad esaurimento posti",,,,,,,/var/comunitapaganella/storage/images/aree-tematiche/mondo-famiglia/eventi-mondo-famiglia/corso-di-primo-soccorso-pediatrico/2992443-1-ita-IT/Corso-di-primo-soccorso-pediatrico.jpg,0,,,,,,,,46.170907,11.003972,"Centro Giovani, Via Priori, Andalo, Comunit&agrave, della Paganella, TN, Trentino-Alto Adige, 38018, Italia",
6744440f815ecafff165d10d03f91cad,2018-05-10T20:30:00+02:00,2018-05-03T16:40:50+02:00,"Tutto troppo presto! Adolescenti e sessualità - istruzioni per l'uso","Tutto troppo presto! Adolescenti e sessualità - istruzioni per l'uso","Tutto troppo presto! Adolescenti e sessualità - istruzioni per l'uso","Due incontri con le esperte Alice Marcolla (ostetrica) e Laura Mincone (psicologa)","http://www.comunita.paganella.tn.it/content/download/201831/2992458/3/locandina incontri sessualità.pdf",2018-05-10T20:30:00+02:00,2018-05-10T23:30:00+02:00,,"Primo incontro: giovedì 10 maggio 2018","Ore 20.30","Andalo, via Priori presso il Centro Giovani",interno,,,"Partecipazione gratuita",,,,,/var/comunitapaganella/storage/images/aree-tematiche/mondo-famiglia/eventi-mondo-famiglia/tutto-troppo-presto!-adolescenti-e-sessualita-istruzioni-per-l-uso/2992473-1-ita-IT/Tutto-troppo-presto!-Adolescenti-e-sessualita-istruzioni-per-l-uso.jpg,0,,,,,,,,46.170898,11.004056,"Centro Giovani, Via Priori, Andalo, Comunit&agrave, della Paganella, TN, Trentino-Alto Adige, 38018, Italia",
c3561cbaa33376b0515fbec9745380b0,2018-05-04T16:30:00+02:00,2018-04-18T15:08:10+02:00,"Coccoliamoci in fascia!","Coccoliamoci in fascia!","Madre-bambino: un rapporto intenso e unico.Ma come dare sicurezza ai nostri figli?","Madre-bambino: un rapporto intenso e unico.Ma come dare sicurezza ai nostri figli?Lo scopriremo insieme alle psicologhe di NeuroImpronta Sara Ghezzer e Sara Pedroni.E scopriamo come usare la fascia nella relazione di attaccamento genitore-figlio con l’esperta Susanne Greiner, consulente certificata ClaWi.","http://www.comunita.paganella.tn.it/content/download/201785/2992108/4/locandina coccoliamoci in fascia.jpg",2018-05-04T16:30:00+02:00,2018-05-04T19:00:00+02:00,,"Venerdì 4 maggio 2018","ore 16:30","Andalo, via Priori 4 presso AltroPiano",interno,,"Genitori, anche accompagnati dai figli","Partecipazione gratuita",,,,,/var/comunitapaganella/storage/images/aree-tematiche/mondo-famiglia/eventi-mondo-famiglia/coccoliamoci-in-fascia/2992123-4-ita-IT/Coccoliamoci-in-fascia.jpg,0,,,,,,,,46.170894,11.003961,"Centro Giovani, Via Priori, Andalo, Comunit&agrave, della Paganella, TN, Trentino-Alto Adige, 38018, Italia",
5d2e357cfee4b720df2f16d904b186dc,2018-04-16T20:30:00+02:00,2018-04-13T09:27:38+02:00,"I quattro codici della vita umana - istruzioni per l'uso","I quattro codici della vita umana - istruzioni per l'uso","Incontri con lo psicoterapeuta familiare dott. Ignazio Punzi","Attraverso l'applicazione dei 4 codici (maternità, paternità, filialità, fraternità), incontri strutturati- sulla rilettura delle storie personali- sullo scambio di esperienze- sulla condivisione di saperi acquisiti","http://www.comunita.paganella.tn.it/content/download/201783/2992048/2/locandina i quattro codici vita umana.pdf",2018-04-16T20:30:00+02:00,2018-04-16T23:59:00+02:00,,"16 aprile 2018",20.30,"Spormaggiore - aula magna scuole medie",interno,"Iniziativa promossa nell'ambito del progetto &quot,Famiglie a km 0&quot, dalla Comunità della Paganella e dal Distretto Famiglia della Paganella","genitori, educatori, adulti ","partecipazione gratuita",,,,,/var/comunitapaganella/storage/images/aree-tematiche/mondo-famiglia/eventi-mondo-famiglia/i-quattro-codici-della-vita-umana-istruzioni-per-l-uso2/2992063-2-ita-IT/I-quattro-codici-della-vita-umana-istruzioni-per-l-uso.jpg,0,,,,,,,,46.219406,11.04864,"Scuole, Via Alt Spaur, Maso Trentini, Spormaggiore, Comunit&agrave, della Paganella, TN, Trentino-Alto Adige, 38017, Italia",
eacae0e695b9fc078aae4b5f5bc10029,2018-04-13T09:15:00+02:00,2018-04-13T09:22:21+02:00,"Spazio Ascolto","Spazio Ascolto dedicato a te","L’aiuto del professionista vicino a te, per te.","Dubbi? Difficoltà? Hai bisogno di supporto e non sai a chi rivolgerti?I nostri professionisti sono disponibili ad ascoltarti su appuntamento.","http://www.comunita.paganella.tn.it/content/download/201784/2992078/1/locandina spazio ascolto.pdf",2018-04-13T09:15:00+02:00,2018-12-31T23:59:00+01:00,,,,,interno,"Che ansia! Non ce la faccio più! Sarò un buon genitore?Sono pensieri comuni che possiamo aiutarti a comprendere meglio!Psicologa Sara: tel. 340 3598108Ho abbastanza latte? Il mio bambino cresce abbastanza? Ha le coliche, cosa posso fare?Consigli e supporto pratico per mamme e papàOstetrica Alice tel.: 347 0839891","genitori e adulti","Accesso gratuito per i primi 2 incontri",,,,"Iniziativa promossa nell'ambito del progetto ""Famiglie a km 0"" dalla Comunità della Paganella e dal Distretto Famiglia della Paganella",/var/comunitapaganella/storage/images/aree-tematiche/mondo-famiglia/eventi-mondo-famiglia/spazio-ascolto-dedicato-a-te/2992093-1-ita-IT/Spazio-Ascolto-dedicato-a-te.jpg,0,,,,,,,,0,0,,
1d217dd5453321d0a327fb2a6e95c284,2018-04-13T08:47:00+02:00,2018-04-13T09:26:22+02:00,"Non solo pappe!","Non solo pappe!","Incontro sull'alimentazione dei bambini 0-3 anni","Venerdì 13 aprile 2018 alle ore 16.30 ad Andalo in via Priori 4 presso Altropiano, parliamo di alimentazione dei bambini 0-3 anni e cuciniamo insieme alla biologa nutrizionista Marizza Lamprecht e alla Tagesmutter Luisa Bandinu","http://www.comunita.paganella.tn.it/content/download/201781/2991988/5/locandina non solo pappe.pdf",2018-04-13T08:47:00+02:00,2018-04-13T20:00:00+02:00,,"Venerdì 13 aprile 2018",16.30,"Andalo, via Priori 4 presso AltroPiano",interno,"Cuciniamo insieme alla Biologa Nutrizionista e la TagesmutterParleremo di alimentazione dei bambini dai 0 ai 3 anniCucineremo e degusteremo insieme dei piatti buoni e saniParleremo degli alimenti adatti, le loro proprietà nutrizionali e come proporli in modo sano e gustoso ai nostri piccoli.","Mamme e papà di bambini 0-3 anni","partecipazione gratuita",,,,,/var/comunitapaganella/storage/images/aree-tematiche/mondo-famiglia/eventi-mondo-famiglia/non-solo-pappe/2992003-5-ita-IT/Non-solo-pappe.jpg,0,,,,,,,,46.170892,11.003949,"Centro Giovani, Via Priori, Andalo, Comunit&agrave, della Paganella, TN, Trentino-Alto Adige, 38018, Italia",
cf03e38ee30e71830eed58ce82bbff30,2018-03-19T20:30:00+01:00,2018-04-13T09:05:43+02:00,"I quattro codici della vita umana - istruzioni per l'uso","I quattro codici della vita umana - istruzioni per l'uso","Incontri con lo psicoterapeuta familiare dott. Ignazio Punzi","Attraverso l'applicazione dei 4 codici (maternità, paternità, filialità, fraternità), incontri strutturati- sulla rilettura delle storie personali- sullo scambio di esperienze- sulla condivisione di saperi acquisiti",,2018-03-19T20:30:00+01:00,2018-03-19T23:59:00+01:00,,"19 marzo 2018",20.30,"Andalo, via Priori 4 - presso AltroPiano",interno,"Iniziativa promossa nell'ambito del progetto &quot,Famiglie a km 0&quot, dalla Comunità della Paganella e dal Distretto Famiglia della Paganella","genitori, educatori, adulti","partecipazione gratuita",,,,,/var/comunitapaganella/storage/images/aree-tematiche/mondo-famiglia/eventi-mondo-famiglia/i-quattro-codici-della-vita-umana-istruzioni-per-l-uso/2992033-1-ita-IT/I-quattro-codici-della-vita-umana-istruzioni-per-l-uso.png,0,,,,,,,,0,0,,
abac3c3dbcf706b536a0dfbdee44202f,2018-02-22T09:32:00+01:00,2018-02-22T09:44:21+01:00,"LA RIFORMA DEL TERZO SETTORE il Tour trentino per le associazioni a Mezzocorona","LA RIFORMA DEL TERZO SETTORE","Serata informativa con l’obiettivo di informare le associazioni e i cittadini sulle principali novità apportate dalla Riforma.
L’incontro si svolgerà martedì 6 marzo 2018, dalle ore 20.15 alle ore 22.15 circa, a Mezzocorona presso la salaAuditorium della Cassa Rurale di Lavis-Mezzocorona-Valle di Cembra in via Dante Alighieri, 8.  ",,"http://www.comunita.paganella.tn.it/content/download/201728/2991499/3/Serata riforma terzo settore.pdf",2018-02-22T09:32:00+01:00,2018-03-08T12:00:00+01:00,,,,,interno,,,,,,,,/var/comunitapaganella/storage/images/la-comunita/news-dal-territorio/la-riforma-del-terzo-settore/2991514-1-ita-IT/LA-RIFORMA-DEL-TERZO-SETTORE.jpg,0,,,,,,,,0,0,,
77b56b60b23ebdaad15a19e6fc61dcfb,2018-01-01T16:00:00+01:00,2018-02-07T13:28:52+01:00,"Famiglie a km 0",,"Essere genitori oggi sul nostro territorio. ","Famiglie a km 0 è il progetto della Comunità della Paganella le cui protagoniste sono le famiglie!Aiutaci a scegliere le tematiche!Per idee e consigli scrivici all'indirizzo mail: sociale@comunita.paganella.tn.it",http://www.comunita.paganella.tn.it/content/download/145285/2483713/2/Cartolina.JPG,2018-01-01T16:00:00+01:00,2020-01-01T00:00:00+01:00,,,,,interno,,,,,,,,/var/comunitapaganella/storage/images/aree-tematiche/mondo-famiglia/eventi-mondo-famiglia/famiglie-a-km-0/2483728-2-ita-IT/Famiglie-a-km-0.png,0,,,,,,,,0,0,,
fa94ced71ddc4b3af5cc4cb61e469c02,2017-10-11T14:28:00+02:00,2017-10-31T17:23:37+01:00,"REALIZZA LA TUA IDEA! #PGZ 2018 ","REALIZZA LA TUA IDEA! #PGZ 2018 – PROROGATA LA SCADENZA AL 20 NOVEMBRE 2017","Al via il bando 2018 per la raccolta dei progetti del Piano Giovani Altopiano della Paganella, che offre la possibilità a tutte le associazioni ed enti dei 5 comuni di realizzare dei progetti rivolti ai giovani tra gli 11 e i 29 anni!","Proporre un progetto è semplice:


Contatta telefonicamente (348 461 90 86) o via e-mail (altopianogiovani@lancora.it) la Referente Tecnico-Organizzativa Enrica Zeni, parla con lei della tua idea di progetto e richiedi la scheda-idea,

Compila il modulo e invialo tramite e-mail o consegnalo in formato cartaceo a: AltRoPianO Spazio Giovani, via Priori 14, Andalo entro e non oltre le ore 18.00 di lunedì 20 novembre.

Entro gennaio 2018 si terrà la fase di valutazione del progetto da parte del Tavolo di Lavoro e delle Politiche giovanili della Provincia Autonoma di Trento,

Da aprile a dicembre 2018 i progetti giudicati idonei potranno essere realizzati,

Entro gennaio 2019 ci sarà la fase di rendicontazione di tali progetti.




    PGZ 2018 - REALIZZA LA TUA IDEA
","http://www.comunita.paganella.tn.it/content/download/201614/2990546/4/Bando AltopianoGiovani2018.pdf",2017-10-11T14:28:00+02:00,2017-11-04T12:00:00+01:00,,,,,interno,,,,,,,,/var/comunitapaganella/storage/images/la-comunita/la-comunita-informa/realizza-la-tua-idea!-pgz-2018-prorogata-la-scadenza-al-20-novembre-2017/2990561-1-ita-IT/REALIZZA-LA-TUA-IDEA!-PGZ-2018-PROROGATA-LA-SCADENZA-AL-20-NOVEMBRE-2017.jpg,0,,,,,,,,0,0,,
dc7672e0590d2f395a6a9bbf539af6c7,2017-09-05T15:35:00+02:00,2017-09-05T15:38:32+02:00,"Imprenditore io?","Il Progetto RELOAD - Incubatori d'Impresa","Partecipa all'incontro informativo  del 25 settembre 2017 alle ore 18,30 presso la Sala del Centro Giovani in Via Priori ad Andalo

    25_09 ANDALO_Locandina A4_RELOAD Incubatori d'impresa
",,,2017-09-05T15:35:00+02:00,2017-09-26T12:00:00+02:00,,,,,interno,,,,,,,,/var/comunitapaganella/storage/images/la-comunita/news-dal-territorio/il-progetto-reload-incubatori-d-impresa/2990048-1-ita-IT/Il-Progetto-RELOAD-Incubatori-d-Impresa.jpg,0,,,,,,,,0,0,,
4e85b7d79857d65a352a45c171a8bde3,2017-09-05T15:06:00+02:00,2017-09-19T16:16:31+02:00,"Filò Acceleratore Relazionale","Corso di formazione per operatori del territorio e cittadini","Corso di formazione per operatori del territorio e cittadini nei giorni 22, 23, 24 settembre 2917

    opuscolo rid


    Filò info semplice rid
",,"http://www.comunita.paganella.tn.it/content/download/201558/2989999/3/Filò info semplice rid.pdf",2017-09-05T15:06:00+02:00,2017-09-25T12:00:00+02:00,,,,,interno,,,,,,,,/var/comunitapaganella/storage/images/la-comunita/la-comunita-informa/corso-di-formazione-per-operatori-del-territorio-e-cittadini/2990014-1-ita-IT/Corso-di-formazione-per-operatori-del-territorio-e-cittadini.jpg,0,,,,,,,,0,0,,
a4d0c82a80ef54100f7a974e31275d27,2019-06-05T20:30:00+02:00,2019-05-21T17:15:05+02:00,"Essere educatori: oltre il conflitto!","Essere educatori: oltre il conflitto! ciclo di incontri con la psicologa Laura Mocini","Ultimo incontro: &quot,I compiti a casa: terreno di incontro o scontro?&quot,",,"http://www.comunita.paganella.tn.it/content/download/202188/2996276/1/locandina incontro conflitto 3.pdf",2019-06-05T20:30:00+02:00,2019-06-05T23:30:00+02:00,,"Mercoledì 5 giugno 2019","ore 20.30","Cavedago, presso la sala civica del Comune",interno,,,"Partecipazione gratuita",,,,,/var/comunitapaganella/storage/images/aree-tematiche/mondo-famiglia/eventi-mondo-famiglia/essere-educatori-oltre-il-conflitto!-ciclo-di-incontri-con-la-psicologa-laura-mocini/essere-educatori-oltre-il-conflitto!-ciclo-di-incontri-con-la-psicologa-laura-mocini/2996291-1-ita-IT/Essere-educatori-oltre-il-conflitto!-ciclo-di-incontri-con-la-psicologa-Laura-Mocini.jpg,0,,,,,,,,0,0,,
19003d094a095f6a4d59d587ac57cd76,2019-06-03T15:00:00+02:00,2019-05-21T17:18:51+02:00,"Bambini e capricci","Bambini e capricci: come riconoscere i bisogni e le emozioni dei bambini","Bambini e capricci: come riconoscere i bisogni e le emozioni dei bambini","Lo scopriremo insieme alle psicologhe di Neuroimpronta Carla Delpero e Valentina Lucca","http://www.comunita.paganella.tn.it/content/download/202189/2996306/1/locandina incontro capricci.pdf",2019-06-03T15:00:00+02:00,2019-06-03T17:00:00+02:00,,"Lunedì 3 giugno 2019","ore 15.00","Andalo, presso la Sala Altropiano del Centro Giovani in via Priori 14",interno,,,"Partcipazione gratuita",,,,,/var/comunitapaganella/storage/images/aree-tematiche/mondo-famiglia/eventi-mondo-famiglia/essere-educatori-oltre-il-conflitto!-ciclo-di-incontri-con-la-psicologa-laura-mocini/essere-educatori-oltre-il-conflitto!-ciclo-di-incontri-con-la-psicologa-laura-mocini/bambini-e-capricci-come-riconoscere-i-bisogni-e-le-emozioni-dei-bambini/2996321-1-ita-IT/Bambini-e-capricci-come-riconoscere-i-bisogni-e-le-emozioni-dei-bambini.jpg,0,,,,,,,,0,0,,
0d0aa3787411c3a1a8dfe2d60df89fa2,2019-05-27T20:30:00+02:00,2019-05-21T17:12:29+02:00,"Essere educatori: oltre il conflitto!","Essere educatori: oltre il conflitto! ciclo di incontri con la psicologa Laura Mocini","2° incontro: &quot,Il conflitto tra fratelli: verso una nuova prospettiva.&quot,",,"http://www.comunita.paganella.tn.it/content/download/202187/2996246/2/locandina incontro conflitto 2.pdf",2019-05-27T20:30:00+02:00,2019-05-27T23:30:00+02:00,,"Lunedì 27 maggio 2019","ore 20.30","Molveno, presso ""El Casel"" in via Garibaldi 15",interno,,,"partecipazione gratuita",,,,,/var/comunitapaganella/storage/images/aree-tematiche/mondo-famiglia/eventi-mondo-famiglia/essere-educatori-oltre-il-conflitto!-ciclo-di-incontri-con-la-psicologa-laura-mocini/2996261-1-ita-IT/Essere-educatori-oltre-il-conflitto!-ciclo-di-incontri-con-la-psicologa-Laura-Mocini.jpg,0,,,,,,,,0,0,,
eae695839bebecbfd14a5fc018b29648,2019-05-23T20:30:00+02:00,2019-05-21T17:04:20+02:00,"Dipendenze digitali: giovani vs smartphone, videogiochi e social network","Dipendenze digitali: giovani vs smartphone, videogiochi e social network","Dipendenze digitali: giovani vs smartphone, videogiochi e social network","Serata informativa aperta a tutta la popolazione.Con la partecipazione dello psicologo Michele Zagni e dell'educatrice Monica Sadler.","http://www.comunita.paganella.tn.it/content/download/202185/2996196/1/locandina incontro tecnologie.pdf",2019-05-23T20:30:00+02:00,2019-05-23T23:30:00+02:00,,"Giovedì 23 maggio 2019","ore 20.30","Andalo presso la sala Altropiano del Centro Giovani in via Priori 14",interno,,"Genitori, educatori, cittadinanza interessata","Partecipazione gratuita",,,,,/var/comunitapaganella/storage/images/aree-tematiche/mondo-famiglia/eventi-mondo-famiglia/dipendenze-digitali-giovani-vs-smartphone-videogiochi-e-social-network/2996211-1-ita-IT/Dipendenze-digitali-giovani-vs-smartphone-videogiochi-e-social-network.jpg,0,,,,,,,,0,0,,
24baee1f7db306f2af95ed07266c44b3,2019-05-22T17:00:00+02:00,2019-05-21T17:00:10+02:00,"Non solo pappe!","Non solo pappe!","Incontro sullo svezzamento dei bambini","Parleremo di svezzamento insieme alla Biologa Nutrizionista e alla Tagesmutter Luisa BandinuVedremo insieme dei piatti buoni e sani per i nostri bambiniParleremo degli alimenti adatti, le loro proprietà nutrizionali e come proporli in modo sano e gustoso ai nostri piccoli.","http://www.comunita.paganella.tn.it/content/download/202184/2996166/3/locandina non solo pappe svezzamento 2019.pdf",2019-05-22T17:00:00+02:00,2019-05-22T19:00:00+02:00,,"Mercoledì 22 maggio 2019","ore 17.00","Andalo, presso la sede delle Tagesmutter in via Fovo 6 A",interno,,genitori,"partecipazione gratuita",,,,,/var/comunitapaganella/storage/images/aree-tematiche/mondo-famiglia/eventi-mondo-famiglia/non-solo-pappe3/2996181-1-ita-IT/Non-solo-pappe.jpg,0,,,,,,,,0,0,,
a4937a3cb318572d66b15737c6e9701f,2019-05-13T15:30:00+02:00,2019-05-08T10:01:13+02:00,"Giocare per apprendere","L'importanza del gioco nel processo di apprendimento del bambino","Incontro con le psicologhe di Neuroimpronta Carla Delpero e Valentina Lucca","Ti aspettiamo con il tuo bambino per scoprire attività stimolanti da proporre già a partire dai primi mesi di vita.Giocheremo e chiacchiereremo insieme!","http://www.comunita.paganella.tn.it/content/download/202176/2996067/1/locandina incontro gioco e apprendimento.pdf",2019-05-13T15:30:00+02:00,2019-05-13T18:00:00+02:00,,"Lunedì 13 maggio 2019",15.30,"Andalo - Centro Giovani via Priori 14",interno,,,,,,,,/var/comunitapaganella/storage/images/aree-tematiche/mondo-famiglia/eventi-mondo-famiglia/c-e-relazione-senza-conflitto-pensare-abitare-vivere-la-conflittualita-nella-propria-vita/l-importanza-del-gioco-nel-processo-di-apprendimento-del-bambino/2996082-1-ita-IT/L-importanza-del-gioco-nel-processo-di-apprendimento-del-bambino.jpg,0,,,,,,,,0,0,,
98a626f1ddfeb16f19fb6c10426eef4d,2019-05-07T20:30:00+02:00,2019-05-08T10:01:56+02:00,"Essere educatori ... oltre il conflitto!","C'è relazione senza conflitto? Pensare, abitare, vivere la conflittualità nella propria vita","Ciclo di incontri con la psicologa Laura Mocini",,"http://www.comunita.paganella.tn.it/content/download/202175/2996037/2/locandina incontro conflitto 1.pdf",2019-05-07T20:30:00+02:00,2019-05-07T23:30:00+02:00,,"Martedì 7 maggio 2019",20.30,"Fai della Paganella - Biblioteca",interno,,,,,,,,/var/comunitapaganella/storage/images/aree-tematiche/mondo-famiglia/eventi-mondo-famiglia/c-e-relazione-senza-conflitto-pensare-abitare-vivere-la-conflittualita-nella-propria-vita/2996052-1-ita-IT/C-e-relazione-senza-conflitto-Pensare-abitare-vivere-la-conflittualita-nella-propria-vita.jpg,0,,,,,,,,0,0,,
6a09b6d6977010155cd7e1050922472c,2019-04-18T15:30:00+02:00,2019-04-12T11:58:42+02:00,"Nanna e coccole!","Nanna e coccole!","Madre-bambino: un rapporto intenso e unico.Ma come dare sicurezza ai nostri figli?E quali buone abitudini ci possiamo dare per il sonno sia nostro che dei nostri figli?","Madre-bambino: un rapporto intenso e unico.Ma come dare sicurezza ai nostri figli?E quali buone abitudini ci possiamo dare per il sonno sia nostro che dei nostri figli?Lo scopriremo insieme alle psicologhe di NeuroImpronta Sara Ghezzer e Valentina Spagni",,2019-04-18T15:30:00+02:00,2019-04-18T18:00:00+02:00,,"Giovedì 18 aprile 2019","ore 15:30","Andalo, c/o Centro Giovani in via Priori 14",interno,,genitori,"partecipazione gratuita",,,,,/var/comunitapaganella/storage/images/aree-tematiche/mondo-famiglia/eventi-mondo-famiglia/nanna-e-coccole/2995844-1-ita-IT/Nanna-e-coccole.jpg,0,,,,,,,,0,0,,
d87ab9194163a070ce14fe34eda25be3,2019-03-29T15:30:00+01:00,2019-03-19T16:50:28+01:00,"Oggi cuciniamo noi","Oggi cuciniamo noi assieme a mamma e papà","Laboratorio di cucina rivolto a bambini dai 2 ai 5 anni ed ai loro genitori","Laboratorio di cucina rivolto a bambini dai 2 ai 5 anni ed ai loro genitori.Assieme alla tagesmutter Luisa cucineremo pietanze prelibate e invitanti divertendoci in cucina.La partecipazione è gratuitaPosti limitati! Iscrizione obbligatoria entro il 27 marzo e fino ad esaurimento postiMail: sociale@comunita.paganella.tn.it",,2019-03-29T15:30:00+01:00,2019-03-29T19:00:00+01:00,,"Venerdì 29 marzo 2019",15:30,"AltroPiano Spazio Giovani ad Andalo",interno,,"Bambini tra i 2 e i 5 anni insieme ai loro genitori","Partecipazione gratuita ma iscrizione obbligatoria",,,,,/var/comunitapaganella/storage/images/aree-tematiche/mondo-famiglia/eventi-mondo-famiglia/oggi-cuciniamo-noi-assieme-a-mamma-e-papa/2995685-1-ita-IT/Oggi-cuciniamo-noi-assieme-a-mamma-e-papa.jpg,0,,,,,,,,0,0,,
774f77aea780c4f414ab6e3eeb57a191,2019-03-28T20:30:00+01:00,2019-03-19T16:44:55+01:00,"Giovani e droghe","Giovani e droghe","Pericoli, prevenzione e risposte dei ragazzi.","Incontro informativo sulla tematica delle tossicodipendenze rivolto a genitori, insegnanti, educatori in conclusione del percorso realizzato nelle scuole della Paganella.Con la partecipazione dello psicologo Michela Zagni e dell'educatrice Monica Sadler.In collaborazione con l'Associazione Croce Rossa Italiana - Comitato Provinciale di Trento",,2019-03-28T20:30:00+01:00,2019-03-28T23:30:00+01:00,,"Giovedì 28 marzo 2019",20:30,"Aula Magna Istituto Comprensivo di Spormaggiore, in via Alt Spaur 7",interno,,"Genitori, insegnanti, educatori","Partecipazione gratuita",,,,,/var/comunitapaganella/storage/images/aree-tematiche/mondo-famiglia/eventi-mondo-famiglia/giovani-e-droghe/2995655-1-ita-IT/Giovani-e-droghe.jpg,0,,,,,,,,0,0,,
cbef5e3ba779e2ea3a98d26caf9faa98,2018-11-16T17:00:00+01:00,2018-11-13T17:29:15+01:00,"Nanna e coccole!","Nanna e coccole!","Madre-bambino: un rapporto intenso e unico.Ma quali buone abitudini ci possiamo dare per il sonno sia nostro che dei nostri figli?","Madre-bambino: un rapporto intenso e unico.Ma quali buone abitudini ci possiamo dare per il sonno sia nostro che dei nostri figli?Lo scopriremo insieme alle psicologhe di NeuroImpronta Sara Ghezzer e Valentina Spagni","http://www.comunita.paganella.tn.it/content/download/201989/2994139/1/locandina incontro nanna e coccole.pdf",2018-11-16T17:00:00+01:00,2018-11-16T20:00:00+01:00,,"Venerdì 16 novembre 2018",17.30,"Andalo, c/o Centro Giovani in via Priori 14",interno,,,"partecipazione gratuita",,,,,/var/comunitapaganella/storage/images/aree-tematiche/mondo-famiglia/eventi-mondo-famiglia/coccoliamoci-in-fascia/nanna-e-coccole/2994154-1-ita-IT/Nanna-e-coccole.jpg,0,,,,,,,,0,0,,
21a67e315ede79c12e6e25bce087fe80,2018-11-15T20:00:00+01:00,2018-11-13T17:24:34+01:00,"I quattro codici della vita umana","I quattro codici della vita umana","Istruzioni per l'uso","&quot,Parliamo di fratelli&quot,Incontro con lo psicoterapeuta familiare dott. Ignazio Punzi","http://www.comunita.paganella.tn.it/content/download/201987/2994079/1/locandina 15 novembre Punzi.jpg",2018-11-15T20:00:00+01:00,2018-11-15T23:30:00+01:00,,"Giovedì 15 novembre 2018","ore 20.30","Andalo c/o Centro Giovani via Priori",interno,,,"partecipazione gratuita",,,,,/var/comunitapaganella/storage/images/aree-tematiche/mondo-famiglia/eventi-mondo-famiglia/i-quattro-codici-della-vita-umana3/2994094-1-ita-IT/I-quattro-codici-della-vita-umana.jpg,0,,,,,,,,0,0,,
512bea14cb6b499ab8f45f28b9ab81af,2018-11-13T16:30:00+01:00,2018-11-02T11:10:11+01:00,"Leggimi perchè mi vuoi bene","Leggimi perchè mi vuoi bene","Incontro con Maria Lunelli, bibliotecaria esperta di letteratura per l'infanzia","Incontro rivolto a genitori, educatori, insegnanti e chiunque interessato all'importanza della lettura ad alta voce in famiglia e a scuola.Perché leggere a un bambino? Cosa leggere? Come proporre la lettura? La lettura ad alta voce rivolta ai bambini sin dalla più tenera età, se svolta con una certa continuità, porta grandi benefici affettivi e cognitivi. Durante l'incontro vi mostreremo una selezione di libri per bambini particolarmente significativi e apprezzati, e vi racconteremo cos’è Nati per Leggere, il Progetto nazionale a cui aderiamo dal 2002. Sarà l’occasione per informare i genitori sull’importanza della lettura ad alta voce in famiglia e dare spunti di aggiornamento per le insegnanti che abitualmente usano la lettura come attività educativa a scuola. E per tutti qualche consiglio nella scelta dei libri da proporre ai propri bambini, da 0 a 10 anni. Siete tutti invitati!","http://www.comunita.paganella.tn.it/content/download/201959/2993802/1/LEGGIMI PERCHè MI VUOI BENE Molveno  Incontro per genitori .pdf",2018-11-13T16:30:00+01:00,2018-11-13T19:00:00+01:00,,"Martedì 13 novembre 2018","Ore 16.30","Scuola Materna di Molveno",interno,,"genitori, educatori, insegnanti","partecipazione gratuita",,,,,/var/comunitapaganella/storage/images/aree-tematiche/mondo-famiglia/eventi-mondo-famiglia/leggimi-perche-mi-vuoi-bene5/2993817-1-ita-IT/Leggimi-perche-mi-vuoi-bene.jpg,0,,,,,,,,0,0,,
a72a9e0667c7ff360de84978586d2315,2018-11-09T17:00:00+01:00,2018-11-02T11:05:56+01:00,"Leggimi perchè mi vuoi bene","Leggimi perchè mi vuoi bene","Incontro ad Andalo con Maria Lunelli, bibliotecaria esperta in letteratura per l'infanzia","Incontro rivolto a genitori, educatori, insegnanti e chiunque interessato all'importanza della lettura ad alta voce in famiglia e a scuola.Perché leggere a un bambino? Cosa leggere? Come proporre la lettura? La lettura ad alta voce rivolta ai bambini sin dalla più tenera età, se svolta con una certa continuità, porta grandi benefici affettivi e cognitivi. Durante l'incontro vi mostreremo una selezione di libri per bambini particolarmente significativi e apprezzati, e vi racconteremo cos’è Nati per Leggere, il Progetto nazionale a cui aderiamo dal 2002. Sarà l’occasione per informare i genitori sull’importanza della lettura ad alta voce in famiglia e dare spunti di aggiornamento per le insegnanti che abitualmente usano la lettura come attività educativa a scuola. E per tutti qualche consiglio nella scelta dei libri da proporre ai propri bambini, da 0 a 10 anni. Siete tutti invitati!","http://www.comunita.paganella.tn.it/content/download/201957/2993742/1/LEGGIMI PERCHè MI VUOI BENE Andalo  Incontro per genitori.pdf",2018-11-09T17:00:00+01:00,2018-11-09T19:00:00+01:00,,"Venerdì 9 novembre 2018","Ore 17.00","Scuola Materna - Andalo",interno,,"genitori, educatori, insegnanti","partecipazione gratuita",,,,,/var/comunitapaganella/storage/images/aree-tematiche/mondo-famiglia/eventi-mondo-famiglia/leggimi-perche-mi-vuoi-bene4/2993757-1-ita-IT/Leggimi-perche-mi-vuoi-bene.jpg,0,,,,,,,,0,0,,
08bbdb1c200a60191057c6277d1d72fb,2018-11-08T20:00:00+01:00,2018-11-02T10:57:47+01:00,"D.S.A. - conoscerli e riconoscerli","D.S.A. - conoscerli e riconoscerli","Serata informativa sulla tematica dei disturbi specifici dell'apprendimento","Incontro rivolto a genitori, insegnanti, educatori per riconoscere e affrontare serenamente queste difficoltà.Giovedì 8 novembre 2018 ore 20.30 - Oratorio di Fai della Paganella","http://www.comunita.paganella.tn.it/content/download/201956/2993712/1/locandina incontro DSA.pdf",2018-11-08T20:00:00+01:00,2018-11-08T23:30:00+01:00,,"Giovedì 8 novembre 2018",20.30,"Fai della Paganella - Oratorio",interno,,"Genitori, insegnanti, educatori","Partecipazione gratuita",,,,,/var/comunitapaganella/storage/images/aree-tematiche/mondo-famiglia/eventi-mondo-famiglia/d.s.a.-conoscerli-e-riconoscerli/2993727-1-ita-IT/D.S.A.-conoscerli-e-riconoscerli.jpg,0,,,,,,,,46.180635,11.071892,"Fai della Paganella, Comunit&agrave, della Paganella, TN, Trentino-Alto Adige, 38017, Italia",
5de3124b92d42e5b0a62ec1b27ac96fd,2018-11-07T08:27:00+01:00,2018-11-07T08:44:17+01:00,"Aperti i termini per la presentazione delle domande di assegno di studio e di facilitazione di viaggio a.s. 2018-2019.",,"Il termine per la presentazione delle domande è fissato alle ore 10.00 del giorno venerdì 07 dicembre 2018.Il Comitato Esecutivo della Comunità Rotaliana - Königsberg, con propria deliberazione n. 112 dd. 29 ottobre 2018, ha approvato i bandi per la concessione di assegni di studio e di facilitazioni di viaggio per l’anno scolastico 2018-2019. Il termine per la presentazione delle domande è fissato alle ore 10.00 del giorno venerdì 07 dicembre 2018.I bandi e i relativi moduli sono disponibili presso i Comuni della Comunità Rotaliana – Königsberg e della Paganella e presso il Servizio Diritto allo Studio Ufficio Istruzione e Assistenza Scolastica della Comunità, o direttamente scaricabili dal sito Internet, cliccando sul seguente link:http://www.comunita.paganella.tn.it/Aree-tematiche/Istruzione-e-assistenza-scolastica/Assegni-di-Studio/Assegni-di-studio-e-facilitazioni-di-viaggio-a.s.-2018-2019",,,2018-11-07T08:27:00+01:00,2018-12-07T10:00:00+01:00,,,,,interno,,,,,,,,/var/comunitapaganella/storage/images/la-comunita/la-comunita-informa/aperti-i-termini-per-la-presentazione-delle-domande-di-assegno-di-studio-e-di-facilitazione-di-viaggio-a.s.-2018-2019/2994027-1-ita-IT/Aperti-i-termini-per-la-presentazione-delle-domande-di-assegno-di-studio-e-di-facilitazione-di-viaggio-a.s.-2018-2019.jpg,0,,,,,,,,0,0,,
pat_2397238,2012-02-14T22:11:39+01:00,2012-02-14T22:11:39+01:00,"Carnevale di Cavedago",,,,,2012-02-19T00:00:00+01:00,2012-02-19T00:00:00+01:00,,,"dalle ore 12.00","Piazza, , Cavedago",,"
Note: Domenica 19 febbraio
Tutti in PIAZZA di CAVEDAGO
 
Programma:
ore 12.00: Maccheroni con ragù - Canederli Trentini
ore 13.00:
 Panini con lucaniche - Formaggi Trentini 
 Crostoli - Strudel - Vin Brulè 
ore 13.30: Slittata delle mascherine del paese
ore 14.00: Grappe e vini Trentini
ore 15.00: Estrazione lotteria con ricchi premi
 
La giornata sarà allietata dalla musica Di LinardiNel pomeriggio cioccolata per i più piccoli offerta dal Gruppo El Filò!Telefono: 0461/585836",,,,"Manifestazioni ed eventi",,,,0,,,,,,http://www.visitdolomitipaganella.it,"Comune di Cavedago",46.186278,11.0325,,"Redazione Trentino Cultura"
pat_2397237,2012-02-14T22:11:39+01:00,2012-02-14T22:11:39+01:00,"Carnevale di Spormaggiore",,,,,2012-02-18T00:00:00+01:00,2012-02-18T00:00:00+01:00,,,"dalle ore 12.00","Piazza di Fiera , , Spormaggiore",,"
Note: Sabato 18 febbraio 2012 tutti in piazza a Spormaggiore per festeggiare assieme il CARNEVALE!
 
PROGRAMMA:
ore 12.00 I Zusi, lo storico gruppo che anima da anni il nostro carnevale, vi invitano a mangiare i fantastici maccheroni tutti insieme in allegria !!!
nel pomeriggio si raccolgono le iscrizioni per la sfilata delle mascherine  2,00 cadauna
ore 14.00 sfilata delle mascherine dei bambini a cui seguiranno gruppi di maschere
ore 15.00 dopo la sfilata ci facciamo una scorpacciata di polenta luganeghe e buon vino
 Per i più piccoli e non lintera giornata sarà allietata da dj Silvio con musica, palloncini, clown e zucchero filato gratis per tutti!!!Telefono: 0461/585836",,,,"Manifestazioni ed eventi",,,,0,,,,,,http://www.visitdolomitipaganella.it,"Comune di Spormaggiore",46.219516,11.049804,,"Redazione Trentino Cultura"
pat_2395905,2012-01-31T17:38:07+01:00,2012-02-14T22:09:33+01:00,"Posti in piedi in paradiso",,,,,2012-03-14T00:00:00+01:00,2012-03-14T00:00:00+01:00,,,"ore 21.00","Cinema Teatro Comunale, Piazza Centrale, 1, Andalo",,"
Note: Italia, 2012
Titolo originale: Posti in piedi in paradiso
Genere: Commedia
Durata: 
Regia: Carlo Verdone
Cast: Carlo Verdone, Micaela Ramazzotti, Pierfrancesco Favino, Marco Giallini
Sito internet: www.postinpiediinparadiso.itUlisse, un ex discografico di successo, vive nel retro del suo negozio di vinili e arrotonda le scarse entrate vendendo &quot,memorabilia&quot, su e-bay. Ha una figlia, Agnese, che vive a Parigi con la madre Claire, un'ex cantante. Fulvio, ex critico cinematografico, scrive di gossip e vive presso un convitto di religiose. Anche lui ha una bambina, di tre anni, che non vede quasi mai a causa del pessimo rapporto con l'ex moglie Lorenza. Domenico, in passato ricco imprenditore, è oggi un agente immobiliare che dorme sulla barca di un amico e, per mantenere ben due famiglie, fa il gigolo con le signore di una certa età. Ha un rapporto conflittuale con i due figli più grandi ed è perennemente in ritardo con gli alimenti da versare alla sua ex moglie e all'ex amante Marisa, da cui ha avuto un'altra figlia. Dopo un incontro casuale, durante la ricerca di una casa in affitto, Domenico realizza di avere incontrato due poveracci come lui e propone ad Ulisse e Fulvio di andare a vivere insieme per dividere le spese di un appartamento. Inizia così la loro convivenza e la loro amicizia.Telefono: 0461/585776Altri organizzatori: Andalo Gestione Vacanze",,,,Cinema,,,,0,,,,,,"http://www.andalovacanze.com|Andalo Gestione Vacanze","Comune di Andalo",46.165444,11.003532,,
pat_2395904,2012-01-31T17:38:07+01:00,2012-02-14T22:09:32+01:00,"War Horse",,,,,2012-03-07T00:00:00+01:00,2012-03-07T00:00:00+01:00,,,"ore 21.00","Cinema Teatro Comunale, Piazza Centrale, 1, Andalo",,"
Note: Usa, 2012 
Titolo originale: War Horse 
Genere: Guerra/Avventura 
Durata: 
Regia: Steven Spielberg 
Cast: Jeremy Irvine, Peter Mullan, Emily Watson, David Thewlis, Benedict Cumberbatch 
Dal romanzo omonimo di Michael Morpurgo. Durante la I Guerra Mondiale Albert, un giovane ragazzo inglese, parte per il fronte francese alla ricerca del suo amato cavallo Joey, venduto dal padre alla cavalleria britannica per far fronte ai problemi economici della famiglia. Sarà l'inizio di una lunga e travagliata avventuraTelefono: 0461/585776Altri organizzatori: Andalo Gestione Vacanze",,,,Cinema,,,,0,,,,,,"http://www.andalovacanze.com|Andalo Gestione Vacanze","Comune di Andalo",46.165444,11.003532,,
pat_2394505,2012-01-31T17:38:06+01:00,2012-02-14T22:09:31+01:00,"Come è bello far l'amore",,,,,2012-02-15T00:00:00+01:00,2012-02-15T00:00:00+01:00,,,"ore 21.00","Cinema Teatro Comunale, Piazza Centrale, 1, Andalo",,"
Note: Italia, 2012
Titolo originale: Come è bello far l'amore
Genere: Commedia
Durata: 97'
Regia: Fausto Brizzi 
Cast: Filippo Timi, Claudia Gerini, Giorgia Wurth, Fabio De Luigi, Alessandro SperdutiAndrea e Giulia sono una solida coppia di quarantenni, con un figlio adorabile, una bella casa e una tranquilla vita coniugale. Forse un filino troppo tranquilla... Andrea e Giulia, infatti, come tutte le coppie della loro età con figli grandi, non fanno sesso. Ma nella loro vita tutto cambia il giorno in cui in casa piomba Max, un vecchio e caro amico di Giulia, che di professione fa il pornodivo. Max stravolge subito i ritmi sonnacchiosi della casa e Giulia lo nomina da subito suo consigliere personale, nel tentativo disperato di rivitalizzare il suo matrimonio con Andrea. Quando Andrea scopre che Giulia ha raccontato tutto a Max della loro intimità, decisamente non la prende bene, ma Giulia lo fa ragionare: così non possono andare avanti, quantomeno non per tutta la vita. E Andrea, piano piano, si convince. Telefono: 0461/585776Altri organizzatori: Andalo Gestione Vacanze",,,,Cinema,,,,0,,,,,,"http://www.andalovacanze.com|Andalo Gestione Vacanze","Comune di Andalo",46.165444,11.003532,,
pat_2396387,2012-01-31T17:37:44+01:00,2012-02-14T22:09:02+01:00,"Il libro della giungla",,,,,2012-03-25T00:00:00+01:00,2012-03-25T00:00:00+01:00,,,"ore 16.00","Palacongressi, , Andalo",,"
Note: www.illibrodellagiungla.it &gt,&gt,
E in scena il musical &quot,Il Libro della Giungla&quot,, la storia di Mowgli il cucciolo duomo e della giungla indiana che lo adotta e lo protegge. Liberamente tratto dai libri della giungla di R. Kipling, ma con invenzioni che assicurano ritmo e novità allo spettacolo. Uno spettacolo per tutta la famiglia che sta divertendo e incantando migliaia di persone che hanno voluto sognare di immergersi nella giungla e, come dice lo slogan del musical, &quot,sentire gli animali cantare&quot,. 
Per levento è previsto un servizio bus navetta gratuito di andata e ritorno per tutti i paesi dellaltopiano.
Lingresso è gratuito per i ragazzi fino a 19 anni mentre per gli adulti i biglietti sono disponibili in prevendita al prezzo di 10  in Comunità presso il Comune di Andalo e, allo stesso prezzo, a Tione, presso lassociazione &quot,Artegiovane&quot,.
La storia di Mowgli, il cucciolo duomo e della giungla indiana che lo adotta e lo protegge, arriva in teatro sotto forma di musical, con un obiettivo unico: lasciare a bocca aperta il pubblico di ogni età...ma soprattutto i bambini. Musiche accattivanti, luci evocative, pupazzi giganti di grande impatto, costumi colorati, balletti scatenati coreografati da Gillian Bruce (sue le coreografie dei campioni dincassi &quot,Peter Pan&quot, e &quot,High School musical&quot,). 
Il protagonista è Heron Borelli già nel cast del pluripremiato Notre Dame di Cocciante e compagno di scena di Massimo Ranieri nel musical Hollywood. Con lui sul palco sette performer di grande professionalità che ricoprono tutti i personaggi classici come Bagheera, Baloo, Re Banana, il Colonnello Hatley, Shere Khan, Akela, Kaa e molti altri personaggi totalmente inediti.
Nella &quot,giungla musical&quot, si muovono animali di ogni tipo con pupazzi che divertono e incantano: un esercito di elefanti, pappagalli di 3 metri, serpenti con occhi luminosi, scimmie come ballerine di Las Vegas e poi lupi, tigri, pantere... 
Il Libro della Giungla è un musical pieno di creatività, di fantasia, di allegria, che si pone come unico obbiettivo quello di stupire e affascinare grandi e piccini. Per raggiungere questo scopo non mancano musiche accattivanti, luci evocative, pupazzi giganti di grande impatto, costumi colorati, balletti scatenati.
Associazione Artegiovane
Via Roma, 9 Tione di Trentotel. 0461 585836 
Prevendite: Andalo, Comunità presso il ComuneTione, associazione Artegiovane",,,,"Musical  ",,,,0,,,,,,http://www.visitdolomitipaganella.it,"Comune di Andalo",46.166111,11.005167,,
pat_2395903,2012-01-31T17:37:33+01:00,2012-02-14T22:08:54+01:00,"Paradiso amaro",,,,,2012-02-29T00:00:00+01:00,2012-02-29T00:00:00+01:00,,,"ore 21.00","Cinema Teatro Comunale, Piazza Centrale, 1, Andalo",,"
Note: Usa, 2012
Titolo originale: The Descendants
Genere: Drammatico
Durata: 110'
Regia: Alexander Payne
Cast: George Clooney, Judy Greer, Shailene Woodley, Matthew Lillard, Beau Bridges, Robert Forster
Dal romanzo di Kaui Hart Hemmings.Matt King è un marito e padre da sempre indifferente e distante dalla famiglia. Ma quando la moglie rimane vittima di un incidente in barca nel mare di Waikiki è costretto a riavvicinarsi alle due figlie: e quindi a riconsiderare il suo passato e valutare un nuovo futuro. Mentre i loro rapporti si ricompatteranno, Matt è anche alle prese con la difficile decisione legata alla vendita di un terreno di famiglia, richiesto dalle elite delle Hawaii ma anche da un gruppo di missionari.Telefono: 0461/585776Altri organizzatori: Andalo Gestione Vacanze",,,,Cinema,,,,0,,,,,,"http://www.andalovacanze.com|Andalo Gestione Vacanze","Comune di Andalo",46.165444,11.003532,,
pat_2395901,2012-01-31T17:37:33+01:00,2012-02-14T22:08:54+01:00,"Lorax. Il guardiano della foresta",,,,,2012-04-04T00:00:00+02:00,2012-04-04T00:00:00+02:00,,,"ore 17.00","Cinema Teatro Comunale, Piazza Centrale, 1, Andalo",,"
Note: Usa, 2012
Titolo originale: Dr. Seuss' The Lorax
Genere: Animazione
Durata: 
Regia: Ken Daurio, Cinco Paul, Chris Renaud
Sito internet: www.theloraxmovie.com
Basato sul libro per bambini del Dr. Seuss pubblicato nel 1971.L'avventura animata segue il viaggio di un ragazzo e la sua ricerca dell'unica cosa che riuscirà a fargli conquistare l'attenzione della ragazza dei suoi sogni. Per scovarla dovrà scoprire la storia di Lorax, la brontolona e magica creatura che lotta per proteggere il suo mondo.Telefono: 0461/585776Altri organizzatori: Andalo Gestione Vacanze",,,,Cinema,,,,0,,,,,,"http://www.andalovacanze.com|Andalo Gestione Vacanze","Comune di Andalo",46.165444,11.003532,,
pat_2393085,2012-01-31T17:34:07+01:00,2012-02-14T22:05:36+01:00,"Mission Impossible 4. Protocollo Fantasma",,,,,2012-02-22T00:00:00+01:00,2012-02-22T00:00:00+01:00,,,"ore 21.00","Cinema Teatro Comunale, Piazza Centrale, 1, Andalo",,"
Note: Usa, 2012
Titolo originale: Mission: Impossible - Ghost Protocol
Genere: Azione, Thriller, Avventura
Durata: 132'
Regia: Brad Bird
Cast: Tom Cruise, Jeremy Renner, Léa Seydoux, Josh Holloway, Michael Nyqvist, Simon Pegg, Ving Rhames, Paula Patton, Anil Kapoor, Vladimir Mashkov
Sito internet: www.missionimpossible.comIn Mission Impossible 4, accusati dell'attentato terroristico al Cremlino, l'agente operativo dell'IMF Ethan Hunt e l'intera Agenzia vengono sconfessati e il Presidente avvia il Protocollo Fantasma. Senza più risorse e sostegno, Ethan deve trovare il modo per riscattare il nome della propria agenzia e prevenire un altro attacco. A complicare le cose, Ethan è costretto a imbarcarsi in questa missione con una squadra di compagni fuggitivi dell'IMF, dei quali non conosce del tutto le personali motivazioni.Telefono: 0461/585776Altri organizzatori: Andalo Gestione Vacanze",,,,Cinema,,,,0,,,,,,"http://www.andalovacanze.com|Andalo Gestione Vacanze","Comune di Andalo",46.165444,11.003532,,
pat_2374562,2012-01-31T17:33:08+01:00,2012-02-14T22:04:48+01:00,"Antonio Pautasso esperto di matrimoni",,,,,2012-04-14T00:00:00+02:00,2012-04-14T00:00:00+02:00,,,"ore 20.45","Sala Congressi, via Lungolago, Molveno",,"
Note: Stagione teatrale di Molveno 2011/2012
I ragazzi della scuola primaria di secondo grado di Andalo 
Antonio Pautasso esperto di matrimoni
con la regia del prof. Amedeo MalferrariFacciamo conoscenza con il classico avvocato delle cause perse che si preoccupa più del denaro che della sorte dei suoi clienti. Più le cose si ingarbugliano per le coppie che si presentano e più lui sembra sguazzarci. I momenti più drammatici si rivelano i più comici e un turbine di personaggi strampalati fa da degna cornice. Telefono: 0461/586936 - 586293 Altri organizzatori: Comune di Molveno Assessorato alla Cultura - in collaborazione con la Fondazione Aida",,,,Teatro,,,,0,,,,,,"http://www.comune.molveno.tn.it|Comune di Molveno Assessorato alla Cultura - in collaborazione con la Fondazione Aida","Comune di Molveno",46.140167,10.961424,,
pat_2374555,2012-01-31T17:33:05+01:00,2012-02-14T22:04:46+01:00,Biciclette,,,,,2012-04-21T00:00:00+02:00,2012-04-21T00:00:00+02:00,,,"ore 20.45","Sala Congressi, via Lungolago, Molveno",,"
Note: Stagione teatrale di Molveno 2011/2012
Teatro Impria
Biciclette
tratta dal romanzo &quot,Umberto Dei Biografia non autorizzata di una bicicletta&quot,
di Michele Marziani
adattamento e regia di Andrea Castelletti
armonizzazioni originali Marie Claire Dubost
Lo spettacolo è tratto dal bellissimo e fortunato libro Umberto Dei, biografia non autorizzata di una bicicletta del giornalista e scrittore riminese Michele Marziani. Il libro, edito da Cult Editore (Firenze), ha trovato ampio consenso e diffusione soprattutto nellambiente, tra gli altri, degli appassionati di bicicletta, fondando il suo successo non solo sullelevato livello letterario ed originalità del racconto, ma anche per una intrinseca celebrazione della poetica della bicicletta.
Chi lo ha letto ne è rimasto conquistato. Impossibile infatti resistere ad un romanzo tanto intimo e appassionato. 
Lo scrittore riminese si conferma abile nel trattare con competenza e leggerezza  senza cadere nellideologia e nel buonismo  problematiche attuali, dense e troppo spesso evitate da chi scrive romanzi. 
Dal libro prende movenza lo spettacolo, che vede sul palco un attore che racconta - impersonandola - la sua singolare vicenda ad un susseguirsi di clienti, in un alternarsi di riparazioni, episodi e divagazioni musicali sulla bicicletta, interpretate - rigorosamente a cappella - da un delizioso quanto virtuoso trio canoro tutto al femminile.
Umberto Dei non è una persona, è una bicicletta, una vecchia marca di biciclette. Anzi è un mito. Il mito inseguito da Arnaldo Scura, che lascia un lavoro remunerativo da broker finanziario per reinventarsi meccanico e restauratore di biciclette. 
Nella sua bottega/officina sul naviglio della Martesana di Milano (una bottega di frontiera, un po' una boutique, un po' la mutua della bicicletta...), si incrociano storie, amori, ricordi, popoli e filosofie. Fino a tingere di giallo le vicende di Nassim, giovane studente afgano, aiutante del protagonista nella riparazione delle biciclette. Il finale, sorprendente, squarcia con ironia il pesante velo dei pregiudizi verso gli immigrati. Una storia che ha il sapore di una favola contemporanea, tanto poetica quanto reale. Telefono: 0461/586936 - 586293 Altri organizzatori: Comune di Molveno Assessorato alla Cultura - in collaborazione con la Fondazione Aida",,,,Teatro,,,,0,,,,,,"http://www.comune.molveno.tn.it|Comune di Molveno Assessorato alla Cultura - in collaborazione con la Fondazione Aida","Comune di Molveno",46.140167,10.961424,,
pat_2374552,2012-01-31T17:33:05+01:00,2012-02-14T22:04:45+01:00,"Bandaradan Show",,,,,2012-03-24T00:00:00+01:00,2012-03-24T00:00:00+01:00,,,"ore 20.45","Sala Congressi, via Lungolago, Molveno",,"
Note: Stagione teatrale di Molveno 2011/2012
Bandaradan 
Bandaradan Show
spettacolo di musica dal vivoPiccola orchestra di zingari dai ritmi zoppi, giocolieri di pentagrammi, funamboli della nota puntata, corteggiatori dell'apparato uditivo. Musiche balcaniche, klezmer e circensi per concerti, matrimoni, funerali, serenate, spettacoli di strada e teatrali.Telefono: 0461/586936 - 586293 Altri organizzatori: Comune di Molveno Assessorato alla Cultura - in collaborazione con la Fondazione Aida",,,,Musica,,,,0,,,,,,"http://www.comune.molveno.tn.it|Comune di Molveno Assessorato alla Cultura - in collaborazione con la Fondazione Aida","Comune di Molveno",46.140167,10.961424,,
pat_2374560,2012-01-31T17:33:05+01:00,2012-02-14T22:04:46+01:00,"Toni Sartori recita Dante",,,,,2012-03-10T00:00:00+01:00,2012-03-10T00:00:00+01:00,,,"ore 20.45","Sala Congressi, via Lungolago, Molveno",,"
Note: Stagione teatrale di Molveno 2011/2012Dalla cantica dell'Inferno di Dante Alighieri racconti, commenti e recitazioneTelefono: 0461/586936 - 586293 Altri organizzatori: Comune di Molveno Assessorato alla Cultura - in collaborazione con la Fondazione Aida",,,,Teatro,,,,0,,,,,,"http://www.comune.molveno.tn.it|Comune di Molveno Assessorato alla Cultura - in collaborazione con la Fondazione Aida","Comune di Molveno",46.140167,10.961424,,
pat_2374549,2012-01-31T17:33:04+01:00,2012-02-14T22:04:44+01:00,"Le allegre comari di Windsor",,,,,2012-02-25T00:00:00+01:00,2012-02-25T00:00:00+01:00,,,"ore 20.45","Sala Congressi, via Lungolago, Molveno",,"
Note: Stagione teatrale di Molveno 2011/2012
Ensemble Vicenza Teatro
Le allegre comari di Windsor
di William Shakespeare
Libero Adattamento e Regia alla Commedia dellArte
Enrico Vanzella
personaggi e interpreti
Sir John Falstaff Emiliano Gregori
Raffo Enrico Vanzella
Master Frank Ford Roberto Maurizio
Mistress Alice Ford Marzia Bonaldo
Master George Page Roberto Giglio
Mistress Margaret Page Irma Sinico
Abraham Slender Emiliano Gregori
Dottor Caius Enrico Vanzella 
Musiche dal vivo di Roberto Maurizio
Luci e Fonica Franco Sinico
Scenografia Studio Insieme
Costumi Antonia Munaretti
Maschere Stefano Perocco e Renzo SindocaSi sa che due cose fanno girare il mondo: il denaro e l'amore, per alcuni l'unico amore è il denaro per altri l'unico denaro è l'amore. Falstaff ormai senza soldi e caduto in rovina pensa di conquistar due dame, Madama Ford e Madama Page, in barba ai rispettivi mariti, per ottenere il loro denaro, ma il vecchio goliardico avaro e un po' viscido don giovanni non immagina la fine che gli tocca. Tra le peripezie di Falstaff per risollevare le sue sorti ecco comparire l'amore vero che basta a tutto, tra due giovani, Anna e Fanton, che come tradizione vuole è osteggiata dalla famiglia di Anna. Cosa accadrà al vecchio e ai due innamorati?! Per scoprirlo non vi resta che vedere questo spettacolo.Una commedia crudele di scherzi, travestimenti, scambi di ruoli, inganni, e riti misteriosi nel cuore della notte: tutto il mondo diventa un gioco frenetico di beffe che fonde la realtà con la fantasia. Sheakespeare e la tradizione della commedia dell'arte, un connubio perfetto e più volte sperimentato, per parlare di uomini e donne e delle loro relazioni, delle loro passioni, amori, odi, gelosie, vendette, allora come oggi, uno spettacolo per tutti dove il pubblico partecipa insieme con gli attori alla storia de Le Allegre Comari di Windsor.Telefono: 0461/586936 - 586293 Altri organizzatori: Comune di Molveno Assessorato alla Cultura - in collaborazione con la Fondazione Aida",,,,Teatro,,,,0,,,,,,"http://www.comune.molveno.tn.it|Comune di Molveno Assessorato alla Cultura - in collaborazione con la Fondazione Aida","Comune di Molveno",46.140167,10.961424,,
pat_2404797,2012-07-30T00:00:00+02:00,2013-01-03T08:58:07+01:00,"Paolo Fresu, Daniele Di Bonaventura",,,,,2012-07-30T00:00:00+02:00,2012-07-30T00:00:00+02:00,,,"ore 14.00","Malga Spora, Dolomiti di Brenta , Spormaggiore",,"
Note: I Suoni delle Dolomiti
I Concerti delle 14
Paolo Fresu, Daniele Di Bonaventura 
Poesia dai profumi mediterranei per tromba e bandoneon 
Un dialogo in musica nel segno di strumenti ad aria e di un toccante lirismo dagli aromi mediterranei. Ne sono protagonisti uno dei trombettisti jazz italiani più conosciuti al mondo e un autorevole specialista del bandoneon, lo strumento simbolo del tango. Insieme, Paolo Fresu e Daniele di Bonaventura (che con il coro corso A Filetta hanno firmato lalbum ECM Mistico Mediterraneo) danno vita a un concerto che vive di intimismo e di piccole cose ma che sa raccontare grandi storie.
Luogo: Malga Spora
Quota: 1.851 metri
COME ARRIVARE 
da Andalo seguendo il segnavia 301
ore 3.30 di cammino
ESCURSIONE 
con le Guide Alpine lungo il sentiero della Sega Grande, segnavia 301
ore 3.30 di cammino, dislivello 900 metri, difficoltà E
Info e prenotazione 0461 585836
ESCURSIONE ALTERNATIVA
con il Parco Naturale Adamello Brenta
trasferimento con bus navetta a Madonna di Campiglio, salita in cabinovia al passo Grostè e, attraverso il Passo della Gaiarda, discesa da Andalo (circa 5.30 ore di cammino)
25 escluso costo impianti
Info e prenotazione 0461 585836 
RECUPERO 
ore 21 Palacongressi di Andalo
INFO0461585836 - 653622 www.visitdolomitipaganella.it Telefono: Info 0461/405405Altri organizzatori: Trentino spa",,,,Musica,,,,0,,,,,,"http://www.isuonidelledolomiti.it|Trentino spa","Comune di Spormaggiore",46.201821,11.010189,,"Redazione Trentino Cultura"
pat_2404620,2012-07-01T00:00:00+02:00,2013-01-03T08:56:47+01:00,"Dolomiti d'InCanto: Coro Croz Corona",,,,,2012-07-01T00:00:00+02:00,2012-07-01T00:00:00+02:00,,,"ore 11.00","Rifugio La Montanara, Dolomiti di Brenta, Molveno",,"
Note: I Suoni delle Dolomiti
Dolomiti d'InCanto
Anche questanno il festival I Suoni Dolomiti include nella programmazione un evento speciale dedicato alla montagna e alle sue tradizioni canore: Dolomiti dInCanto.
Alle ore 11 di domenica 1 luglio 10 cori del Trentino renderanno omaggio alle montagne elette dallUNESCO a Patrimonio Naturale dellUmanità, esibendosi nei pressi di altrettanti rifugi delle Dolomiti, trasformando così lintera provincia di Trento in unimmensa sala da concerto a cielo aperto. Alle ore 12 tutti i cori intoneranno simultaneamente uno dei classici del repertorio corale trentino: Le Dolomiti.
Liniziativa è realizzata in collaborazione con la Federazione Cori del Trentino e vede il coinvolgimento di apprezzate formazioni, alcune delle quali affermate a livello internazionale e tutte depositarie di antiche tradizioni tramandate di generazione in generazione.
Coro Croz Corona
Originario della Val di Non, dove si è costituito nel 1970, esegue in modo originale canti di montagna, abbinando la ricerca musicale a proposte innovative. Musicisti, compositori e parolieri contribuiscono a un vasto repertorio concepito appositamente.
Luogo: Rifugio La Montanara
Quota: 1.525 m
Gestore: Umberto Sartori
Tel: 0461 585603
COME ARRIVARE
Il rifugio  metri 1.575, telefono 348 7289560 si raggiunge da Molveno con bidonvia e seggiovia o a piedi lungo via Belvedere seguendo le indicazioni per loc. Pradel
ore 1.40 di cammino
da Andalo - Maso Cadin in auto fino a Valbiole (parcheggio) e quindi a piedi
ore 1 di cammino
o da via Pradel lungo la strada forestale
ore 2 di cammino
RECUPERO
ore 16 Centro Congressi di Molveno
INFO0461 585836 www.visitdolomitipaganella.itTelefono: Info 0461/405405Altri organizzatori: Trentino spa",,,,Musica,,,,0,,,,,,"http://www.isuonidelledolomiti.it|Trentino spa","Comune di Molveno",46.15,10.87,,"Redazione Trentino Cultura"
pat_2403297,2012-05-11T11:03:38+02:00,2012-05-11T11:35:59+02:00,"Palazzi Aperti a Molveno",,,,,2012-05-13T00:00:00+02:00,2012-05-13T00:00:00+02:00,,,,"Fortini di Napoleone, , Molveno",,"
Note: Palazzi Aperti
Domenica 13 maggio 
ore 15.00
Fortini di Napoleone - Costituiscono un complesso di quattro fortificazioni (Dos Corno, Sella di Mezzolago, Baita Fortini, Forte Alto) costruite tra il 1802 e il 1805 e poi rivitalizzate durante la prima guerra mondiale al fine di sbarrare la strada regolare che, passando per Molveno, portava dalle Giudicarie alla Val di Non, costituendo una comoda alternativa alla percorrenza dellasse dellAdige.
Visita guidata a cura dellesperto storico dott. Francesco Frizzera.
Info 
Comune di Molveno, tel. 0461.586936www.comune.molveno.tn.itTelefono: 0461/586936Altri organizzatori: Comune di Molveno",,,,"Manifestazioni ed eventi",,,,0,,,,,,"http://www.comune.molveno.tn.it|Comune di Molveno","Comune di Molveno",46.143148,10.964852,,
a7c7e28b061bb4d6d720a9f8c60e26ad,2012-05-11T10:32:50+02:00,2012-05-11T10:49:10+02:00,"Primo soccorso al bambino",,"Associazione Amici della scuola dell'infanzia di Molveno, in collaborazione con la CROCE BIANCA PAGANELLA e il patrocinio della COMUNITA’ DELLA PAGANELLA, invita alla serata formativa &quot,Primo soccorso al bambino&quot, con particolare riferimento ai 3- 6 anni.",,"http://www.comunita.paganella.tn.it/content/download/14392/245269/4/primo soccorso al bambino.pdf",2012-05-23T20:30:00+02:00,2012-05-23T23:30:00+02:00,,"23 maggio 2012",20:30,"Presso la Sala Civica di Molveno c/o Scuole Elementari",interno,"Presso la Sala Civica di Molveno c/o Scuole ElementariMercoledì 23 Maggio ore 20.30Info:Maurizio Nicolussi - 392.6212729",,,,,,"Serata informativa",/var/comunitapaganella/storage/images/comunita-della-paganella/il-territorio-della-paganella/appuntamenti/primo-soccorso-al-bambino/245284-1-ita-IT/Primo-soccorso-al-bambino.jpg,0,,,,,,,,46.143148,10.964852,"Italy, Molveno, Piazza Scuole, 2, 38018",
9cff64cf8d962c11e8e67a47ac92e3d5,2012-05-07T18:02:00+02:00,2013-12-05T11:05:23+01:00,"Palazzi aperti",,"Il Comune di Molveno partecipa per la seconda volta quest’anno all’iniziativa di &quot,Palazzi Aperti&quot,, insieme ai maggiori Comuni del Trentino e alla Provincia. Nella settimana dal 7 al 13 maggio, esperti storici dell’arte accompagneranno i visitatori interessati alla scoperta di luoghi significativi dei diversi Comuni.",,,2012-05-07T18:02:00+02:00,2012-05-13T18:02:00+02:00,,"13/05/2012 ",,Molveno,interno,,,,,,,Cultura/Musica,/var/comunitapaganella/storage/images/comunita-della-paganella/il-territorio-della-paganella/eventi/palazzi-aperti/234070-1-ita-IT/Palazzi-aperti.jpg,0,,,,,,,"Comune di Molveno",46.143148,10.964852,Molveno,http://www.visitdolomites.com/it/event/ab8fe93de917429680e76121d8326d11
9cdd03b5c80ec1ce3d4d6e484eb1d7c3,2012-04-20T18:12:28+02:00,2012-04-20T18:12:28+02:00,"XXX Incontro Internazionale Amici del Terranova",,"Nei giorni 26-27-28 Maggio 2012 a Molveno (TN) si svolgerà il XXX Incontro Internazionale Amici del Terranova dove questi dolcissimi cani svolgeranno delle prove di lavoro a terra ed in acqua.",,,2012-05-26T10:00:00+02:00,,,"26-27-28 Maggio 2012",,Molveno,interno,,,,,,,,/var/comunitapaganella/storage/images/comunita-della-paganella/il-territorio-della-paganella/appuntamenti/xxx-incontro-internazionale-amici-del-terranova/234130-1-ita-IT/XXX-Incontro-Internazionale-Amici-del-Terranova.jpg,0,,,,,,,,46.140294,10.967598,,http://www.visitdolomites.com/it/event/0d12b74268824c188dbeada742609922
fcd27542b22af1c47a4f7770e308c30c,2012-04-20T18:08:51+02:00,2012-04-20T18:13:28+02:00,"Arriva il Barbatàngheri",,"In onore del cantastorie e venditore ambulante della tradizione trentina, il Festival propone spettacoli teatrali di compagnie internazionali che mettono in scena svariate tecniche, dal mimo alla figura, dal teatro delle ombre ai burattini, dalle marionette a filo ai pupi siciliani.",,,2012-07-01T00:00:00+02:00,,,"01/07/2012 ",,,interno,,,,,,,Famiglia,/var/comunitapaganella/storage/images/comunita-della-paganella/il-territorio-della-paganella/appuntamenti/arriva-il-barbatangheri/234100-1-ita-IT/Arriva-il-Barbatangheri.jpg,0,,,,,,,"Comune di Andalo",46.166111,11.005167,Andalo,http://www.visitdolomites.com/it/event/7424cf08a5b847cb9869465cbb608529
c3083c842fd91d15f2fbb728748e6350,2012-04-19T17:07:26+02:00,2012-04-26T15:33:15+02:00,"Soggiorno marino per anziani e pensionati estate 2012",,"Soggiorno marino organizzato da: Comunità della Paganella e Circolo Pensionati e anziali &quot,Belfort&quot,, in collaborazione con i Comuni di: Andalo, Cavedago, Fai della Paganella, Molveno e Spormaggiore","Consulta i dettagli del soggiorno per maggiori informazioni","http://www.comunita.paganella.tn.it/content/download/12771/222165/8/LOCANDINA SOGGIORNO MARINO.pdf",2012-06-02T00:00:00+02:00,2012-06-16T00:00:00+02:00,"14 giorni","Dal 2 al 16 giugno",,"IGEA Marina",interno,,,,,,,,/var/comunitapaganella/storage/images/comunita-della-paganella/il-territorio-della-paganella/appuntamenti/soggiorno-marino-per-anziani-e-pensionati-estate-2012/222182-3-ita-IT/Soggiorno-marino-per-anziani-e-pensionati-estate-2012.jpg,0,,,,,,,,44.141301,12.472117,"igea marina",
pat_2468145,2013-04-20T00:00:00+02:00,2013-04-20T11:02:15+02:00,"En sores en tel cor",,,,,2013-04-20T00:00:00+02:00,2013-04-20T00:00:00+02:00,,,"ore 20.30","Sala Congressi, via Lungolago, Molveno",,"
Note: Stagione teatrale di Molveno
En sores en tel cor
di Gianluca Tanel
con la regia di Amedeo Malferrari
Spettacolo degli studenti dellIstitutoComprensivo Altopiano della PaganellaTelefono: 0461/586936 - 586293 Altri organizzatori: Comune di Molveno Assessorato alla Cultura - in collaborazione con la Fondazione Aida",,,,Teatro,,,,0,,,,,,"http://www.comune.molveno.tn.it|Comune di Molveno Assessorato alla Cultura - in collaborazione con la Fondazione Aida","Comune di Molveno",46.141734,10.965146,,
pat_2468144,2013-04-13T00:00:00+02:00,2013-04-13T11:08:13+02:00,"La cantica dell'Inferno",,,,,2013-04-13T00:00:00+02:00,2013-04-13T00:00:00+02:00,,,"ore 20.30","Sala Consigliare, , Molveno",,"
Note: Stagione teatrale di Molveno
La cantica dellInferno
Tony Sartori recita Dante
Stacco musicale con il violino di Camilla Sartori
Toni Sartori sa a memoria la Divina Commedia, sa anche
tutto ciò che concerne Dante, la sua vita, i suoi personaggi, in quanto tratti dalla vita reale, dalla letteratura o dal mito.Reciterà per noi alcune canticheTelefono: 0461/586936 - 586293 Altri organizzatori: Comune di Molveno Assessorato alla Cultura - in collaborazione con la Fondazione Aida",,,,Teatro,,,,0,,,,,,"http://www.comune.molveno.tn.it|Comune di Molveno Assessorato alla Cultura - in collaborazione con la Fondazione Aida","Comune di Molveno",46.141734,10.965146,,
pat_2468141,2013-03-26T00:00:00+01:00,2013-03-21T11:16:48+01:00,"Il principe felice",,,,,2013-03-26T00:00:00+01:00,2013-03-26T00:00:00+01:00,,,"ore 10.00","Sala Congressi, via Lungolago, Molveno",,"
Note: Stagione teatrale di Molveno
riservato alle scuole primarie
a cura della Comunità della Paganella
Fondazione Aida
Il principe felice
Di Lorenzo Bassotto
da una novella di Oscar Wilde
Con: Lorenzo Bassotto e Roberto Macchi
Tecnico audio luci Giancarlo Dalla Chiara
Regia Lorenzo Bassotto
durata 60 min
teatro dattore
dai quattro anni in suLo spettacolo è tratto da una delle fiabe più note, belle, ironiche e commoventi di Oscar Wilde. E' la storia di una profonda amicizia che nasce tra un rondinotto e un principe, che evolverà fino a diventare amore e condivisione di una sorte apparentemente amara. Nonostante l'arrivo imminente dell'inverno, la rondine rimane per aiutare il principe a distribuire le sue ricchezze ai poveri e ai diseredati della città, dei quali il principe non si era mai accorto perché costretto a vivere perennemente felice dentro le mura del suo invalicabile castello.Telefono: 0461/586936 - 586293 Altri organizzatori: Comune di Molveno Assessorato alla Cultura - in collaborazione con la Fondazione Aida",,,,Teatro,,,,0,,,,,,"http://www.comune.molveno.tn.it|Comune di Molveno Assessorato alla Cultura - in collaborazione con la Fondazione Aida","Comune di Molveno",46.141734,10.965146,,
pat_2468138,2013-03-22T00:00:00+01:00,2013-03-21T11:17:43+01:00,"Vecchia sarai tu!",,,,,2013-03-22T00:00:00+01:00,2013-03-22T00:00:00+01:00,,,"ore 20.30","Sala Congressi, via Lungolago, Molveno",,"
Note: Stagione teatrale di Molveno
La Q-Prod (Lerici SP)
Vecchia sarai tu
di Antonella Questa e Francesco Brandi 
regia Francesco Brandi
con Antonella Questa
Coreografie Magali B. Compagnie Madeleine&amp,Alfred
disegno luci Carolina Agostani
organizzazione generale Serena Sarbia
collaborazione: Gérard Darier, Giuliana Musso, Carlotta Clerici
Una vecchia di ottant'anni si ritrova in ospizio contro la propria volontà. Una banale caduta, qualche giorno in ospedale, il figlio lontano, una nuora avida, la nipote che non ha mai tempo... La soluzione migliore per tutti è la casa di riposo. Per tutti tranne che per lei. Come tornare a casa, davanti al suo mare, per ritrovare le amiche di sempre con cui fare quattro chiacchiere il pomeriggio, per rivedere Carmè l'amico d'infanzia e finire la vita dove l'ha sempre vissuta? .... Scappare è l'unica soluzione, costi quel che costi. Uno spettacolo comico per esorcizzare la paura di invecchiare e ricordarsi che vecchia... lo sarai anche tu!Vecchia sarai tu! affronta con ironia un argomento tabù per le donne: letà e linvecchiamento a cui non sembrano ancora avere diritto. Un ritratto divertente e amaro di tre generazioni di donne e di come vivono lavanzare inesorabile del tempo: chi da vecchia subisce la tirannia del invecchiare bene, chi ad ogni costo si rifiuta di invecchiare per sentirsi ancora giovane, chi giovane lo è davvero, ma vorrebbe già essere vecchia!Telefono: 0461/586936 - 586293 Altri organizzatori: Comune di Molveno Assessorato alla Cultura - in collaborazione con la Fondazione Aida",,,,Teatro,,,,0,,,,,,"http://www.comune.molveno.tn.it|Comune di Molveno Assessorato alla Cultura - in collaborazione con la Fondazione Aida","Comune di Molveno",46.141734,10.965146,,
e1168e24a470bee5cf45b1fcbf3daa5d,2013-03-09T20:30:00+01:00,2013-03-04T12:36:23+01:00,"QUELLO CHE LE DONNE...",,"Il Gruppo Musicale Arte Giovane presenta il concerto tematico &quot,Quello che le donne...&quot,.",,"http://www.comunita.paganella.tn.it/content/download/51768/917647/5/concerto tematico def.pdf",2013-03-09T20:30:00+01:00,,,"SABATO 9 MARZO 2013","ORE 20.30","c/o Sala Congressi di Molveno",interno,,,,,,,E,,,,,,,,,,46.141734,10.965146,,
aa38dd1d629dc9e93047ae0f5d889d23,2012-12-06T20:30:00+01:00,2013-02-20T17:32:23+01:00,"Presentazione del ""Documento preliminare"" al Piano territoriale della Comunità - SPORMAGGIORE",,"Il 6 dicembre presso la Sala Consiliare del Comune di Spormaggiore si terrà la presentazione ai cittadini del &quot,Documento preliminare&quot, al Piano territoriale della Comunità",,http://www.comunita.paganella.tn.it/content/download/30453/540742/4/CALENDARIO.pdf,2012-12-06T20:30:00+01:00,,,"giovedì 6 dicembre 2012","ore 20.30","Sala Consiliare del Comune di Spormaggiore",interno,,,,,,,E,,0,,,,,,,,46.201821,11.010189,,
78bd6bd0127ff96e963bf8a1ae6d1232,2012-11-29T20:30:00+01:00,2012-11-22T17:59:48+01:00,"Presentazione del ""Documento preliminare"" al Piano territoriale della Comunità - MOLVENO",,,,http://www.comunita.paganella.tn.it/content/download/29496/527018/2/CALENDARIO.pdf,2012-11-29T20:30:00+01:00,,,"giovedì 29 novembre 2012","ore 20.30","c/o Sala Civica del Comune di Molveno",interno,,,,,,,,/var/comunitapaganella/storage/images/comunita-della-paganella/il-territorio-della-paganella/eventi-sul-territorio/presentazione-del-documento-preliminare-al-piano-territoriale-della-comunita-molveno/527033-1-ita-IT/Presentazione-del-Documento-preliminare-al-Piano-territoriale-della-Comunita-MOLVENO.jpg,0,,,,,,,,46.141734,10.965146,,
e1fccb8320ba8643b36b4b40d24bc986,2012-11-27T20:30:00+01:00,2012-11-22T17:57:34+01:00,"Presentazione del ""Documento preliminare"" al Piano territoriale della Comunità - FAI DELLA PAGANELLA",,,,http://www.comunita.paganella.tn.it/content/download/29495/526988/2/CALENDARIO.pdf,2012-11-27T20:30:00+01:00,,,"martedì 27 novembre 2012","ore 20.30","c/o Sala Civica del Comune di Fai della Paganella",interno,,,,,,,,/var/comunitapaganella/storage/images/comunita-della-paganella/il-territorio-della-paganella/eventi-sul-territorio/presentazione-del-documento-preliminare-al-piano-territoriale-della-comunita-fai-della-paganella/527003-1-ita-IT/Presentazione-del-Documento-preliminare-al-Piano-territoriale-della-Comunita-FAI-DELLA-PAGANELLA.jpg,0,,,,,,,,0,0,,
cd2d5c128d1fe1ee300e2c37046afced,2012-11-22T20:30:00+01:00,2012-11-22T17:56:22+01:00,"Presentazione del ""Documento preliminare al Piano territoriale"" della Comunità - ANDALO",,,"La Comunità della Paganella, nell’ambito delle competenze che le sono affidate sta lavorando al “DOCUMENTO PRELIMINARE” del Piano Territoriale, che sarà lo strumento urbanistico per il governo del Territorio. Nel “DOCUMENTO PRELIMINARE” saranno raccolti gli obiettivi di sviluppo dei prossimi anni, individuati dai Cittadini dell’Altopiano, dalle Associazioni, dagli Enti, dalle Amministrazioni dei cinque Comuni e dalla stessa Comunità.Il “DOCUMENTO PRELIMINARE” sarà presentato dal prof. Tiziano Salvaterra, referente scientifico del progetto con il Gruppo di lavoro.",http://www.comunita.paganella.tn.it/content/download/29494/526958/2/CALENDARIO.pdf,2012-11-22T20:30:00+01:00,,,"giovedì 22 novembre 2012","ore 20.30","c/o Sala Civica del Comune di Andalo",interno,,,,,,,,/var/comunitapaganella/storage/images/comunita-della-paganella/il-territorio-della-paganella/eventi-sul-territorio/presentazione-del-documento-preliminare-al-piano-territoriale-della-comunita-andalo/526973-1-ita-IT/Presentazione-del-Documento-preliminare-al-Piano-territoriale-della-Comunita-ANDALO.jpg,0,,,,,,,,46.16338,11.007545,,
cbcb76bef5c48df69389b298cf4e5ed2,2012-11-13T20:30:00+01:00,2012-11-09T12:21:50+01:00,"PROGETTO BIO",,,"La Comunità della Paganella intende valorizzare la produzione biologica sull'Altopiano e promuovere la creazione di un mercato virtuoso tra coltivatori e consumatori.Si propone un incontro informativo con il dott. Federico Bigaran (Responsabile Ufficio per le produzioni biologiche - PAT).L'incontro verrà replicato in data e sede diversa:MARTEDì 13 novembre ore 20.30 presso la Sala Consiliare di FAI DELLA PAGANELLAVENERDì 16 novembre ore 20.30 presso la Sala Consiliare di CAVEDAGOL'incontro è rivolto a tutti,in particolare ai produttori e a chi ha intenzione di avviare un piccolo orto famigliare. ","http://www.comunita.paganella.tn.it/content/download/28935/516885/2/locandina_ORTO BIO.pdf",2012-11-13T20:30:00+01:00,,,"martedì 13 novembre","ore 20.30","Sala Consiliare di Fai della Paganella",interno,,,,,,,,/var/comunitapaganella/storage/images/comunita-della-paganella/il-territorio-della-paganella/eventi-sul-territorio/progetto-bio/516900-2-ita-IT/PROGETTO-BIO.jpg,0,,,,,,,,0,0,,
2c60a11ee02048882f53ff385f5690e3,2012-11-09T20:30:00+01:00,2012-11-05T17:14:47+01:00,"Spettacolo teatrale ""Prima che sia massa tardi"" di Loredana Cont",,,"Prende il via il progetto &quot,Consulta femminile&quot, con lo spettacolo di Loredana Cont &quot,Prima che sia massa tardi&quot, venerdì 9 novembre 2012 ore 20.30 presso la Sala Congressi di Molveno (ingresso gratuito).",,2012-11-09T20:30:00+01:00,2012-11-09T23:00:00+01:00,,"venerdì 09 novembre 2012","ore 20.30","Sala Congressi di Molveno",interno,,,"INGRESSO GRATUITO",,,"PARI OPPORTUNITA'",E,/var/comunitapaganella/storage/images/comunita-della-paganella/il-territorio-della-paganella/eventi-sul-territorio/spettacolo-teatrale-prima-che-sia-massa-tardi-di-loredana-cont/514136-4-ita-IT/Spettacolo-teatrale-Prima-che-sia-massa-tardi-di-Loredana-Cont.png,0,,,,,,,,46.141734,10.965146,,
b9e3f99b6800e634437e9fd8af256223,2012-10-26T20:30:00+02:00,2012-11-05T18:12:50+01:00,"Incontro sul tema ""la cooperazione nella Comunità della Paganella""",,"L'incontro si terrà il 26 ottobre presso la Sala Consiliare del Comune di Cavedago alle ore 20.30",,http://www.comunita.paganella.tn.it/content/download/20810/364685/11/locandina.pdf,2012-10-26T20:30:00+02:00,2012-10-26T22:30:00+02:00,,"venerdì 26 ottobre 2012",20.30,"Comune di Cavedago - Sala Consiliare",interno,,,,,,,E,/var/comunitapaganella/storage/images/comunita-della-paganella/il-territorio-della-paganella/eventi-sul-territorio/incontro-sul-tema-la-cooperazione-nella-comunita-della-paganella/364700-3-ita-IT/Incontro-sul-tema-la-cooperazione-nella-Comunita-della-Paganella.jpg,0,,,,,,,"Comune di Cavedago",46.185216,11.006805,,
