remoteId,published,modified,Titolo,Titolo breve,Immagine,Descrizione breve,Descrizione,Locandina dell'evento,Inizio,Termine,Orario,Durata,Quando,Dove,lat,lon,address,Informazioni,Destinatari,Target,Costi,Stato,Parole chiave,Circoscrizione,Tipologia di evento,Iniziativa cui fa parte,Associazione,Progressivo,Fonte,Galleria,Telefono,Fax,Email,Sito web,Valutazione dell'utente,Location,Tipologia,Tipo evento,Manifestazione collegata (numero),Manifestazione collegata (testo),Immagine correlata,Comune
96a3e664ae2e916742f1a9520ccea8b8,2024-06-08T09:00:00+02:00,2024-04-24T12:01:37+02:00,Trofeo del Borgo - XV edizione,,https://s3-eu-west-1.amazonaws.com/static.comunitatrentina.it/var/comunitavalsugana/storage/images/applicazioni5/openagenda/eventi/trofeo-del-borgo-xv-edizione/3402516-1-ita-IT/Trofeo-del-Borgo-XV-edizione.jpg,"Torneo di Calcio Giovanile riservato alla categoria Under 15 (per quest'anno gli anni interessati sono 2009/2010).Gli incontri si disputeranno nelle giornate di Sabato e Domenica 08 e 9 giugno 2024 sui campi di Borgo Valsugana, Telve, Villa Agnedo e Grigno."," Era il 2007 quando l’US Borgo si affacciava timidamente tra le società organizzatrici di manifestazioni che contano del calcio giovanile, l’impegno di tutti e la collaborazione fattiva delle Istituzioni hanno permesso alla nostra realtà di farsi largo.  Come società sportiva ci eravamo prefissati di far diventare questo appuntamento calcistico una “classica” di fine stagione ed i risultati e gli apprezzamenti ricevuti dalle società ospitate ci stanno confermando la bontà della nostra scelta.Alcuni numeri dall’inizio della nostra avventura: 85 Diverse Società,


Oltre 4000 atleti presenti nelle precedenti edizioni

10 PROVINCE Rappresentate

Veneto, Trentino Alto Adige, Lombardia ed Emilia Romagna le regioni sino ad oggi rappresentate

Sud Tirol, Virtus Bassano, AC Rosà, AC Cittadella le società più presenti. 


Oggi dopo le ottime edizioni precedenti ed i lusinghieri riconoscimenti delle tante società partecipanti ci apprestiamo ad organizzare l’edizione 2024 -  la 15a edizione del Trofeo del Borgo, un prestigioso torneo giovanile di calcio dedicato alla categoria Giovanissimi (under 15). Questo evento, approvato dalla F.I.G.C., è organizzato dalla US Borgo in collaborazione con Borgo Sport Insieme e con il patrocinio del Comune di Borgo Valsugana, ed il sostegno del B.I.M. Brenta. Il Trofeo del Borgo è un'occasione unica per vivere due giorni di sport e amicizia, a Borgo Valsugana l'8 e il 9 giugno. Tutte le partite si disputeranno su campi in erba naturale e non, presso le strutture di Borgo Valsugana, Telve, Castel Ivano e Grigno.Ogni squadra giocherà un minimo di quattro incontri durante il torneo. Inoltre, per garantire un'esperienza organizzativa di qualità, ogni squadra avrà un dirigente accompagnatore della società organizzatrice a disposizione come punto di riferimento per le due giornate.Ai partecipanti sarà offerto il pranzo per la giornata del sabato e quella della domenica (1000 pasti gratuiti), ci sarà un gadget per le finaliste e saranno premiate con coppe tutte le squadre partecipanti.Quest’anno a causa dell'enorme numero di richieste di partecipazione che abbiamo ricevuto, sin dal primo giorno di apertura delle iscrizioni al Trofeo dei Giovanissimi - Trofeo del Borgo, il comitato organizzatore ha preso la decisionedi ampliare il numero delle squadre partecipanti a 25, per poter accogliere il maggior numero possibile di talenti calcistici provenienti dal nostro territorio e da quelli vicini.
E per garantire lo svolgimento di un evento di altissimo livello, sono state apportate alcune modifiche al formato della competizione. Le qualificazioni si svolgeranno in un giorno dedicato, sabato 8 giugno. 5 Saranno i gironi, le prime due classificate di ogni girone si qualificheranno direttamente, mentre le altre due posizioni saranno assegnate alle 2 migliori terze classificate
Le finali, invece, avranno luogo nella giornata di domenica e vedranno la partecipazione delle sole 12 squadre ammesse.Sarà una vera e propria festa del calcio giovanile, con partite avvincenti, talenti emergenti e tanta passione sul campo, siamo certi che il Trofeo del Borgo rappresenti un'opportunità eccellente per dimostrare il talento giovanile ma soprattutto per creare legami di amicizia nel contesto sportivo.",https://www.comunitavalsuganaetesino.it/content/download/259343/3402519/1/Pagina+1.jpeg,2024-06-08T09:00:00+02:00,2024-06-09T19:00:00+02:00,Dalle ore 09.00 alle ore 19.00,,Dal 8 Giugno al 9 Giugno,,46.05069,11.46869,Borgo Valsugana Via Gozzer 52,,,Tutti,,,,,Sport,,"ASD Ortigaralefre
Unione Sportiva Borgo ASD
UNIONE SPORTIVA TESINO A.S.D.",,,,,,trofeodelborgo@sportgiallorosso.it,https://www.sportgiallorosso.it/public/base/?page_id=397|Riepilogo delle Edizioni,,esterno,,,0,,,
2b330579d203ce7b2a90a7c3e139efad,2024-06-17T11:22:00+02:00,2024-04-29T08:31:57+02:00,COLONIA ESTIVA SUMMER CMP,,https://s3-eu-west-1.amazonaws.com/static.comunitatrentina.it/var/comunitavalsugana/storage/images/applicazioni5/openagenda/eventi/colonia-estiva-summer-cmp/3403342-8-ita-IT/COLONIA-ESTIVA-SUMMER-CMP.jpg,"Colonia estiva sportiva Summer Camp, tennis e golf c/o il centro sportivo di Roncegno","Il Circolo Tennis Borgo e il Golf Club Roncegno hanno unito le forze per offrire ai bambini e ragazzi della Valsugana (dai 6 ai 14 anni circa) un’offerta estiva unica fatta di sport, divertimento e attività all’aria aperta nella magnifica cornice degli spazi verdi del Golf Club a Roncegno.Dal lunedì al venerdì con diverse opzioni:


1/2 giornata (dalle 08:00 alle 12:00)

1/2 giornata con pranzo (dalle 08:00 alle 13:00)

giornata intera (dalle 08:00 alle 16:00)*

*possibilità di posticipo fino alle 17:00


Il camp avrà una durata di 10 settimane a partire da giugno e fino a settembre.",https://www.comunitavalsuganaetesino.it/content/download/259468/3403345/8/2024+LOCANDINA+SUMMER+A3+OK+%28303+x+426+mm%29-2.pdf,2024-06-17T11:22:00+02:00,2024-09-06T12:22:00+02:00,dalle 08:00 alle 16:00,,per 10 settimane dal 17 giugno,Roncegno Terme,46.045969,11.422242,Via Ferme 38050 Roncegno Terme,Per informazioni visitare il sito www.ctborgo.itPOSSIBILITA' DI USUFRUIRE DEI BUONI DI SERVIZIO DELLA PAT ,,"Famiglia,Bambini,Giovani",in funzione della tipologia scelta,,,,Sport,,CIRCOLO TENNIS BORGO ,,,,3495960488,,borgocircolotennis@gmail.com,https://summercamp.mailchimpsites.com,,esterno,,,0,,,
