legalName,lat,lon,openingHours,telephone,email,url,sport,lit,covered,surface
Velodromo di Mori,45.8538618987013,10.98658026623377,,,,,cycling,,,
Centro Sportivo,46.011941400000005,11.2972152,,,,,swimming;multi,,,
Campo Don G. B. Giacomelli,45.87070057142858,11.076390385714287,,,,,soccer,,,
Circolo Tennis Lungo Leno,45.885382404761906,11.039189495238096,,,,,tennis,,,
,46.00543139999999,11.089722853846155,,,,,soccer,,,
Palestra Romarzollo,45.920001119999995,10.867913519999998,,,,,volleyball,,,
,45.91910478,11.06523488,,,,,tennis,,,
Happy Ranch,46.197419644444444,11.20313661111111,,,,,equestrian,,,
Bocciodromo,45.92018339,11.032360639999998,,,,,boules,,,
"Centro Sportivo ""Guido Manazzon""",46.05537323548387,11.130520545161291,,,,,swimming;judo;basketball,,,
,46.09984537999999,11.102444120000001,,,,,basketball,True,,
Centro Sportivo Trento Nord,46.10510499215687,11.114528460784316,,,,,basketball;gymnastics;swimming;soccer;volleyball;fencing,,,
,46.068337299999996,11.1285197,,,,,basketball,True,,concrete
,45.89238941999999,10.84763304,,,,,soccer,True,,grass
,45.89302743333334,10.848271583333334,,,,,soccer,True,,grass
,46.04266094347827,11.122244156521742,,,,,baseball,,,
,46.050750066666666,11.1150203,,,,,baseball,,,
Ata Cesare Battisti,46.04447735714285,11.120935728571428,,,,,tennis,,,
,46.0437813,11.121733899999999,,,,,soccer,,,
,46.0523146,11.115224739999999,,,,,hockey,,,paved
Skatepark Trento,46.052072419999995,11.11540868,,,,,skateboard,,,paved
Campo Calcio Talamo,46.051935660000005,11.1143045,,,,,soccer,,,
Campo calcio Trentinello,46.050553300000004,11.11379096,,,,,soccer,,,
Campo Calcio Orione,46.053943079999996,11.11610512,,,,,soccer,,,
"Campo atletica CONI ""Covi-Postal""",46.07956167142858,11.119701928571429,,,,,athletics,,,
"Campo ""Carlo Prada""",46.080761540000005,11.11885388,,,,,soccer,True,,artificial_turf
,46.07810669999999,11.1418251,,,,,soccer,,,
,46.07397496666667,11.148972416666666,,,,,soccer,,,
,46.04449528000001,11.137154540000001,,,,,soccer,,,
,46.051240855555555,11.144070900000001,,,,,soccer,,,grass
Campo Sintetico,46.05646048,11.149601819999997,,,,,soccer,True,,artificial_turf
,46.06353136,11.12906512,,,,,soccer,,,
,46.07635528181818,11.107588281818183,,,,,soccer,,,
Centro sportivo Vela,46.075663040476186,11.107846921428571,,,,,basketball;volleyball;table_tennis;futsal,,,
PalaBocchi,46.06371126,11.12519882,,,,https://www.asis.trento.it/it/impianti/centro-sportivo-f-lli-bocchi_9373_s/,basketball;volleyball,,,
,46.062350099999996,11.12239236,,,,,soccer,,,artificial_turf
,45.884894009090914,10.860893536363635,,,,,soccer,True,,concrete
,45.92332016,11.323684799999999,,,,,basketball,,,
,46.08628956,11.21629126,,,,,soccer,,,
Mille pini,46.14248906,11.24528094,,,,,soccer,True,,grass
,46.00802834,11.129078760000002,,,,,soccer,,,artificial_turf
,46.05142484,11.1435377,,,,,basketball,,,concrete
,46.03754185999999,11.110126900000001,,,,,basketball,,,
Campo Calcio Ravina,46.03707502,11.1086793,,,,,soccer,,,
,46.08681892,11.2160174,,,,,tennis,,True,
Campo Naturale,46.05649998,11.1506475,,,,,soccer,,,grass
,45.9993922,11.197536379999999,,,,,soccer,,,
,46.06519121666667,11.239592333333334,,,,,swimming,,,
,46.07127573333334,11.2340503,,,,,skateboard,,,
,46.06336936666667,11.238497183333331,,,,,tennis,,,
campo sportivo Isera,45.88160226,11.01159724,,,,,soccer,True,,grass
,45.86769562,11.02824644,,,,,soccer,,,
,45.9191762,10.905854383333333,,,,,soccer,,,
,46.41983734,11.13917576,,,,,soccer,True,,artificial_turf
,46.41960904,11.13953306,,,,,basketball,,,asphalt
,46.41957798,11.1397978,,,,,tennis,True,,asphalt
,46.06443951999999,11.23260832,,,,,soccer,,,artificial_turf
,46.07100208000001,11.23206098,,,,,soccer,,,
,45.85337206666667,10.984344700000001,,,,,soccer,,,
,46.19072564,11.13463262,,,,,soccer,,,grass
,46.216447439999996,11.08638744,,,,,rugby_league,,,
,45.886217980000005,11.02220866,,,,,basketball,,,concrete
Campo oratorio,45.886610871428566,11.022457157142854,,,,,soccer,,,grass
,46.217224279999996,11.121386,,,,,football,,,
Campo da Calcio di Daiano,46.3095524,11.44658758,,,,,soccer,,,
Circolo Tennis Arco,45.91512322142857,10.886299528571428,,,,,tennis,,,
Campo Rugby,45.883324099999996,11.0289994,,,,,rugby,,,grass
Campo delle Fucine,45.883868025,11.0299410875,,,,,soccer,True,,artificial_turf
Tovre,46.15422852222222,10.955235411111111,,,,,free_flying,,,
"Centro Sportivo ""Ito del Favero""",46.04072428125001,11.134449725,,,,,swimming;gymnastics;judo,,,
,46.037003920000004,11.14586472,,,,,basketball,,,
PalaFolgaria,45.913723437499996,11.174139025,,+39 0464 720277,,,ice_skating,,,
,45.91988762,11.17456104,,,,,tennis,,,
,45.91951888,11.17325804,,,,,soccer,,,
,46.06590334285714,11.130314499999999,,,,,gymnastics,,,
Circolo Ippico La Roccia,46.01720663333334,11.146350655555556,,,,,equestrian,,,
Campo Polifunzionale,45.98069521428572,11.236354742857145,,,,,tennis,True,,artificial_turf
,45.892711963636366,10.849745481818182,,,,,roller_skating,,,
Centro Sportivo Trilacum,46.088004764705886,11.045085382352942,,,,,soccer,,,
,46.1101555,11.03686686,,,,,soccer,,,
,46.13992298000001,11.1003164,,,,,soccer,,,
,46.03703222,11.2328455,,,,,tennis,True,,sand
,46.006830300000004,11.24320452,,,,,soccer,,,
,46.00690186,11.241872400000002,,,,,tennis,,,
,45.996990520000004,11.216394339999999,,,,,soccer,,,
Campo Calcetto,45.99288342,11.21928506,,,,,soccer,True,,tartan
Circolo Tennis Trento,46.06905811666667,11.128289933333333,,,,,tennis,True,,clay
,46.14078946,11.10102988,,,,,soccer,,,
Bocciodromo,46.04973271428572,11.129675028571427,,,,,bowls,,,
,46.064321771428574,11.098036257142857,,,,,soccer,,,artificial_turf
,46.17311984,11.224556999999999,,,,,soccer,,,
"Campo ""Mirko Bonetti""",46.0929152,11.11920384,,,,http://www.solterisangiorgio.it/,soccer,True,,artificial_turf
Campetto della Chiesa,45.86918086,10.878169159999999,,,,,soccer,True,,grass
,46.13754914,11.104833959999999,,,,,soccer,,,
,45.91221581111111,11.16367011111111,,,,,equestrian,,,
,46.04194906,11.13824418,,,,,soccer,,,grass
Campetto Sintetico,46.056939920000005,11.149947919999999,,,,,soccer,,,artificial_turf
,46.0795615,11.27944088,,,,,soccer,True,,grass
Pista motocross,46.07342801428571,11.266469007142856,,,,,motocross,,,
,46.16333004,11.30496614,,,,,soccer,True,,grass
,46.269682239999995,11.41314652,,,,,soccer,,,
,46.036016020000005,11.253898239999998,,,,,soccer,,,
,45.9879176,11.264229183333335,,,,,equestrian,,,grass
,45.882925328571424,10.851535514285713,,,,,soccer,True,,grass
,45.87974982,11.05512114,,,,,soccer,,,
,45.87932382,11.05492698,,,,,soccer,,,
Campo dell'Oratorio,45.962415899999996,10.90910242857143,,,,,soccer,,,
Campo da calcio,45.870196528571434,10.775167821428571,,,,,soccer,,,plastic
,46.17445644,11.222384,,,,,tennis,,,
Pra delle Moneghe,45.881974033333336,11.037777916666668,,,,,soccer,,,
Centro polivalente di Darzo Carlo Maffei,45.8344218125,10.5512128,,,,,climbing,,,
Skatepark Villa,46.0521443,11.144818419999998,,,,,skateboard,,,
,46.05201632,11.14465792,,,,,beachvolleyball,True,,sand
,45.918542887499996,10.831858137500001,,,,,tennis,,,
,45.904279862500005,10.8388342,,,,,soccer,,,
Circolo Tennis Torbole,45.875405959999995,10.876913939999998,,,,,tennis,True,,grass
,45.852286340000006,11.009782379999999,,,,,tennis,,,
,45.85236456,11.01042078,,,,,tamburello,,,
,46.10621122,11.29907846,,,,,soccer,,,
,46.177752925,11.168690424999998,,,,,soccer,,,
Chizzola,45.80983200526316,11.00482532631579,,,,,soccer,,,
,46.41074306,11.18890332,,,,,soccer,True,,grass
,45.80872934285714,10.970200857142856,,,,,soccer,,,
,45.93252212,11.09104352,,,,,tennis,True,,artificial_turf
Intecomunale Nomi Calliano,45.93075506666667,11.088216366666666,,,,,soccer,False,,grass
,45.9328418,11.0907771,,,,,boules,True,,concrete
,45.93234481666667,11.091679333333333,,,,,soccer,True,,artificial_turf
,45.82440929,10.95955017,,,,,soccer,,,artificial_turf
,45.82313324444444,10.958733977777776,,,,,soccer,True,,grass
,46.097422619999996,11.118026019999999,,,,,soccer,True,,artificial_turf
,46.09758916,11.116602720000001,,,,,soccer,True,,grass
,46.09793256,11.11767938,,,,,basketball,True,,
,45.94327173999999,11.110028199999999,,,,,soccer,,,
,45.94222423333334,11.110455783333334,,,,,tamburello,,,compacted
,45.881100520000004,11.069290200000001,,,,,rugby_league,,,
Centro Sportivo Intercomunale Mezzano,46.153972550000006,11.8123047,,,,,soccer; athletics,,,grass
,46.15397096,11.81226058,,,,,soccer,,,grass
,46.427237919999996,11.686883839999998,,,,,bowls,,,
Tennis,46.427779259999994,11.68672484,,,,,tennis,,,
,45.89228748181818,10.605570654545454,,,,,soccer,,,
,45.89084804,10.60514342,,,,,tennis,,,
Rene,46.425814179999996,11.685428060000001,,,,,tennis,,,
,46.08014620000001,11.11394904,,,,,basketball,True,,artificial_turf
,46.45820452,11.69932958,,,,,tennis,,,
,46.4762766,11.74715892,,,,,bowls,,,
,46.475522080000005,11.74726162,,,,,tennis,,,
,46.4764664,11.748175219999998,,,,,soccer,,,
,46.47536563999999,11.74703372,,,,,tennis,,,
,45.84499805714286,11.011253242857142,,,,,soccer,True,,grass
Campo Sportivo Cerfenal,46.299036259999994,11.50420748,,,,,soccer,,,
,45.92066619090909,11.0326156,,,,,soccer,,,
,46.287616660000005,11.46045578,,,,,soccer,,,
,46.28732298,11.460606899999998,,,,,basketball,,,
Campo da calcio di Transacqua,46.17867164999999,11.834710633333332,,,,,soccer,True,,artificial_turf
,46.179077400000004,11.835781866666666,,,,,basketball,False,,tartan
,46.17307146,11.82767336,,,,,tennis,,,
,46.19242357142856,11.827196928571428,,,,,mtb;skateboard;bmx;cycling,True,,grass
,45.88801473333333,10.863943744444445,,,,,field_hockey,True,,artificial_turf
,45.952225,10.641968279999999,,,,,soccer,,,
,45.89317568,10.844553860000001,,,,,tennis,,,
,45.835362599999996,10.55150528,,,,,tennis,,,
Centro Sportivo Darzo Carlo Maffei,45.836410980000004,10.55166016,,,,,soccer,,,grass
,45.884633542857145,10.844231142857142,,,,,tennis,True,,clay
Bocciodromo,45.89339475384616,10.84080983076923,,,,,boules,,,
,45.84282748,10.584629080000001,,,,,tennis,,,
,45.884927899999994,10.86052734,,,,,basketball,True,,asphalt
,46.04520526,11.2104532,,,,,soccer,,,
,46.123847239999996,10.755649360000001,,,,,tennis,,,
,46.124900499999995,10.756081219999999,,,,,basketball,True,,concrete
,46.12250904,10.754426760000001,,,,,soccer,True,,ground
,46.12262828,10.753887619999999,,,,,beachvolleyball,True,,
Campo da calcio,46.39489962,11.145233659999999,,,,,soccer,,,
,45.92034605714286,10.866453885714284,,,,,soccer,,,
Centro Sportivo Guaita,46.02455954,10.94206556,,,,,soccer,,,
campo calcio 2,46.13819464,10.764625500000001,,,,,soccer,,,grass
,46.13744276,10.764114,,,,,basketball,,,concrete
,46.13662724,10.763420980000001,,,,,football,,,
,46.28517166,11.550048899999998,,,,,soccer,,,
,46.271834266666666,11.419535750000001,,,,,soccer;tennis,,,fine_gravel
,46.271766480000004,11.418955120000001,,,,,bowls,True,,tartan
,46.288543419999996,11.42754138,,,,,tennis,,,
,46.288254959999996,11.426333460000002,,,,,tennis,,,
,46.071099100000005,11.13816838,,,,,soccer,,,
,46.011262020000004,11.29001032,,,,,soccer,True,,grass
,46.01702926,11.2900405,,,,,tennis,,,
,46.42153208,11.675455320000001,,,,,tennis,,,
,46.29316612,11.43951976,,,,,soccer,,,
,46.14803628,10.76590306,,,,,soccer,False,,grass
Campo sportivo Pineta,46.153443333333335,10.758454583333334,,,,,soccer,False,,grass
Campo sportivo Cereghini,46.1523392,10.75961768,,,,,soccer,True,,grass
,45.88625456,10.73604108,,,,,beachvolleyball,False,,sand
,46.057070120000006,11.12034148,,,,,soccer,,,
,46.06095210000001,11.120070683333333,,,,,soccer,,,
,46.06099765999999,11.12065602,,,,,soccer,,,
,46.06096096,11.12036462,,,,,soccer,,,
,46.06091863333334,11.119790166666666,,,,,soccer,,,
,45.88363705,11.029015833333332,,,,,basketball,,,
Polsa Tennis Camp,45.782613219999995,10.940442019999999,,,,,tennis,,,
Palagarda,45.90655279166668,10.865378783333334,,,,,basketball,,,
,45.9004527,10.869198966666668,,,,,basketball,,,
,45.89375954615385,10.719645038461538,,,,,soccer,True,,artificial_turf
,45.87941728,11.02911072,,,,,soccer,,,artificial_turf
,45.88023014,11.029816139999998,,,,,tennis,,,
,45.88048656666667,11.030123183333332,,,,,tennis,,,
,45.87983416,11.029523459999998,,,,,tennis,,True,
,45.88008504444444,11.029129555555556,,,,,tennis,,,
Circolo Tennis Villa Lagarina,45.91725723333334,11.029385249999999,,,,,tennis,,,
,46.00533282,11.08978304,,,,,soccer,False,,grass
Campo da tennis,45.922745,11.0070844,,,,,tennis,,,
,46.25387522,11.06253034,,,,,tennis,,,
,45.88694868333334,11.0088006,,,,,basketball,False,,concrete
,46.26493562857143,11.08544114285714,,,,,tamburello,,,
,46.26447928333334,11.084602400000001,,,,,soccer,,,
,46.26655468,11.0977785,,,,,soccer,,,
,46.274950739999994,11.03105836,,,,,soccer,,,
,46.2177124,11.085767720000002,,,,,tennis,,,
,46.21757742,11.08542158,,,,,tennis,,,
,46.218177159999996,11.09600168,,,,,soccer,True,,artificial_turf
,46.21931896,11.08554492,,,,,soccer,,,
,46.20873202,11.09744244,,,,,skating,,,
,46.20877942,11.0964623,,,,,tamburello,,,
,45.852409720000004,10.986518649999999,,,,,soccer,,,
,45.8538040125,10.983305699999999,,,,,archery,True,,
,46.21700392857143,11.085702314285713,,,,,boules,,,
,46.00328866,11.28754294,,,,,soccer,,,
,46.004381640000005,11.28607222,,,,,soccer,,,
,46.0032065,11.28773172,,,,,volleyball,,,
,46.0040347,11.28596604,,,,,tennis,,,
,46.21655932,11.08712922,,,,,tennis,,,
,45.86482288,10.88153066,,,,,basketball,True,,clay
,45.84669276000001,10.980346380000002,,,,,basketball,,,
,46.06130613333334,11.120708233333332,,,,,basketball,,,artificial_turf
,46.2196559,11.0466173,,,,,soccer,,,
,46.2596059,11.028772,,,,,soccer,,,artificial_turf
,46.21880488000001,11.046383180000001,,,,,soccer,,,artificial_turf
,46.297223380000005,11.025279059999999,,,,,soccer,,,
,46.23712898,11.02344724,,,,,tennis,,,
,46.237792080000006,11.0231512,,,,,soccer,,,
,46.2644255,11.053498000000001,,,,,soccer,,,grass
,46.24933385999999,11.015513720000001,,,,,soccer,,,
,45.87663256,10.93557442,,,,,basketball,True,,grass
,45.87646629333333,10.93538758,,,,,soccer,True,,grass
Campo da Tamburello,45.86705394999999,10.934873633333334,,,,,tennis,,,
,46.283677250000004,11.482016,,,,,soccer,,,
,45.79625752,11.023419919999998,,,,,soccer,,,
,46.06612775999999,11.124793399999998,,,,,volleyball,,,asphalt
,46.168507139999996,11.08679116,,,,,soccer,True,,artificial_turf
,46.169159560000004,11.086878480000001,,,,,soccer,,,
,45.92093627999999,10.86607399,,,,,basketball,,,
,46.06398254,11.12191136,,,,,soccer,,,concrete
,46.0555401,11.12737992,,,,,beachvolleyball,,,sand
,46.057297659999996,11.126128079999999,,,,,table_tennis,,,
,46.05708212,11.126058320000002,,,,,beachvolleyball,,,sand
,45.91920897999999,11.061118099999998,,,,,soccer,,False,grass
,45.918704559999995,11.06190054,,,,,volleyball,,,
,45.91890424,11.06217256,,,,,soccer,,False,artificial_turf
Palestra Comunale,45.91938126842105,11.064251410526316,,,,,volleyball,,,
,45.9195159,10.90655836,,,,,soccer,,,
,45.91394425,10.90372451,,,,,soccer,,,
Circolo Tennis Ledro,45.877387925,10.767567416666665,,+39 0464 508740,,http://www.ctledro.it,tennis,,,
,45.87679902,10.76841756,,,,,beachvolleyball,,,sand
,45.91597507777778,10.887383366666667,,,,,soccer,,,
,46.165220240000004,11.113042020000002,,,,,boules,,True,
,46.0644692,11.153455049999998,,,,,soccer,True,,grass
,46.06478914,11.1513889,,,,,tennis,,,
,46.061831340000005,11.11970006,,,,,soccer,,,
,46.041428079999996,11.138837120000002,,,,,basketball,,,
,46.03971926666667,11.138673366666666,,,,,tennis,,,
Campo sportivo,46.177702599999996,11.257298359999998,,,,,soccer,,,
,46.15205502,11.22448468,,,,,soccer,,,
Campo sportivo,46.22159402,11.291222520000002,,,,,soccer,,,
,46.063137639999994,11.12603536,,,,,table_tennis,True,,
,46.053016320000005,11.130071419999998,,,,,basketball,,,
,46.05274497999999,11.13010242,,,,,soccer,,,
Campo sportivo,46.19693613333333,11.263765166666667,,,,,soccer,,,
,46.1844818,11.012963439999998,,,,,boules,,True,
,46.1838335,11.01230166,,,,,soccer,,,
,45.897635779999995,11.044236600000001,,,,,soccer,,,
,46.24364988000001,11.3421684,,,,,soccer,,,
,45.936849711111115,10.811795,,,,,tennis,,,
,46.36261116,11.025831199999999,,,,,soccer,,,
,46.344466260000004,11.027926959999999,,,,,soccer,,,
,46.34287746,11.027500839999998,,,,,tennis,,,
,46.343260580000006,11.0302438,,,,,soccer,,,
,46.36264094,11.026103639999999,,,,,beachvolleyball,,,
,46.36260966,11.02630794,,,,,tennis,,,
,46.36610658571429,11.038287014285713,,,,,soccer,,,
,46.073428660000005,11.148011879999999,,,,,tennis,,,
,45.91768926666667,10.833444766666666,,,,,soccer,,,
,45.94286974,11.110587480000001,,,,,basketball,,,
,45.94255194,11.11025776,,,,,tennis,,,asphalt
,46.42365597999999,11.68312512,,,,,basketball,,,concrete
Campo Sportivo,46.248272400000005,11.180181919999999,,,,,soccer,,,
Tennis,46.24884244,11.1808511,,,,,tennis,,,
,46.090126839999996,11.118883579999999,,,,,volleyball,False,,artificial_turf
,45.94593655999999,10.620481860000002,,,,,soccer,,,
,45.93010962,11.04531798,,,,,tennis,,,
,46.01094484,11.28892826,,,,,soccer,,,grass
,46.011270259999996,11.2879847,,,,,soccer,,,artificial_turf
Campo,45.79630192,10.971805159999999,,,,www.saccone.info,soccer,True,,grass_paver
,46.191618240000004,11.13174832,,,,,soccer,,,grass
Campo da Tennis,46.0463505,10.949261680000001,,,,,tennis,,,artificial_turf
Campo Sportivo,46.02827271111111,10.982752266666665,,,,,soccer,,,
,45.968948669999996,10.914592870000002,,,,,soccer,True,,grass
,45.96848971111111,10.913839033333332,,,,,soccer,True,,
Campo da Calcio,45.994756380000005,10.9787122,,,,,soccer,,,
,45.995363319999996,10.97838088,,,,,tennis,,,
Campo da Calcio,45.995283719999996,10.97958584,,,,,soccer,,,
,45.87153576,10.7615375,,,,,beachvolleyball,,,
Centro Polifunzionale,46.06981862000001,11.05537474,,,,,basketball;volleyball,,,
,45.97094468333333,10.939833533333335,,,,,soccer,,,
Campo di Tamburello,45.97262095,10.93479656,,,,,paddle_tennis,,,
Rech-Hof Tennis,45.91808314,11.18701506,,,,,tennis,,,grass
,45.91837492,11.19094206,,,,,tennis,False,,artificial_turf
,45.91806352,11.19123354,,,,,tennis,False,,clay
,46.04295188,10.7653515,,,,,tennis,,,
,45.91018914,11.184979700000001,,,,,tennis,,,
Circolo Tennis,46.0332501,10.723214899999999,,,,,tennis,,,
,46.033179260000004,10.72346732,,,,,tennis,,,
Campo Albaredo,45.856189560000004,11.05795966,,,,,soccer,,,
,46.2148074,11.1240518,,,,,soccer,,,
,46.21677034,11.12654854,,,,,soccer,,,
,46.225254340000006,11.12198234,,,,,tennis,,,
,46.225156516666665,11.119342366666666,,,,,tennis,,,
,45.75341211999999,10.99929344,,,,,tennis,,,
,45.75346142,10.999002679999998,,,,,tennis,,,
"Stadio ""Mutinelli""",45.75989128000001,11.00804452,,,,,soccer,,,
,45.924611760000005,11.210363099999999,,,,,tennis,,,grass
Casae,45.780465580000005,11.12318044,,,,,soccer,,,
Campo di Calcio AC Fassa,46.41657424,11.67714592,,,,,soccer,True,,grass
,46.4160239,11.677845459999999,,,,,soccer,True,,artificial_turf
,46.41617172,11.67762928,,,,,tennis,True,,artificial_turf
Antistadio Quercia,45.90206152,11.0375238,,,,,soccer,,,grass
,45.901068620000004,11.0374582,,,,,soccer,True,,grass
,45.9079206,11.01308684,,,,,tamburello,,,
,45.75846743999999,11.0083388,,,,,basketball,,,
Crossodromo Ai Laghi,45.93437578378378,10.806274402702703,,,,,motor,,,
,46.17717374,11.10432484,,,,,tennis,,,
,46.06477872,11.080736519999999,,,,,tennis,,,
,46.05368124,11.071887259999999,,,,,tennis,,,
,46.31662648,11.11815904,,,,,soccer,True,,grass
,46.37919212857143,11.029108800000001,,,,,soccer,,,
,46.31320784,10.794775679999999,,,,,soccer,,,
,46.31372552,10.794413259999999,,,,,basketball,,,
,46.3139636,10.79573312,,,,,tennis,,,
,46.314029600000005,10.79606348,,,,,tennis,,,
,46.2140348,10.82279198,,,,,tennis,,,
,46.30951227999999,10.738784120000002,,,,,soccer,True,,grass
,46.25683234,10.58360438,,,,,soccer,,,
,45.893017199999996,11.15189346,,,,,bowls,,,
,45.89218906,11.1524285,,,,,soccer,,,
,45.89254992,11.151147040000001,,,,,tennis,,,
,46.28245361999999,11.557210699999999,,,,,soccer,True,,grass
Sferisterio comunale di Tesero,46.2829279,11.517235020000001,,,,,tamburello,True,,
Centro del Fondo Fiemme 2013,46.281055748275854,11.523551496551725,,,,,nordic_ski,,,
,46.44043748,11.019865399999999,,,,,soccer,,,
,46.22845074000001,10.827531780000001,,,,,tennis,True,,compacted
,46.243389560000004,10.83953542,,,,,tennis,,,
,46.24463668,10.8397206,,,,,tennis,,,
,46.30428756,10.8124215,,,,,soccer,,,
,46.16994624,11.00352658,,,,,tennis,True,,clay
,46.170241540000006,11.003772099999997,,,,,tennis,True,,clay
,46.17043534,11.0032617,,,,,tennis,,,
,46.17119262,11.005519620000001,,,,,tennis,True,,artificial_turf
,46.170345600000005,11.00347674,,,,,tennis,,,
,46.1701357,11.00301298,,,,,tennis,,,
,46.17057656,11.006138539999998,,,,,soccer,,,
,46.17005134,11.00324098,,,,,tennis,,,
,46.14026630000001,10.961961920000002,,,,,tennis,True,,clay
,46.14186818,10.95596508,,,,,soccer,True,,artificial_turf
,46.138373859999994,10.961181999999999,,,,,beachvolleyball,False,,sand
,46.14007996,10.96265714,,,,,tennis,True,,clay
,46.13987578,10.96272038,,,,,tennis,True,,clay
,46.171029239999996,11.066268560000001,,,,,soccer,,,
,45.987252760000004,10.676438860000001,,,,,soccer,,,
,46.21542916000001,11.123014880000001,,,,,tennis,,,
,46.21507668,11.12336856,,,,,tennis,,,
,45.83487888,10.55141888,,,,,tennis,,,
,45.891750585714284,10.605594514285713,,,,,soccer,,,
,46.08789686666666,11.043853583333332,,,,,soccer,,,
Campo sportivo Meano,46.12914886,11.12006636,,,,,soccer,,,
,46.3235727,11.07194856,,,,,soccer,,,
,46.104533616666664,11.11089065,,,,,basketball,,,
,46.14892217999999,11.093788960000001,,,,,soccer,,,
,46.099552800000005,11.10981994,,,,,soccer,,,
,46.05084394000001,11.129576740000001,,,,,soccer,True,,
,46.14454930000001,11.18586208,,,,,tennis,,,
,46.14379598,11.18551768,,,,,soccer,,,
,46.11192794,11.1040781,,,,,basketball,,,
,46.04755084285715,11.421305885714286,,,,,tennis,,,
,46.04729822857143,11.422038428571426,,,,,tennis,,,
,46.046966125,11.4230091,,,,,tennis,,,
,46.047053285714284,11.422781228571427,,,,,soccer,,,
,46.047464850000004,11.421520899999999,,,,,tennis,,,
,46.04719965714286,11.422237299999997,,,,,tennis,,,
,46.047646433333334,11.4210923,,,,,tennis,,,
,46.04591434,11.42013714,,,,,soccer,,,
,46.04688024285714,11.423225442857143,,,,,tennis,,,
,46.0489106,11.4109591,,,,,tennis,,,
,46.03324626,11.115419319999999,,,,,tennis,,,
,46.073249372727275,11.114557990909091,,,,,tennis,,,artificial_turf
,46.29789066,11.02531468,,,,,basketball,,,
,45.94154594,10.641393779999998,,,,,soccer,,,artificial_turf
Bocciodromo,46.00737678,11.130472300000001,,,,,boules,,,
,46.050626820000005,10.776413680000001,,,,,bowls,,,
,46.05068718,10.77619594,,,,,tennis,,,
Campo Sportivo Preore,46.04524276,10.7546268,,,,,soccer,True,,grass
,46.04268656000001,10.73160196,,,,,beachvolleyball,,,sand
Bocciodromo Sesena,46.04306464,10.730988120000001,,,bocce.tioneditrento@gmail.com,,bowls,,,
,46.042134499999996,10.730723600000001,,,,,skateboard,,,
,46.04250038,10.73118916,,,,,basketball,,,
,46.044836759999995,10.75192522,,,,,tennis,,,
,46.07007724,11.0527115,,,,,soccer,True,,grass
,46.07046064,11.05336734,,,,,soccer,True,,artificial_turf
,45.91928922,10.60279332,,,,,tennis,,,
,45.91959270000001,10.603548,,,,,soccer,,,
,46.12065932,11.2129367,,,,,soccer,,,
,46.095157040000004,11.19919062,,,,,tennis,,,
,46.09114473333333,11.18191925,,,,,soccer,,,
,46.09229582,11.17969126,,,,,tennis,,,
,46.12042276,11.2135276,,,,,soccer,,,
,46.07840678333333,11.141909716666666,,,,,basketball,,,
,46.129881999999995,11.204351399999998,,,,,tennis,True,,tartan
Campo volo levico,45.998119307692306,11.295135507692306,,,,http://www.gavs-trentino.it/,model_aerodrome,,,
,46.19903411578948,11.203330884210525,,,,,equestrian,,,
,46.06451522,11.2426569,,,,,soccer,,,
,46.06600312,11.22938332,,,,,soccer,,,
,46.065943880000006,11.231081280000001,,,,,basketball,,,
,46.07169058,11.23325964,,,,,soccer,,,
,46.03677078,11.23450188,,,,,tennis,False,,asphalt
,46.11380334,11.6182493,,,,,tennis,,,
,45.98486362,11.26835736,,,,,soccer,True,,grass
,45.99387366,11.261643699999999,,,,,tennis,,,
,46.059179179999994,11.61507824,,,,,tennis,,,
,46.06760756,11.604365519999998,,,,,tennis,,,
,46.059827600000006,11.61552698,,,,,soccer,,,
,46.0675368,11.60344482,,,,,soccer,,,
centro sportivo Parti,46.057776080000004,11.62823264,,,,,soccer,,,grass
,46.069829119999994,11.586515460000001,,,,,soccer,,,
,46.04404228333333,11.562154216666668,,,,,tennis,,,
,46.04488511428571,11.562554642857146,,,,,soccer,,,
,46.081800380000004,11.55968752,,,,,soccer,,,
,46.070933720000006,11.511774740000002,,,,,tennis,,,
Campo sportivo,46.0663288125,11.4998186875,,,,,soccer,,,grass
Campo tennis,46.0670382,11.500404280000001,,,,,tennis,,,
,46.067532,11.49296446,,,,,soccer,,,
,46.06822340000001,11.49307946,,,,,team_handball,,,
,46.0706376,11.48524188,,,,,tennis,,,
,46.07030551999999,11.484435659999999,,,,,soccer,,,
,46.0561694,11.470052860000001,,,,,rugby_union,,,grass
,46.07740292,11.449183620000001,,,,,soccer,,,
,46.0768956,11.449030480000001,,,,,soccer,,,
,46.05307618333333,11.492518283333334,,,,,soccer,,,
,46.008943419999994,11.13442756,,,,,tennis,,,
,46.01396684,11.28804774,,,,,tennis,,,
,46.013526840000004,11.28910278,,,,,tennis,,,
,46.39986524,11.069359780000003,,,,,tennis,,,
,46.39753876,11.067454559999998,,,,,soccer,,,
,46.404043539999996,11.1492243,,,,,soccer,,,
,46.3930968,11.051589719999999,,,,,soccer,,,
,46.39289722,11.05091668,,,,,tennis,,,
,46.4101396,10.96864968,,,,,soccer,True,,artificial_turf
Campo da Tennis,46.38986916,11.135247799999998,,,,,tennis,,,
,46.400581579999994,11.002487920000002,,,,,soccer,,,
,46.39385076,11.122253920000002,,,,,soccer,,,
,46.40412121999999,11.01698796,,,,,soccer,,,
,46.419929200000006,11.086996800000001,,,,,soccer,,,
,46.43359964,11.14469626,,,,,tennis,,,
,46.42329586,11.147313919999998,,,,,tennis,,,
,46.41966014,11.15189644,,,,,tennis,,,
,46.41967656,11.1512646,,,,,tennis,,,
,46.423044319999995,11.158041279999999,,,,,basketball,,,
Bocciodromo Comunale,46.06766842857144,11.2463549,,,,,boules,,,
Campo da Tennis,45.95849461428572,10.910361614285716,,,,,tennis,,,
,46.0726871,10.99756782,,,,,soccer,True,,grass
,45.971477979999996,11.094403119999999,,,,,tennis,,,
,45.97122216,11.09531156,,,,,soccer,,,grass
,45.9704027,11.095036,,,,,tamburello,,,
,45.97007466000001,11.09438526,,,,,soccer,,,
,46.082175459999995,11.559018259999998,,,,,tennis,,,
,46.04453698,11.1200411,,,,,tennis,,True,
,46.04424318,11.121752599999999,,,,,tennis,,,
,46.04416394,11.12153856,,,,,tennis,,,
,46.04408532,11.121328260000002,,,,,tennis,,,
,46.04433715999999,11.120691,,,,,tennis,,,
,46.04458204,11.12031882,,,,,tennis,,True,
,46.04447856,11.12129444,,,,,tennis,,,
,46.04424162,11.12043402,,,,,tennis,,,
,46.044556220000004,11.121501660000002,,,,,tennis,,,
,46.04439798,11.121082679999999,,,,,tennis,,,
,46.02539422,11.23051008,,,,,beachvolleyball,True,,
,46.052399480000005,11.248046579999999,,,,,soccer,,,
,46.36510079999999,11.072278299999999,,,,,soccer,,,
,46.37620271428572,11.076286300000001,,,,,soccer,,,
,46.29494118,11.07312614,,,,,soccer,False,,grass
,46.17536566,11.06425184,,,,,tennis,,,
,46.171928560000005,11.073010579999998,,,,,soccer,,,
,46.17145004,11.07340132,,,,,tennis,,,
,46.1753092,11.06379682,,,,,tennis,,,
,46.259417,11.029474520000003,,,,,tennis,,,artificial_turf
Campo da Tennis sintetico,46.32044698,11.0955913,,,,,tennis,,,
,46.10870422,11.10981738,,,,,tennis,,,
,46.292687539999996,11.505965100000001,,,,,tennis,,,
,46.29348076,11.505761340000001,,,,,tennis,,,
,46.2879698375,11.5630648625,,,,,tennis,,,
,46.28606353333333,11.562189733333334,,,,,soccer,,,
,46.35366364,10.912303640000001,,,,,basketball,,,
,46.351680879999996,10.914710600000001,,,,,tennis,,,
,46.35452918,11.094673839999999,,,,,soccer,,,
,46.35383846,11.093708459999998,,,,,basketball,,,
,46.3213708,11.07487486,,,,,tennis,,,
,46.30531739999999,11.075476140000001,,,,,tamburello,,,
,46.35357834,10.66559586,,,,,tennis,True,,clay
,46.35382274,10.66611996,,,,,tennis,True,,clay
,46.353879660000004,10.66634364,,,,,soccer,True,,grass
,46.349667759999996,11.11096246,,,,,soccer,,,
,46.34730671999999,11.115642260000001,,,,,soccer,,,
,46.35000342,11.111027080000001,,,,,tennis,,,
,46.336646200000004,11.11508894,,,,,soccer,,,
,46.364162879999995,11.098723,,,,,tennis,,,
,46.33437178,11.03055738,,,,,tennis,,,
,46.33662399999999,11.03361888,,,,,tamburello,,,
,46.33392882,11.03016314,,,,,soccer,,,
,46.33437482,11.0299577,,,,,tennis,,,
,46.34331528,11.12552192,,,,,tennis,,,
,45.92920328000001,11.07850104,,,,,soccer,,,
,46.45450476,11.11594408,,,,,soccer,,,
,46.4541436,11.11587994,,,,,tennis,,,
,46.15941538,11.14318416,,,,,soccer,,,
,46.156260599999996,11.154847199999999,,,,,soccer,True,,artificial_turf
,46.1782741,11.16773958,,,,,soccer,,,
,46.15982408000001,11.169765459999999,,,,,soccer,,,
,46.158852579999994,11.15979642,,,,,soccer,,,grass
,46.1686309,11.15773738,,,,,soccer,False,,grass
,46.07262902,11.131455599999999,,,,,soccer,True,,grass
Bocciodromo,46.051791650000006,11.143969566666668,,,,,boules,,True,
,46.06372672,11.522635979999999,,,,,volleyball,,,
,46.06587809090909,11.499807045454544,,,,,soccer,,,grass
,46.064195160000004,11.11426144,,,,,soccer,True,,artificial_turf
,46.13280282,11.135461379999999,,,,,soccer,,,
,46.13109634,11.13483424,,,,,tennis;soccer,,,
,46.0699851,10.90393814,,,,,soccer,,,
,46.0703508,10.90488032,,,,,soccer,,,
,46.14000592,10.9615841,,,,,tennis,False,,clay
Campo Sportivo «Don Santo Goio»,46.14102632,10.957356279999999,,,,,soccer,True,,grass
,46.1719012,11.00487232,,,,,equestrian,,,
Molveno lower takeoff,46.14576739230768,10.959703223076925,,,,,free_flying,False,,
,46.0360752,11.253342219999999,,,,,soccer,,,
,46.012997760000005,11.266972720000002,,,,,basketball,,,
,46.01303546,11.267515999999999,,,,,soccer,,,
,46.01328193999999,11.267594859999999,,,,,tennis,,,artificial_turf
,46.30975194,10.7646751,,,,,rugby_league,,,
,46.07790369999999,10.903813959999999,,,,,tennis,,,
,46.04930106,10.85362484,,,,,soccer,,,grass
,46.06471387999999,10.94116278,,,,,soccer,,,grass
,46.06447464,10.94091328,,,,,tennis,,,concrete
,46.061782980000004,10.9907257,,,,,tennis,,,
,46.03337348,11.3917731,,,,,soccer,,,
Campo sportivo parco giochi,45.890092025,10.95125355,,,,,basketball,,,
,45.89045686666666,10.947929191666665,,,,,soccer,,,
,46.072828099999995,11.13477608,,,,,soccer,False,,grass
,46.06813018,11.12588354,,,,,basketball,,,
,46.067954740000005,11.12624598,,,,,volleyball;soccer;basketball,True,,clay
,46.04089624,11.05767094,,,,,tennis,True,,tartan
,46.0505613,11.072835183333334,,,,,volleyball;basketball,,,
,46.05045760000001,11.07306815,,,,,boules,,,
,46.16309746,11.30353286,,,,,tennis,,,tartan
,46.073834445454544,11.114278809090909,,,,,soccer,,,
,46.20429012,11.04098058,,,,,boules,,,
,45.89265776,11.188565100000002,,,,,basketball,,,
,45.91254224000001,11.180807840000002,,,,,basketball,,,concrete
,45.892655819999995,11.18823654,,,,,beachvolleyball,,,sand
,45.892358900000005,11.189340179999999,,,,,soccer,,,
Skate park,45.91742096153847,11.067419630769232,,,,,skateboard;cycling,,False,paved
,46.183481799999996,11.012318019999999,,,,,soccer,,,
Campo sportivo di Varena,46.308244560000006,11.46683668,,,,,soccer,,,grass
,46.06426048,11.079031819999999,,,,,soccer,,,
,46.05206038,11.120496840000001,,,,,tennis,,,clay
,46.05883808,11.123717379999999,,,,,soccer,,,
Campo da tennis,46.02286743333334,10.865808316666666,,,,,tennis,,,paved
,46.02579382,10.83811572,,,,,tennis,True,,clay
,46.01502264285715,10.816395628571428,,,,,soccer,,,
,45.922227140000004,11.13259992,,,,,soccer,True,,grass
,46.14023048,11.11344778,,,,,tennis,,,
Padel Club Cavalese,46.289236200000005,11.464457020000001,,,,,boules,True,,artificial_turf
Bocciodromo,46.2891888,11.464244457142858,,,,,boules,,,
,46.18630632,11.16167204,,,,,tamburello,,,
,45.914970620000005,10.6248501,,,,,soccer,,,
,46.042799460000005,11.13294046,,,,,soccer,,,grass
,46.0518584,11.13389278,,,,,soccer,,,
,46.042889720000005,11.120779619999999,,,,,rugby,,,
,46.068115250000005,10.713415766666666,,,,,soccer,,,
,45.87854442,11.15062834,,,,,soccer,,,
,46.0851619,11.130320559999998,,,,,tennis,,,
,46.10219476,11.10019234,,,,,volleyball,,,
,45.894070240000005,10.602801,,,,,basketball,,,
,46.0748378,11.142657200000002,,,,,volleyball,,,
,46.07452524,11.14267576,,,,,basketball,,,
,46.08710916,11.13533866,,,,,tennis,,,
,46.086869320000005,11.135376579999999,,,,,tennis,,,
,46.08625776,11.134895,,,,,tennis,,,
,46.08662994,11.1351793,,,,,tennis,,,
,46.140113160000006,10.9621946,,,,,bowls,,,
,46.13516112,10.96991376,,,,,tennis,,,
,46.16357266,11.000003880000001,,,,,tennis,,,
AcquaIN,46.1690042875,11.00439695625,,+39 0461 589 850,info@acquain.it,http://www.acquain.it,swimming,,,
,46.04881936,11.45880442,,,,,basketball,,,
,46.05618336,11.45416162,,,,,tennis,,,
,46.04073088,11.4598308,,,,,soccer,,,
,46.36601906,11.64774356,,,,,soccer,,,grass
,46.365274920000004,11.64663576,,,,,soccer,,,grass
Campo da Basket - Comune di Soraga,46.3962264,11.66982016,,,,,basketball,,,
Campo da Calcio - Comune di Soraga,46.396440739999996,11.670111760000001,,,,,soccer,True,,artificial_turf
,46.068905459999996,11.1174195,,,,,soccer,,,
Campo da tennis,46.394524239999996,11.146070839999998,,,,,tennis,,,
,45.92752858,11.070403960000002,,,,,basketball,,,
,46.0343169,11.10805654,,,,,tennis,,,
,45.90512931999999,11.04149608,,,,,soccer,True,,grass
,45.905177099999996,11.041963499999998,,,,,bowls,,,
,46.067379960000004,11.60511326,,,,,boules,,,
,46.05699108,11.136841819999999,,,,,beachvolleyball,False,,sand
Campo sportivo,45.935617042857146,11.093350642857143,,,,,basketball,,,
campo sintetico,45.88150968,11.01237862,,,,,soccer,True,,artificial_turf
,45.943064140000004,11.25255182,,,,,tennis,,,asphalt
,46.29032176,10.68102644,,,,,beachvolleyball,,,
,46.29050248,10.680919800000002,,,,,soccer,,,
,45.81149682,10.5434837,,,,,tennis,,,
,45.81124912,10.5426497,,,,,soccer,,,
,45.811631639999995,10.5438038,,,,,tennis,,,
,46.29601622,10.69332212,,,,,tennis,,,
,46.29586625999999,10.692401540000002,,,,,soccer,,,
,45.984535199999996,10.6742924,,,,,tennis,,,
,45.85106224705883,10.575759429411765,,,,,volleyball,,,
,46.100342600000005,11.1100423,,,,,basketball,,,asphalt
,45.96993468,11.095177760000002,,,,,boules,,True,
,46.29540072,11.429132339999999,,,,,soccer,,,
,46.333643699999996,10.886721320000001,,,,,tennis,,,
,46.32580002,10.87779284,,,,,soccer,,,
,46.326122840000004,10.87752128,,,,,basketball,,,
,46.32628958,10.877420319999999,,,,,volleyball,,,
,46.3184782,10.86359792,,,,,basketball,,,
,46.32606863333333,10.862718216666666,,,,,soccer,,,
,46.3259643,10.862495739999998,,,,,volleyball,,,
,46.30908396,10.76044816,,,,,tennis,True,,artificial_turf
,46.35641766,10.66743364,,,,,tennis,,,
,46.3466517,10.69861576,,,,,soccer,,,
,46.3500148,10.695461139999999,,,,,tennis,,,
,46.360782300000004,10.924055560000001,,,,,tennis,,,
,46.360555299999994,10.924030116666666,,,,,soccer,,,
,46.39943242,10.845654399999999,,,,,soccer,,,grass
,46.36641949999999,10.960469280000002,,,,,soccer,,,
,45.917410059999995,11.16781192,,,,,soccer,,,
,45.94707476,11.26309952,,,,,soccer,,,
,45.94662124,11.26262074,,,,,soccer,,,
,45.948141480000004,11.262861899999999,,,,,tennis,,,
,45.94856916,11.2626807,,,,,tennis,,,
,45.935468199999995,11.23079404,,,,,tennis,,,artificial_turf
,45.93530052,11.2305984,,,,,tennis,,,artificial_turf
,45.9283017,11.22514352,,,,,tennis,False,,concrete
,45.93540308,11.230236399999999,,,,,boules,,,clay
,46.04176622,11.05834998,,,,,volleyball,,,
,46.041216580000004,11.05845934,,,,,volleyball,,,
,45.88425284,11.04129538,,,,,basketball,,,
,45.8727822875,10.870673674999999,,,,,beachvolleyball,True,,sand
,46.44646472,11.15157296,,,,,soccer,,,artificial_turf
Sacra Famiglia,45.895065499999994,11.03965694,,,,,basketball,,,
Sacra Famiglia,45.894816580000004,11.03966878,,,,,soccer,,,
,45.89746588,11.027774800000001,,,,,soccer,,,grass
Skate Park Rovereto,45.897335289999994,11.02739787,,,,,skateboard,,,concrete
,45.951501416666666,11.0221266,,,,,archery,False,,
,45.76799394,11.001151479999999,,,,,soccer,True,,grass
,45.7776198,11.106792780000001,,,,,soccer,,,
,46.07755784,11.136067700000002,,,,,tennis,,,
,46.08780328,11.134741700000001,,,,,soccer,,,
,45.86528086,11.02772014,,,,,basketball,,,
Prà dal Tor (campo da calcetto su erba),46.32083046,11.10483626,,,,,soccer,,,
,46.31527432,11.1188041,,,,,tennis,True,,paved
,46.08772562,11.06622914,,,,,volleyball,,,
,46.273937260000004,11.051226880000002,,,,,soccer,,,
,46.166262585714286,10.756114642857142,,,,,tennis,,,
,46.16571906,10.758371980000001,,,,,tennis,,,
,46.16615,10.759991979999999,,,,,tennis,,,
,46.155016200000006,10.759899666666668,,,,,tennis,True,,
,46.15482566,10.75949334,,,,,tennis,,,
,46.15493008,10.75967444,,,,,tennis,,,
centrale,46.154615899999996,10.759122020000001,,,,,tennis,,,
,45.9845311,11.26732948888889,,,,,soccer,True,,artificial_turf
Maso del Sole - maneggio,45.9790653,11.208394015384616,,,,,equestrian,,,
,46.00203774,11.22465306,,,,,soccer,,,
,46.26574598,11.80273842,,,,,tennis,,,
,46.04166782,11.037807019999999,,,,,tennis,,,
,45.993717860000004,11.260936419999998,,,,,soccer,,,
,46.05114827999999,11.25775318,,,,,soccer,,,
,46.06784656,11.15623098,,,,,tennis,,,
,46.05036942,11.150890480000001,,,,,tennis,,,
,45.877792937500004,10.8892978125,,,,,soccer,,,
,45.8763134,10.8699063,,,,,tennis,True,,artificial_turf
,46.208827740000004,11.095829380000001,,,,,soccer,,,
,45.86240266,10.57919788,,,,,volleyball,,,
,46.06320410000001,10.990695720000002,,,,,soccer,,,
,46.15104204000001,11.10480312,,,,,team_handball,,,
,45.78115638,10.94839172,,,,,soccer,,,grass
,45.782081520000006,10.94753814,,,,,soccer,,,grass
,45.78100078,10.947354899999999,,,,,tennis,,,
,45.78118542,10.942187559999999,,,,,tennis,,,
,45.78193879999999,10.9418866,,,,,tennis,,,
,46.21262360000001,11.114648120000002,,,,,soccer,,,
,45.92013814,11.0312445,,,,,soccer,,,asphalt
,45.92070102,11.03156784,,,,,soccer,,,
,45.95544778,11.2987611,,,,,tennis,,,concrete
,45.804660080000005,10.55131116,,,,,soccer,,,
,46.372909166666666,11.656614066666668,,,,,tennis,True,,
,46.06329649999999,11.135678919999998,,,,,basketball,,,
,46.21663852,11.12067638,,,,,volleyball,,,
,46.025868120000005,10.959317080000002,,,,,tennis,,,
,46.02606216666667,10.959438783333333,,,,,soccer,,,
Sanba Basketball outdoor court,46.04785244,11.132895099999999,,,,https://www.operauni.tn.it/cms-01.00/articolo.asp?IDcms=2978&s=122&l=,basketball,,,artificial_turf
,46.04768605999999,11.13274546,,,,,soccer,,,artificial_turf
,46.05966426,11.138643159999999,,,,,basketball,,,
,46.059831700000004,11.139068139999997,,,,,soccer,,,
,46.217280540000004,11.1205993,,,,,basketball,,,
,46.21696756,11.120576739999999,,,,,soccer,,,
,46.07075822,11.5121147,,,,,soccer,,,
,46.218193660000004,11.09385934,,,,,basketball,,,
campetto,46.2483334,11.17006404,,,,,soccer,,,
,46.081606811111115,11.101898944444445,,,,,soccer,,,
,46.36064122,10.944250760000001,,,,,tennis,True,,
,46.3280927,11.021848620000002,,,,,soccer,,,
,46.36254133999999,11.04171472,,,,,soccer,,,
,46.35204928,11.092531959999999,,,,,soccer,,,
,46.32311718,11.071606980000002,,,,,soccer,,,
,46.32351562,11.07132374,,,,,soccer,,,
,46.321621379999996,11.06558658,,,,,soccer,,,
,46.248668499999994,11.04592096,,,,,soccer,,,
,46.238124479999996,11.022340179999999,,,,,soccer,,,
,46.23758878,11.02236708,,,,,tamburello,,,
,46.28911378,11.02861776,,,,,tennis,,,
,46.28866318,11.02876986,,,,,tamburello,,,
,46.2678887,11.0262439,,,,,tennis,,,
,46.15933676,11.19166812,,,,,tennis,,,
,46.15915414,11.19192238,,,,,soccer,,,
,46.1541179,11.13667818,,,,,soccer,,,
,46.15978344,11.14336454,,,,,soccer,,,
Cortile Grumes,46.22121532,11.29409178,,,,,volleyball,,,
,46.19110812000001,11.259255659999999,,,,,soccer,,,
,46.18255284,11.25325936,,,,,soccer,,,
,46.07065206,10.90558326,,,,,basketball,,,
,46.073981249999996,10.998431266666666,,,,,tennis,True,,artificial_turf
,46.125425039999996,11.0929048,,,,,soccer,,,
,46.1429288,11.10862152,,,,,soccer,,,
,46.0390986,11.05852558,,,,,beachvolleyball,False,,sand
,46.03906500000001,11.058895119999999,,,,,beachvolleyball,,,sand
,46.00723852,11.129657419999997,,,,,basketball,,,concrete
,46.0071824,11.129031133333333,,,,,soccer,,,grass
,46.00697878,11.12876914,,,,,basketball,,,
,46.00692488000001,11.12944076,,,,,volleyball,,,artificial_turf
,46.16891036,11.088003039999998,,,,,tamburello,True,,
,46.41035374,11.14012246,,,,,tennis,,,
,46.40502516,11.1372631,,,,,tennis,,,
,46.410170879999995,11.140469079999999,,,,,tennis,,,
,46.42330778,11.1588356,,,,,soccer,,,
,46.40541888,11.13768752,,,,,soccer,,,
,46.423242779999995,11.079953139999999,,,,,soccer,,,
,46.40723781999999,11.139922620000002,,,,,soccer,,,
,46.404917919999995,11.137708159999999,,,,,tennis,,,
,46.40472878,11.13725226,,,,,tennis,,,
,46.43258762000001,11.1076511,,,,,volleyball,,,
,46.43216152000001,11.10707692,,,,,soccer,,,
,46.40465157999999,11.1375153,,,,,tennis,,,
,46.44087466,11.019209659999998,,,,,soccer,,,grass
,45.84989983,10.977635580000001,,,,,soccer,,,
,45.850084,10.9773343,,,,,basketball;volleyball,,,
,45.849673640000006,10.97789042,,,,,soccer,,,
,45.85438304,10.96754709,,,,,soccer,,,
,45.85510662,10.96875692,,,,,tennis,,,
,45.99589956,11.66851154,,,,,soccer,,,
,45.99662436,11.66905258,,,,,tennis,,,
,45.914842820000004,10.875006340000002,,,,,tennis,,,
,45.92689387142857,10.892729400000002,,,,,tennis,,,
,45.92470908,10.891295119999999,,,,,beachvolleyball,,,
,45.921909299999996,10.899581942857143,,,,,volleyball,,,
,46.37433356,11.06857162,,,,,soccer,,,
Area Verde,46.404464540000006,11.09537218,,,,,soccer,True,,grass_paver
,45.89692436,10.84703892,,,,,tennis,True,,asphalt
,45.89685958571429,10.847477342857145,,,,,basketball,True,,asphalt
,45.8965759,10.847535857142857,,,,,basketball,True,,artificial_turf
,46.377593839999996,11.10509372,,,,,volleyball,,,
,46.37780382,11.10475802,,,,,soccer,,,
,46.04580126,10.984409979999999,,,,,tennis,True,,artificial_turf
,46.046116139999995,10.98513564,,,,,soccer,True,,grass
,46.052251059999996,11.52224756,,,,,soccer,,,
,46.053156560000005,11.522770159999999,,,,,soccer,,,
,46.05282618571429,11.522294428571428,,,,,tennis,,,
,46.05281157142857,11.523058714285714,,,,,climbing,,,
,46.41882312,11.20461026,,,,,tennis,False,,clay
,46.31586436,11.11838906,,,,,soccer,True,,grass
,46.00456746,10.84087622,,,,,tennis,,,artificial_turf
,46.00261956000001,10.8437385,,,,,basketball,,,
,46.002486399999995,10.843654599999999,,,,,soccer,,,
,45.889256689999996,10.72860124,,,,,tennis,True,,clay
,46.08841812,11.133831840000001,,,,,basketball,True,,concrete
,46.13869784,11.11027902,,,,,soccer,,,
,46.07583406,11.14200956,,,,,volleyball,,,
,46.075855159999996,11.141858499999998,,,,,soccer,,,
,46.12090096,11.12061988,,,,,tennis,,,
,46.00548028,10.98488296,,,,,soccer,,,
,45.91864188,10.846480199999998,,,,,tennis,,,
,45.914238714285716,10.84357977142857,,,,,soccer,,,concrete
A.S.D. Comano Terme Fiavè,46.028408049999996,10.864194566666669,,+39 3389597329,,https://www.comanotermefiave.it/,soccer,True,,sintetic_grass
,46.02907384,10.86459696,,,,,soccer,,,
,46.03473984,10.89049912,,,,,soccer,,,
,46.07444384,11.251577639999999,,,,,soccer,,,
,46.05332808,11.114366880000002,,,,,soccer,,,
,46.15403952,11.09248014,,,,,soccer,,,
,46.10858613999999,11.141277800000001,,,,,soccer,,,
,46.128635783333344,11.11979735,,,,,soccer;basketball;volleyball,,,
,46.10551753333334,11.115281483333332,,,,,beachvolleyball,False,,sand
,46.198451950000006,11.2032393125,,,,,equestrian,,,
,46.07056396,11.059249900000001,,,,,volleyball,,,
,46.013900039999996,11.306202500000001,,,,,soccer,,,
,46.01460786,11.29560884,,,,,tennis,,,
,45.98784318,10.9473476,,,,,soccer,,,
,45.92185953333333,11.02139665,,,,,soccer,True,,grass
,45.8930482,10.86449626,,,,,table_tennis,,,
,45.893014933333326,10.864598950000001,,,,,boules,,,
Poligono di tiro di Strigno,46.06654005200001,11.531607472000001,,,,,shooting,,,
,46.066674139999996,11.530782680000002,,,,,soccer,,,
,45.8946294,10.59102992,,,,,tennis;soccer,,,
,45.89470917999999,10.58996618,,,,,bowls,,True,
Stadio Comunale Città di Arco,45.91495836,10.88744148,,,,,soccer,,,
,45.936494885714296,10.811731442857141,,,,,tennis,,,
,46.04174272,10.7317185,,,,,soccer,,,
,45.936569340000005,10.81196006,,,,,tennis,,,
Tennis,46.48513188,11.799174400000002,,,,,tennis,,,
,46.36589858,11.64832596,,,,,athletics,,,
,46.36646888888889,11.648297466666667,,,,,athletics,,,
,46.08733942,11.04411826,,,,,soccer,,,
,46.088672540000005,11.04555498,,,,,soccer,,,
,46.07712365,11.03227027,,,,,equestrian,,,
,46.18320494,11.026836980000002,,,,,soccer,,,
,46.3666675,10.936283040000001,,,,,soccer,,,
,46.16505536,11.002358660000002,,,,,tennis,,,
,46.16796452,11.003238620000001,,,,,soccer,,,
,46.0335245,10.73739516,,,,,soccer,,,
,46.00869031999999,11.640471980000001,,,,,soccer,,,grass
,45.98257066000001,11.5970489,,,,,soccer,False,,grass
,46.00762836,11.640613759999999,,,,,soccer,,,
,46.3471765,10.91700908,,,,,soccer,,,
,46.06423066,11.235975759999999,,,,,soccer;basketball,,,artificial_turf
,46.05581840000001,11.47044586,,,,,basketball,,,
,46.05045112,11.46936378,,,,,soccer,,,grass
,46.04101166,10.73127074,,,,,soccer,,,
Campo di Tamburello,46.290587939999995,10.97523322,,,,,tamburello,,,
,46.06514072,11.52353928,,,,,tennis,,,grass
,46.475579159999995,11.76761312,,,,,soccer,True,,artificial_turf
,46.475154511111114,11.7684104,,,,,tennis,True,,artificial_turf
Stadio del ghiaccio Gianmario Scola,46.462118933333336,11.784279422222221,,,,,ice_hockey,,,
,46.01547048,10.818231780000001,,,,,tamburello,,,
,46.33339694,10.885831540000002,,,,,soccer,,,
,45.8934412625,10.7196991625,,,,,tennis,True,,artificial_turf
,46.43747854,11.02954282,,,,,soccer,,,
,46.326313119999995,10.877277760000002,,,,,skateboard,,,
,46.35079542,10.91563356,,,,,soccer,,,
,46.33954506,10.908121040000001,,,,,tennis,,,
,46.33760564000001,10.904924040000001,,,,,soccer,,,
,45.88966711999999,10.599754879999999,,,,,soccer,,,
,46.04315338,11.553996380000001,,,,,boules,,True,
,46.057100399999996,10.79396582,,,,,soccer,,,
,45.86567121428572,10.80726197142857,,,,,soccer,,,
,45.90133670000001,10.7237888,,,,,soccer,,,
,45.95188258,10.6485132,,,,,volleyball,,,
,45.952121580000004,10.6487895,,,,,soccer,,,
,46.00577352,10.699695280000002,,,,,soccer,,,
,46.00562732000001,10.70019466,,,,,tennis,,,
,46.18625528,10.77679058,,,,,tennis,,,
,46.0747635,11.114809979999999,,,,,table_tennis,,,
,46.05130992000001,11.1263226,,,,,basketball,False,,clay
,45.94070034,10.64088046,,,,,tennis,,,
,46.04431796,11.55240134,,,,,soccer,,,
,45.75410264,10.999892840000001,,,,,volleyball,True,,paving_stones
,45.7542249,11.000112300000001,,,,,basketball,True,,asphalt
,45.73802136,10.946204839999998,,,,,basketball,,,
,45.740811528571435,10.961497842857142,,,,,soccer,,,
,45.74086304000001,10.96170708,,,,,tennis,,,
,45.740818020000006,10.96216608,,,,,tamburello,,,
,45.91557138,10.90337072,,,,,tennis,,,
,45.78702932,10.920468119999999,,,,,tennis,,,
,45.78793984000001,10.91921378,,,,,soccer,,,grass
,46.0613583,11.244193619999999,,,,,soccer,False,,artificial_turf
,46.16777509999999,11.11070312,,,,,soccer,,,
Campo da calcio di Fraveggio,46.07924174,10.99490854,,,,,soccer,,,grass
,46.180627,11.23678508,,,,,soccer,,,concrete
,46.24083676666667,11.325651066666666,,,,,soccer,,,
,45.928844500000004,11.249011600000001,,,,,soccer,,,
,45.92863028333333,11.24902725,,,,,tennis,,,
,45.9479085,11.256223080000002,,,,,tennis,,,
,45.94622222,11.263611700000002,,,,,tennis,,,
,45.9378009,11.27572296,,,,,tennis,,,
,46.283938539999994,11.48313724,,,,,equestrian,True,,sand
,46.28387636,11.482761200000002,,,,,soccer,True,,grass
,46.09830544,11.05400282,,,,,boules,True,,artificial_turf
,46.133955519999994,11.135372279999999,,,,,soccer,,,
Campo bocce Lundo,46.01263534,10.884941479999998,,,,,bowls,,,
,46.1225551,11.246088499999999,,,,,tennis,,,
,46.1434618,11.12754086,,,,,tennis,,,
,46.30516896,11.462482959999999,,,,,tennis,,,
,46.305307039999995,11.463042380000001,,,,,tennis,,,
,46.31569458,11.50302934,,,,,basketball,,,
,46.316034120000005,11.50292046,,,,,basketball,,,
,46.31551348,11.50308846,,,,,basketball,,,
,46.31586352,11.50298022,,,,,basketball,,,
,46.079444640000006,11.278006440000002,,,,,volleyball,,,
,46.0485021,11.123728459999999,,,,,basketball,True,,clay
,46.02950012000001,11.2568069,,,,,tennis,,,
,46.28990266,11.480094300000001,,,,,beachvolleyball,,,
,45.9855379,10.977192579999999,,,,,soccer,,,
,45.97842479999999,10.981416671428573,,,,,soccer,,,
,45.975283160000004,10.9796315,,,,,soccer,,,
Circolo Bocce,46.151240380000004,11.098602799999998,,,,,boules,,,
,46.167057039999996,10.75783126,,,,,beachvolleyball,,,
,46.16764152,10.752824720000001,,,,,soccer,,,
,45.846842280000004,10.561300339999999,,,,,soccer,,,
,45.88448856,11.06642558,,,,,basketball,,,
,45.901668359999995,11.051625780000002,,,,,tennis,,,
,45.887954216666664,10.957373150000002,,,,,tamburello,,,
,45.90051446,10.94316274,,,,,volleyball,,,
,45.888201820000006,10.95801134,,,,,tennis,,,
,45.78884242,10.91948838,,,,,tennis,,,
,45.89640758,11.01278984,,,,,basketball,,,
,46.00215148,11.086725339999997,,,,,boules,,True,
,45.84607826,10.95163822,,,,,soccer,True,,grass
,46.453183749999994,11.117231883333332,,,,,soccer,,,
,45.95738464285715,11.329542542857142,,,,,soccer,False,,grass
,46.07494736,11.46260956,,,,,tennis,,,
,46.075296300000005,11.46262534,,,,,soccer,,,
,46.0398997125,11.128974849999999,,,,,equestrian,False,,grass
,45.907268959999996,10.842409120000001,,,,,basketball,,,
,45.90738274,10.842053299999998,,,,,tennis,,,
,45.90919284,10.845745560000001,,,,,basketball,,,
,45.89856278,10.83163898,,,,,tennis,,,
,46.0252913,10.94250096,,,,,tennis,,,
,46.02535772,10.94160756,,,,,tennis,,,
,46.34631795999999,10.699640019999999,,,,,soccer,,,
,46.13715025999999,11.113090620000001,,,,,basketball,False,,asphalt
,46.06117086,11.11941626,,,,,table_tennis,,,
,46.2613971,11.794514760000002,,,,,tennis,,,
,46.007276940000004,11.41396494,,,,,tennis,,,clay
,46.15235368,10.9630401,,,,,bowls,,,
Forest Park,46.1526076875,10.963743749999999,10:00-17:30,"+39 0461 586978, +39 334 1624948",info@forestpark.it,http://www.forestpark.it/,climbing,,,
,45.76731672500001,10.999729174999999,,,,,skateboard,True,,concrete
,46.014797959999996,10.8173726,,,,,soccer,,,
,46.47949680000001,11.764830100000001,,,,,tennis,True,,artificial_turf
,46.475823919999996,11.744156579999999,,,,,futsal,,,artificial_turf
,45.88266367,10.85031596,,,,,soccer,True,,artificial_turf
Campo sportivo Oratorio Castello Tesino,46.06245702,11.63292922,,,,,soccer,True,,grass
,45.96863806,11.220483760000002,,,,,table_tennis,,,
,45.96875428,11.22064462,,,,,beachvolleyball,,,sand
,46.193486740000004,11.9434147,,,,,soccer,,,
,46.06746368,11.60278018,,,,,tennis,,,
,46.34060133333333,11.578934033333333,,,,,beach_volley,,,
,46.15094424,11.097669020000001,,,,,volleyball,,,
,45.929343720000006,10.63543602,,,,,soccer,,,
,46.282524620000004,11.43959376,,,,,tennis,,,
,46.28234578,11.44003254,,,,,soccer,,,
,46.06911412000001,11.586543299999999,,,,,tennis,,,
,46.28590004,11.462410400000001,,,,,tennis,True,,clay
,46.28585742,11.46189252,,,,,tennis,True,,clay
,46.28591454,11.4621514,,,,,tennis,True,,clay
campo da tennis,46.06185046,11.63081556,,,,,tennis,True,,artificial_turf
campo da bocce,46.06142202,11.6313095,,,,,bowls,,,sand
campetto,46.05783196,11.629292719999999,,,,,soccer,True,,artificial_turf
,46.04560005999999,11.42079382,,,,,soccer,,,
,46.26118576666667,11.801858183333335,,,,,tennis,,,
,46.26103461666667,11.802185399999999,,,,,tennis,,,
,46.053106899999996,11.460135728571428,,,,,soccer,,,
,46.01618588,11.29845328,,,,,soccer,,,
,45.99348566,11.32052322,,,,,tennis,,,
,45.99022554285715,11.315249557142854,,,,,soccer,,,
,45.92261638,11.00754154,,,,,soccer,False,,
,45.92276174,11.00770962,,,,,volleyball,,,
,45.932453540000004,11.173739559999998,,,,,free_flying,,,
,45.881931683333335,10.850004783333333,,,,,basketball,True,,concrete
,46.04928362,11.405374,,,,,soccer,,,
,46.0498648,11.40853288,,,,,tennis,,,
Compagnia Arcieri Altopiano di Pinè,46.127053620000005,11.252343800000002,,,,,archery,False,,
Decollo VoloLiberoTrentino,46.0417167,11.316944366666668,,,,,free_flying,,,
Crossodromo Il Ciclamino,46.01093974487179,10.93363184871795,,,,,motocross,,,
,46.04727432,10.95031986,,,,,soccer,,,
,45.93484479999999,11.26387558,,,,,equestrian,,,
,45.93992412,11.2510151,,,,,volleyball,False,,sett
,45.93920204,11.262799939999999,,,,,archery,,,
Campo di calcio della parrocchia di Canale,46.042119279999994,11.22863842,,,,,soccer,True,,dirt
,46.4367091,11.2154325,,,,,tennis,False,,clay
,46.047458340000006,10.984969979999999,,,,,soccer,,,grass
Ice Stadium,45.975629899999994,10.549260471428571,,,,www.daoneicemaster.it,climbing,,,
,45.83052784,10.54039776,,,,,tennis,,,
,46.12867304,11.35323986,,,,,soccer,,,
,46.056482450000004,11.454178233333336,,,,,tennis,,,
,46.04617878,11.420752940000002,,,,,tennis,,,
,45.886120162500006,10.7331381125,,,,,soccer,False,,grass
,45.9196976,11.189813519999998,,,,,tennis,False,,clay
Campo da Pallavolo,45.73986610000001,11.064862299999998,,,,,volleyball,False,,asphalt
Campo da Basket,45.73846336,11.06569794,,,,,basketball,True,,asphalt
,46.285042139999995,11.53807842,,,,,tennis,,,
,46.28515914,11.551068859999999,,,,,soccer,,,
,46.0927345125,11.055357762500002,,,,,tennis,False,,
,46.093484700000005,11.05669066,,,,,tennis,False,,ground
,46.0949179,11.04390482,,,,,volleyball,,,
,46.0955153,11.047696980000001,,,,,soccer,False,,grass
Campo da calcio di Lon,46.08651188,10.99131352,,,,,soccer,True,,grass
,46.37306661666667,11.656329333333334,,,,,soccer,True,,
,46.23685286,11.02994676,,,,,volleyball,,,
campo da basket Luigi Einaudi,46.052835019999996,11.125922699999998,,,,,basketball,,,
,46.08562804,11.12135556,,,,,soccer,,,
,46.068415879999996,11.24514598,,,,,volleyball,,,
,46.052334120000005,11.45322626,,,,,boules,,,
,46.09037482000001,11.18196408,,,,,soccer,,,
Campo di bocce,46.061853559999996,10.99102366,,,,,bowls,,,
Pian del Gac - campo di aeromodellismo,46.13819494117647,11.208730605882353,,,,https://www.gatrentino.it/,model_aerodrome,,,
Campo volo margone,46.0672263,10.964885720000002,,,,https://www.gatrentino.it/,model_aerodrome,,,
,46.07001845999999,11.18588666,,,,,basketball,,,
,46.070016499999994,11.185466120000001,,,,,tennis,,,
,46.0700308,11.18489114,,,,,soccer,,,
,46.052211240000005,11.45685396,,,,,basketball,,,paved
,46.072468799999996,11.134831959999998,,,,,volleyball,False,,sand
,46.00428128,11.2643165,,,,,tennis,,,
,46.001212419999995,11.259742919999999,,,,,tennis,,,
,46.006491860000004,11.2668116,,,,,beachvolleyball,,,sand
,46.005622200000005,11.265664160000002,,,,,soccer,False,,grass
,46.00540738,11.2650659,,,,,soccer,False,,grass
,46.004362040000004,11.26185532,,,,,beachvolleyball,True,,sand
,46.004137220000004,11.26196204,,,,,soccer,True,,sand
,46.00125648000001,11.2540458,,,,,soccer,,,
,46.112266600000005,11.2338816,,,,,tennis,,,
,46.106373,11.303082459999999,,,,,soccer,,,dirt
,46.07108378,11.162456939999998,,,,,soccer,False,,grass
,46.07141674,11.16235198,,,,,volleyball,,,grass
,46.07216912,11.16242616,,,,,basketball,,,asphalt
,45.88156076,10.9012624,,,,,tennis,,,
,46.36830786,11.033065679999998,,,,,soccer,,,artificial_turf
,46.34396014,11.121058080000001,,,,,soccer,,,
,46.100729040000004,11.10900658,,,,,beachvolleyball,,,sand
,46.1332964,11.257452760000001,,,,,tennis,,,
,45.892204719999995,10.84930962,,,,,basketball,,,
,45.91207016,10.81760314,,,,,soccer,,,
,45.704703540000004,10.936743340000001,,,,,tennis,,,
,45.705528019999996,10.92013264,,,,,tennis,,,
,45.70169394,10.929362719999999,,,,,soccer,,,
,45.893032219999995,10.71941812,,,,,volleyball,False,,artificial_turf
,46.3121942,11.60037878,,,,,basketball,,,
,46.312256999999995,11.600615883333333,,,,,soccer,,,
,46.3119939111111,11.600337133333333,,,,,soccer,,,
,46.29957028333334,11.598344658333332,,,,,equestrian,,,
,46.30752582,11.60243194,,,,,tennis,,,
,46.30727016666666,11.602598283333334,,,,,tennis,,,
,46.36607914,11.036479759999999,,,,,soccer,,,
,45.91405227142858,10.885969342857141,,,,,basketball,True,,concrete
,45.913850659999994,10.88586264,,,,,soccer,True,,artificial_turf
,45.913916240000006,10.886301,,,,,volleyball,True,,artificial_turf
,45.88156064,11.0509266,,,,,tennis,,,
Campetto dell'oratorio,45.75544264,11.00487396,,,,,soccer,True,,grass
,45.96930688,10.9208143,,,,,tennis,,,
,46.04899015000001,11.4681071,,,,,soccer,,,grass
,46.07086704,11.511439059999999,,,,,boules,,,
,46.070878719999996,11.511389820000002,,,,,boules,,,
,46.17240746,11.07407616,,,,,basketball,,,
,46.17364464,11.07379984,,,,,soccer,,,
,46.17350168,11.07410038,,,,,beachvolleyball,,,
,46.173518060000006,11.06836358,,,,,soccer,,,
,45.970579699999995,11.095902339999999,,,,,soccer,,,
,45.970489979999996,11.0942133,,,,,basketball,,,
,45.94424306,11.24786154,,,,,soccer,False,,grass
,46.07220099999999,11.13481008,,,,,basketball,False,,concrete
,46.30537107999999,10.73691054,,,,,beachvolleyball,,,
,46.19727274,11.1319602,,,,,soccer,,,
,46.33132226666667,11.004009080000001,,,,,equestrian,,,grass
,46.33113397999999,11.00414154,,,,,equestrian,,,grass
,46.31475424,11.04947816,,,,,soccer,,,
,46.44061276,11.01882874,,,,,soccer,,,grass
,46.043628,11.121265659999997,,,,,volleyball,,,
,46.248668280000004,11.06915278,,,,,volleyball,,,asphalt
,46.01971725999999,11.10558568,,,,,basketball,,,
,45.73362896,10.93919922,,,,,soccer,True,,grass
,45.738264120000004,10.94681956,,,,,soccer,,,
,45.92217726,11.3213851,,,,,soccer,,,
,45.933753859999996,11.27540822,,,,,volleyball,False,,grass
,45.954606580000004,11.297865980000001,,,,,soccer,,,
,45.92235144,11.321648960000001,,,,,volleyball,,,
,45.97046134,11.23362692,,,,,soccer,False,,grass
Stadio comunale,46.153050699999994,10.759026655555557,,,,,soccer,,,
,46.38125634000001,11.67199426,,,,,soccer,,,
,46.08360706,11.526896559999999,,,,,soccer,,,
,46.310014720000005,11.661220060000002,,,,,tennis,False,,asphalt
,46.310391800000005,11.66148542,,,,,basketball,False,,asphalt
,46.16369204,11.305627220000002,,,,,soccer,True,,sand
,46.15433162,11.137132900000001,,,,,boules,,,
,46.1433694,11.12689796,,,,,soccer,,,
,46.29792034,11.0250431,,,,,tennis,,,
,46.29774554,11.025122839999998,,,,,tennis,,,
,46.143076619999995,11.18548172,,,,,soccer,,,
,46.04898112,10.853789019999999,,,,,beachvolleyball,,,sand
,46.049395360000005,10.855766939999999,,,,,tennis,,,
,46.03892768,10.866395180000001,,,,,tennis,,,clay
,46.153837980000006,11.81106414,,,,,soccer,False,,grass
,46.36493118,11.099550400000002,,,,,equestrian,,,
,46.3645193,11.09903366,,,,,equestrian,,,
,46.36386528,11.098689259999999,,,,,boules,,,
,46.43706494,11.215982579999999,,,,,basketball,True,,asphalt
,45.86858013999999,11.0277253,,,,,soccer,,,
,46.15820126,11.74047496,,,,,tennis,,,
Sporting Center,46.31088185333333,11.608132173333335,,,,,tennis,,,
Minigolf Predazzo,46.31093251666667,11.616084316666667,,,,,golf,,,
,45.890667712500004,10.691271587500001,,,,,soccer,,,
,45.88492548333334,10.670183966666668,,,,,tennis,,,
,46.15449855999999,10.759744399999999,,,,,beachvolleyball,True,,sand
,46.156226280000006,10.75602838,,,,,soccer,True,,artificial_turf
,46.15657414,10.755774899999999,,,,,basketball,True,,tartan
,45.86588571428571,10.744994557142856,,,,,tennis,False,,clay
,46.05758316,11.131012160000001,,,,,tennis,,,
,46.05732938,11.131131,,,,,soccer,,,
,45.870386611111115,10.774579855555555,,,,,tennis;basketball;volleyball,False,,
,46.06998675999999,10.74516474,,,,,soccer,,,
,46.04450486,10.753531419999998,,,,,soccer,False,,grass
,46.0619151,11.10880866,,,,,basketball,,,
,46.06175294,11.10865608,,,,,volleyball,,,
,46.30794603333334,10.763916133333332,,,,,ski_jumping,,,
,46.30781105555556,10.763834322222221,,,,,ski_jumping,,,
campo calcetto/tennis,46.407638979999994,10.814156739999998,,,,,soccer,,,
,46.0157794,10.81633572,,,,,beachvolleyball,,,sand
,46.0158697,10.81814146,,,,,soccer,,,
,46.014755060000006,10.820485520000002,,,,,boules,,,
,46.195737120000004,11.67917254,,,,,basketball,,,
,46.19603452,11.677311839999998,,,,,soccer,,,
Maneggio Dallapiccola,46.14636603846155,11.268553765384619,,,,,equestrian,,,
,45.99056301428572,11.238539228571426,,,,,equestrian,,,
,45.98481516,11.237522160000001,,,,,basketball,,,asphalt
Hot tub,46.289075579999995,11.4667794,,,,,swimming,,,
,45.87749753333333,11.034030116666665,,,,,basketball,True,,paved
,45.87736978,11.033618999999998,,,,,table_tennis,False,,
,45.919059860000004,11.0652082,,,,,tennis,,,
,45.919184,11.06539578,,,,,tennis,,,
,45.75818686,10.996310339999999,,,,,tennis,,,
Campo Sant'Agnese,46.106561150000005,11.184444749999999,,,,,soccer,True,,artificial_turf
,46.04106048,11.460089,,,,,soccer,,,
,45.90850138333334,11.132527533333333,,,,,soccer,,,grass
,46.1716981,11.00402016,,,,,beachvolleyball,,,sand
,46.120308699999995,11.212521079999998,,,,,basketball,,,
Campo da beach,46.14998859999999,11.27674462,,,,,beachvolleyball,,,sand
,46.06700784,11.15396672,,,,,volleyball,False,,asphalt
,45.895390260000006,11.087426180000001,,,,,boules,,,
,45.94353198,10.632424499999999,,,,,handball,,,
Skate Park,46.1568829375,10.755580175,,,,,skateboard,True,,
,46.473806100000004,11.143246299999998,,,,,soccer,,,
,46.05815465,11.531839616666668,,,,,soccer,,,
,45.91522111250001,10.8836358,,,,,soccer,,,
,46.454467179999995,11.11190272,,,,,soccer,,,
,46.458676860000004,11.1316471,,,,,soccer,,,
,46.04116488000001,10.87663278,,,,,volleyball;basket,,,
,46.001577829999995,11.086383435000002,,,,,basketball,,,
,46.15551388,11.73304252,,,,,soccer,True,,asphalt
,45.91979102,10.86668988,,,,,soccer,,,
,46.06716762,11.11953084,,,,,soccer,,,
,45.90807588571429,10.84733892857143,,,,,tennis,,,
,45.87572376,10.89745764,,,,,soccer,,,
,45.993907060000005,11.261740020000001,,,,,tennis,,,
,45.9938483,11.261612159999999,,,,,tennis,,,
,46.05154846,11.1436941,,,,,volleyball,,,concrete
Euromix Motors - Off-road Experience,46.2678662125,11.027171212499999,,,,,motor,,,
Crossodromo di Coredo,46.354377775,11.07771396875,,,,,motor,,,
,46.11417298333333,11.182073483333335,,,,,soccer,True,,grass
,46.094966119999995,11.11818714,,,,,volleyball,True,,artificial_turf
,46.0374302,10.875092519999999,,,,,tennis,True,,
,46.12058288,11.09151686,,,,,volleyball,,,
,46.12073702,11.09181224,,,,,soccer,,,
,46.04201552000001,11.226764079999999,,,,,soccer,True,,tartan
Palestra San Giovanni Bosco,45.89405203333333,11.041873888888889,,,,,gymnastics;climbing,,,
,46.191885459999995,11.827408020000002,,,,,soccer,,,
,46.362032060000004,10.668716459999999,,,,,soccer,,,grass
,46.03585525999999,10.7448373,,,,,soccer,,,
,46.104253379999996,10.740531480000001,,,,,bowls,,,
,46.10423224,10.74061868,,,,,bowls,,,
,46.10387272,10.74030494,,,,,volleyball,,,
,46.10332602857142,10.741538471428571,,,,,soccer,,,
,46.05648212,10.749897120000002,,,,,volleyball,,,
,46.08962689999999,11.066274266666667,,,,,basketball,True,,asphalt
,46.0901925,11.10706026,,,,,soccer,,,
,46.09844,11.11428136,,,,,chess,,,
,45.91961036666666,10.892750591666667,,,,,soccer,,,
,46.029076880000005,11.39068172,,,,,tennis,,,
,45.986522459999996,11.668178180000002,,,,,soccer,,,
,46.136391880000005,10.77081892,,,,,soccer,,,
,45.782981719999995,11.025575320000002,,,,,soccer,,,
,46.09377828,11.19716742,,,,,soccer,,,
,46.3429437,11.10632842,,,,,soccer,,,
,46.40469545999999,11.137710760000001,,,,,tennis,,,
,46.32947083333334,10.885549022222223,,,,,equestrian,,,
,45.81983266,10.97051858,,,,,soccer,True,,concrete
,45.8197392125,10.9695979875,,,,,soccer,True,,grass
,46.19154046,10.7938951,,,,,soccer,,,
,46.405451119999995,11.14252418,,,,,basketball,,,
,46.33990554,10.90841152,,,,,beachvolleyball,,,
,46.33976594999999,10.908349866666667,,,,,beachvolleyball,,,
,46.31294628,10.78477724,,,,,equestrian,,,
,46.063357,11.2500051,,,,,beachvolleyball,,,sand
,46.067626419999996,11.24644136,,,,,boules,,,
,45.92674706,11.044478340000001,,,,,soccer,,,grass
,46.04105976,10.8759762,,,,,boules,,,
,46.04100016,10.87598042,,,,,boules,,,
,46.03748046,10.8747075,,,,,beachvolleyball,True,,sand
,46.06504474,11.52314368,,,,,soccer,,,
,46.02233016,10.94709406,,,,,soccer,False,,grass
,46.15643244,10.75668622,,,,,beachvolleyball,False,,sand
,46.02844588,10.82454692,,,,,soccer,,,
,46.157007920000005,10.756122340000001,,,,,soccer,False,,grass
,46.01652122,10.815415580000002,,,,,soccer,,,
,46.163662179999996,10.75932156,,,,,skateboard,,,
,46.1488543,10.766675359999999,,,,,basketball,,,
,46.12490785999999,10.81432348,,,,,soccer,,,
,46.12515302,10.81409198,,,,,volleyball,,,
Climbing Stadium Arco Rock,45.92337547333333,10.89074204,,,,https://www.mountime.com/en/climbing-stadium-arco-rock-master.html,climbing,,,
,46.31940784,10.863497460000001,,,,,tennis,,,
,46.35361168,10.668462960000001,,,,,basketball,,,
Campo da calcio,46.38951822,11.13524788,,,,,soccer,,,
,46.326920939999994,10.8819123,,,,,soccer,True,,grass
,46.0091114,11.134672259999999,,,,,tennis;futsal,,True,
,46.36989102,10.88463852,,,,,soccer,,,
,46.42018083999999,11.188788579999999,,,,,soccer,,,
,46.4113681,11.18489414,,,,,equestrian,,,
,46.00508992,11.336166219999999,,,,,soccer,,,
,46.06305992,10.713705299999999,,,,,beachvolleyball,,,
,46.06280444,10.71373462,,,,,basketball,,,
,46.06331778,10.71343026,,,,,soccer,,,
,46.076532,10.724755720000001,,,,,beachvolleyball,,,sand
,46.0681339,11.12847096,,,,,beachvolleyball,True,,sand
,45.87618836,10.9918941,,,,,soccer,True,,artificial_turf
,45.92748926,11.05034768,,,,,tennis,,,
,46.40938608571429,11.132115742857142,,,,,equestrian,,,
,46.00839836,11.13005652,,,,,tennis,,,
,46.00833516,11.13027588,,,,,soccer,,,
,46.009243219999995,11.1349347,,,,,beachvolleyball,,,sand
,46.2969721,10.8137736,,,,,tennis,,,
,46.32922887777778,11.602809366666667,,,,,ski_jumping,,,artificial_turf
,46.32920508,11.60270739,,,,,ski_jumping,,,artificial_turf
,46.32908296666667,11.602626688888888,,,,,ski_jumping,,,artificial_turf
,46.00886852,11.13464202,,,,,tennis,,,
Poligono di tiro,46.28089526,11.523957159999998,,,,,shooting,,,
,46.2841688,11.452077580000001,,,,,soccer,,,grass
,46.2840499,11.45086722,,,,,soccer,,,grass
,46.30108534,11.59943432,,,,,soccer,,,grass
Campo polivalente,46.124953500000004,11.116690371428572,,,,,basketball;volleyball,,,acrylic
,46.14032032,11.113575599999999,,,,,tennis,,,
,46.4629329,11.78218904,,,,,tennis,,,
Bocciodromo,45.88984179,11.03612747,,,,,boules,,,
,45.89153808,11.03827488,,,,,basketball,,,concrete
,45.918154483333325,11.020381900000002,,,,,basketball,,,asphalt
,46.2201727,11.046685966666667,,,,,tennis;volleyball,,,asphalt
,46.4622394375,11.7181212375,,,,,equestrian,,,
,45.880677860000006,10.8534391,,,,,soccer,,,
,46.05665549999999,11.12189962,,,,,beachvolleyball,,,sand
,46.07067619090909,11.485692181818182,,,,,tennis,,,
,45.96200926666666,10.909691883333332,,,,,basketball,,,
,46.10758898571429,11.110979014285714,,,,,soccer,False,,artificial_turf
,45.90789368000001,11.01234198,,,,,soccer,,,
,46.0901485,11.118697780000002,,,,,table_tennis,True,,
Campo sportivo sintetico di San Martino,46.2618444,11.796779520000001,,,,,soccer,,,artificial_turf
,45.83478865,10.956590633333334,,,,,soccer,,,
,46.33620952,11.05016142,,,,,soccer,,,
,46.30931106,10.764626620000001,,,,,beachvolleyball,,,
,46.3084541,10.76428492,,,,,skateboard,,,
,46.07858589999999,11.0011843,,,,,soccer,False,,artificial_turf
,45.853954800000004,10.981328126315791,,,,,skateboard,True,,concrete
,46.37297028333334,11.656808966666667,,,,,tennis,,,
,45.88551036666667,10.67036772,,,,,soccer,,,
,45.89494989090909,10.683191481818183,,,,,soccer,,,
,45.89514703,10.68232771,,,,,tennis,,,
,45.889457140000005,11.011772639999998,,,,,volleyball,,,artificial_turf
,45.93399678181818,11.275120809090907,,,,,skateboard,False,,asphalt
,46.016760219999995,11.2906771,,,,,tennis,,False,
,46.0170292,11.29029768,,,,,tennis,,,
,46.0167192,11.29020106,,,,,tennis,,True,
,46.27720488,11.078135519999998,,,,,soccer;volleyball,,,
,46.359387219999995,11.03181184,,,,,soccer,True,,concrete
,46.36522720000001,11.02994128,,,,,basketball,,,
,46.3650945,11.02997736,,,,,soccer,,,
,46.04286123999999,11.13175394,,,,,basketball,True,,concrete
,46.04315595999999,11.13161802,,,,,beachvolleyball,True,,sand
,46.3487206,11.019368459999999,,,,,soccer,,,
,46.216954699999995,11.09441354,,,,,tennis,,,
,46.04832952,11.11809182,,,,,soccer,,,ground
"Circolo Tennis ""Umberto Grillo"" Le Arcade",46.0521287,11.1205047875,,,,,tennis,,,
,46.079817479999996,11.26311186,,,,,tennis,,,
,46.173713140000004,11.219266580000001,,,,,soccer,,,
,46.431379199999995,11.685684499999999,,,,,tennis,,,
,46.429092559999994,11.68766952,,,,,soccer,True,,artificial_turf
,46.31265302,11.66597378,,,,,basketball,,,
,46.31293644,11.667078360000001,,,,,tennis,,,
,46.17336028,11.83153608,,,,,tennis,,,
,46.222814420000006,10.82770448,,,,,soccer,True,,artificial_turf
,46.059291859999995,11.615271320000002,,,,,soccer,,,
,45.91911558333333,10.831293816666667,,,,,basketball,,,
,45.866725179999996,10.787710999999998,,,,,soccer,,,artificial_turf
,45.90042906666667,10.945092866666668,,,,,equestrian,,,
,45.862710119999996,11.086113600000001,,,,,soccer,,,
,45.86775516,11.074183019999998,,,,,basketball,,,
,46.07652066,10.725302180000002,,,,,soccer,,,
,45.840907959999996,11.06324322,,,,,soccer,,,
,46.03885552,11.128845819999999,,,,,beachvolleyball,False,,sand
Campo Padel,46.15440194,10.75957644,,,,,padel,,,
,45.88485033333333,10.861306999999998,,,,,tennis,True,,concrete
,45.88466665714286,10.860669142857144,,,,,boules,True,,concrete
,45.88797828999999,10.863441360000001,,,,,basketball,True,,concrete
,46.172387414999996,11.003987415000001,,,,,equestrian,,,
,45.89372241428572,10.842189342857141,,,,,soccer,True,,artificial_turf
,45.89040782499999,10.843981783333334,,,,,soccer,True,,artificial_turf
,45.88996595555555,10.843733244444444,,,,,basketball,True,,artificial_turf
,45.89014706,10.84385372,,,,,volleyball,True,,artificial_turf
,45.88954965833333,10.843398833333334,,,,,soccer,True,,artificial_turf
,45.8820649,10.851825189999998,,,,,tennis,,,
,45.89317518,10.8447858,,,,,tennis,,,
,45.8931298,10.845086229999998,,,,,tennis,,,
,45.999952900000004,10.695454119999999,,,,,soccer,,,
,45.9647886,10.809569483333334,,,,,soccer,,,grass
,45.96287668,10.81475012,,,,,soccer,False,,grass
,45.922431191666675,10.890656591666668,,,,,basketball,True,,concrete
,45.916711320000005,10.887926760000001,,,,,chess,,,
,45.91547292,10.886458300000001,,,,,tennis,,,
,45.915290971428576,10.886365657142857,,,,,tennis,,,
,45.91487166,10.886097560000001,,,,,tennis,,,
,45.9150324125,10.8862484625,,,,,tennis,,,
,45.933268000000005,10.87053778,,,,,soccer,,,
,46.0109427,11.28753604,,,,,basketball,,,
,46.010905720000004,11.287188679999998,,,,,beachvolleyball,,,sand
,45.9173288,11.02953586,,,,,tennis,,,
,45.9172688,11.02933506,,,,,tennis,,,
,46.05284326,11.460555,,,,,volleyball,,,
,46.05280712,11.460113139999999,,,,,beachvolleyball,,,sand
,46.038818060000004,11.23743302,,,,,beachvolleyball;volleyball,False,False,sand
,46.07643972,10.72470632,,,,,boules,,,
Circolo Tennis Baldresca,45.8808886,11.030255319999998,,,,,tennis,,,
Circolo tennis Baldresca,45.880323265753425,11.029755869863015,,,,,tennis,,,
,45.8800875,11.02996852,,,,,tennis,,,
,45.88041478,11.03036028,,,,,tennis,,,
Tiro a segno nazionale,45.88229250434783,11.029135265217391,,,,https://www.tsnrovereto.it/,shooting,,,
Centro Natatorio Comunale,45.88433540952381,11.034699819047619,,,,,swimming,,,
,46.2736751,11.051247040000002,,,,,tennis,,,
,46.08855604,11.06915614,,,,,basketball,,,
,46.08876805999999,11.06859942,,,,,soccer,,,
,46.065549525,11.1019367875,,,,,soccer,,,
,46.35156766,10.695606340000001,,,,,football,,,
,45.920159459999994,11.0315138,,,,,basketball,,,asphalt
,45.988851,11.301757814285713,,,,,karting,True,,
,45.889208700000005,10.7288864,,,,,tennis,True,,grass
,45.904177739999994,10.72912392,,,,,soccer,,,
,45.90439814,10.729115920000002,,,,,volleyball,,,
,45.917316420000006,10.73045754,,,,,soccer,,,
,46.09014128333333,11.113787166666667,,,,,volleyball,,,
,46.2409114,11.325640880000002,,,,,soccer,,,
,46.039288240000005,11.128662579999999,,,,,basketball,False,,clay
,46.290015319999995,11.48007682,,,,,five-a-side,,,grass
,46.095907625,11.04602391,,,,,basketball,False,,concrete
,46.16299951999999,11.303357940000001,,,,,tennis,,,tartan
,46.162917900000004,11.30321258,,,,,soccer,,,artificial_turf
,46.42391,11.158907,,,,,soccer,,,
,46.37294534000001,11.656086980000001,,,,,beachvolleyball,,,sand
,45.93400921428571,10.888152442857145,,,,,equestrian,,,
Skate Park Ceniga,45.9483077875,10.902072350000001,,,,,skateboard,True,,asphalt
,45.95070452857142,10.902699357142856,,,,,soccer,,,
,45.784023399999995,10.9398154,,,,,tennis,,,
,45.7840823,10.9394332,,,,,boules,,,
,46.128126040000005,11.24325684,,,,,soccer;basketball,False,,artificial_turf
,45.86516826,10.88171872,,,,,boules,True,,concrete
,45.91231722857143,11.043164714285714,,,,,soccer;running,,,grass
,45.9121752,11.042694333333332,,,,,basketball,,,asphalt
,45.693377860000005,10.97666628,,,,,basketball;volleyball,True,,clay
,45.88917112,11.039305679999998,,,,,soccer,True,,artificial_turf
,46.0178091,11.360137560000002,,,,,soccer,,,
,46.1970845,11.866190499999998,,,,,tennis,,,
,46.43175153999999,11.15008868,,,,,boules,,,
Piscina Comunale di Predazzo,46.31069492727273,11.617545436363637,,,,,swimming,,,
,45.950203640000005,11.26453918,,,,,cycling,,,asphalt
"Campo da calcio ""O. Mantovan""",46.00784200769231,11.129202069230768,,,,,soccer,,,
,45.90469084,11.043481640000001,,,,,tennis,,,
,46.16345356,11.09110424,,,,,equestrian,,,
,45.81907538888889,10.956759222222223,,,,,soccer,,,
,45.788041639999996,10.91780732,,,,,tennis,,,
Campo atletica Masen,46.17301990869565,11.16675762173913,,,,,athletics,True,,
,45.89619798,11.01270772,,,,,soccer,,,
,46.06012298,11.13916876,,,,,volleyball,,,
,46.08511085,11.1568132,,,,,soccer,,,
,46.083217059999996,11.154866140000001,,,,,beachvolleyball,,,sand
,46.01653658,11.102729539999999,,,,,tennis,,,
,46.28342156,11.51515128,,,,,soccer,True,,
,46.1430682,11.10860438,,,,,volleyball,,,
,46.19260592,11.94266518,,,,,climbing,,,
,46.173482979999996,11.828024160000002,,,,,boules,,,
,46.17343792,11.82875768,,,,,beachvolleyball,,,sand
,45.901130460000005,10.86972418,,,,,soccer,,,
,45.90059147142857,10.869568771428572,,,,,boules,,,
,45.88406984285715,10.864895014285716,,,,,tennis,True,,clay
,45.88393096363636,10.865086509090908,,,,,tennis,True,,clay
,45.88336858,10.8647974,,,,,tennis,True,,clay
,45.88584960000001,10.86001164,,,,,table_tennis,,,
,46.457073460000004,11.804421880000001,,,,,soccer,,,
,45.88216532,10.85888402,,,,,tennis,,,
,45.88207414,10.8591556,,,,,tennis,,,
A.S.D. Arcieri Virtus,45.90584017000001,10.864769729999999,,,,,archery,,,
,45.901898475,10.8447696,,,,,soccer,,,
,46.150785400000004,11.27382528,,,,,beachvolleyball,,,sand
,46.1131418,11.618174960000001,,,,,volleyball,,,
,45.898206357142854,10.844627442857142,,,,,basketball,,,
Centro sportivo Cesare Malossini,45.89825108653846,10.845008071153849,,,,,soccer;baseball;skateboard,,,
,45.8808474,10.752156575,,,,,basketball,,,
Skate park Predazzo,46.3019036,11.59942458,,,,,skateboard,,,
,46.22838556000001,10.827719239999999,,,,,tennis,True,,compacted
,45.69486259,10.975268629999999,,,,,roller_skating,,,concrete
,45.734046219999996,10.93960754,,,,,beachvolleyball,False,,sand
,45.7343343,10.939894040000002,,,,,basketball,,,asphalt
,45.88910282,10.66931876,,,,,soccer,,,
Trento Padel,46.11382759999999,11.106018184615383,Mo-Su 08:00-23:30,,,,padel,,,
,46.17372686,11.830807919999998,,,,,basketball,,,
,46.14890808,11.79676252,,,,,tennis,,,
,46.15116874645668,11.802319362992126,,,,,soccer,,,
,46.02313639999999,10.864334359999999,,,,,boules,False,,
,46.1105726,11.16994428,,,,,soccer,,,
,46.14836226,11.79642738,,,,,basketball,,,
,46.15641173999999,11.808762300000001,,,,,basketball,,,
,46.16379472857143,11.81826112857143,,,,,basketball,,,asphalt
,46.163767663636364,11.818619227272729,,,,,soccer,,,asphalt
,46.1634614,11.818339479999999,,,,,volleyball,,,
,46.163238,11.81740584,,,,,soccer,False,,grass
,46.354101660000005,10.66613714,,,,,boules,True,,artificial_turf
,46.09684134,11.11661168,,,,,table_tennis,,,
,46.10045422,11.11641406,,,,,table_tennis,,,
,46.10318532,11.11631814,,,,,table_tennis,,,
,46.10088652,11.1091189,,,,,chess,,,
,45.756221159999996,11.003226020000001,,,,,basketball,,,concrete
,46.09683824,11.11644648,,,,,table_tennis,,,
,45.76024099999999,10.99975526,,,,,soccer,,,
,46.10908124,11.11062296,,,,,boules,,,clay
,45.86961143333334,10.939795433333332,,,,,basketball,,,asphalt
,46.06121802,11.119883439999999,,,,,volleyball,,,
,46.06122678,11.11961938,,,,,volleyball,,,
,45.89236832,11.151708379999999,,,,,volleyball,,,
,45.89239844000001,11.15153818,,,,,basketball,,,
,46.00278216,11.31030112,,,,,free_flying,,,grass
,46.337405739999994,11.033103239999999,,,,,tamburello,,,
,46.343149100000005,11.028685942857141,,,,,volleyball,,,artificial_turf
,46.294954059999995,11.07283358,,,,,tennis,False,,artificial_turf
,46.29579662,11.07315514,,,,,soccer,,,
,46.39941652,11.15151974,,,,,equestrian,,,
,46.24614902,11.34635432,,,,,soccer,,,
,45.905782419999994,10.97936174,,,,,equestrian,,,
,45.91952636,10.906133780000001,,,,,tennis,,,
,46.29807546,11.406199699999998,,,,,tennis,,,
,46.309110620000006,11.59636266,,,,,soccer,,,
,46.31155864,11.59871508,,,,,basketball,,,
,46.13997307999999,11.256430039999998,,,,,beachvolleyball,,,
Paintball Park Trento,46.07757007692308,11.009146615384616,,,,https://www.paintballtrento.it/,paintball,,,grass
,46.10300076,11.2093458,,,,,soccer,,,
,46.0711162,11.23429474,,,,,basketball,,,
,45.893425179999994,11.042645060000002,,,,,soccer,,,
,46.05703192,11.62857104,,,,,soccer,,,
Pizzocol,45.92632734,10.71728302,,,,,climbing,,,
Al Coel,45.925027,10.72001404,,,,,climbing,,,
Finale Ampola,45.86247845714286,10.644919171428572,,,,,climbing,,,
Futur Ampola,45.858587920000005,10.63662664,,,,,climbing,,,
Corna dal Vescof,45.8382586,10.56931952,,,,,climbing,,,
Massi di Gaggiolo,45.99168162000001,10.92565192,,,,,climbing,,,
Torre di Pietramurata,46.022348987499996,10.936373849999999,,,,,climbing,,,
,45.905481859999995,11.041676220000001,,,,,basketball,,,
,45.85486983333333,10.968893816666665,,,,,tennis,,,
,46.01127802,11.28724218,,,,,soccer,,,
,46.150883699999994,11.096519840000001,,,,,basketball,,,
,46.15099814,11.09791212,,,,,soccer,,,
,46.15108658,11.097749,,,,,basketball,,,
,46.093353879999995,11.05679192,,,,,tennis,False,,ground
,46.09564412,11.04623432,,,,,beachvolleyball,,,sand
,45.94139336,11.27026178,,,,,soccer,,,
,46.09693628,11.0463962,,,,,tennis,,,
,46.07918017272727,11.120293845454546,,,,,athletics,,,
,46.412869799999996,11.174425,,,,,volleyball,False,,grass
,46.4114062125,11.18599545,,,,,equestrian,,,
,46.08002754,11.11381188,,,,,volleyball,,,artificial_turf
,45.81111982,10.541912779999999,,,,,soccer,,,
Montagnoli Adventure Park,46.23197522,10.839310740000002,Jun-Sep Mo-Su 10:00-17:30,+393479556627,,,climbing_adventure,,,
,46.308520599999994,10.76060506,,,,,basketball,True,,concrete
,46.30878594,10.76055848,,,,,soccer,True,,artificial_turf
,46.08503192,11.15877196,,,,,soccer,,,
,46.34303456666667,11.028688583333333,,,,,beachvolleyball,,,sand
,46.34303963333334,11.02885563333333,,,,,beachvolleyball,,,sand
,45.88183002000001,10.849682800000002,,,,,volleyball,True,,sand
,46.04161849999999,11.13416062,,,,,boules,,,
,45.84444194,11.011308060000001,,,,,basketball,,,
,45.89424198,10.836889919999999,,,,,tennis,,,
,46.1334877,11.25722506,,,,,boules,,,
Compagnia Arcieri Tridentini Aquila Nera,46.084398125,11.0534812,,,,http://arcieritridentini.it/,archery,,,
,45.80134566,10.5349716,,,,,beachvolleyball,,,sand
Padel Trento Arena,46.07607505,11.1044973,,,,,padel,,,
,46.0142819,11.31869744,,,,,soccer,,,
,46.081852500000004,11.10177624,,,,,table_tennis,,,
,46.158869100000004,11.160248460000002,,,,,boules,,True,
,46.19747219999999,11.13160486,,,,,tennis,,,tartan
,46.197082779999995,11.13250662,,,,,baseball,,,tartan
Atterraggio Cermis,46.28472092,11.476085439999999,,,,,free_flying,,,ground
Atterraggio Masi,46.28333088,11.48962212,,,,,free_flying,,,ground
Decollo Paion,46.24291168,11.50312642,,,,,free_flying,,,ground
,46.034646880000004,11.1082077,,,,,tennis,,,
,45.83766435,10.953888475,,,,,soccer,,,
,45.818406100000004,10.95688374,,,,,boules,,,
,46.066206228571424,11.101661585714284,,,,,tennis,,,
,46.02010352,10.8558287,,,,,soccer,,,dirt
,45.865739725,10.745160825,,,,,tennis,False,,grass
,45.870205999999996,10.74219771,,,,,tennis,,,
,45.87732934,10.76772082,,,,,tennis,,,
,45.87736688,10.76746176,,,,,tennis,,,
,45.878255180000004,10.764311419999999,,,,,soccer,,,
,45.878081120000004,10.764203420000001,,,,,beachvolleyball,,,sand
,45.901994457142855,10.7246621,,,,,soccer,,,grass
,45.78043365999999,10.938902700000002,,,,,soccer,False,,grass
,45.78887324,10.91928546,,,,,tennis,,,
,45.786898279999996,10.92039518,,,,,tennis,,,
,45.7869271,10.91952964,,,,,tennis,,,
,45.78697118000001,10.91928682,,,,,tennis,,,
,45.787105679999996,10.918833760000002,,,,,basketball,,,
,45.78743598,10.919052160000001,,,,,tennis,,,
,45.78747816,10.91884292,,,,,tennis,,,
,45.894759754545454,10.888193063636363,,,,,equestrian,,,
,45.894726185714276,10.890543821428574,,,,,equestrian,,,ground
,45.90101345,10.890099083333334,,,,,equestrian,,,
,45.89813684285714,10.893869171428573,,,,,equestrian,,,
,45.898814925,10.892038059999999,,,,,equestrian,,,
,45.898694757142856,10.892308428571427,,,,,equestrian,,,
,45.898451877777774,10.891828666666667,,,,,equestrian,,,
,45.91786852,11.191136559999999,,,,,padel,True,,artificial_turf
,45.914077742857145,10.903840871428573,,,,,soccer,,,
,45.913873675000005,10.9037842875,,,,,basketball,,,
,46.05006092,11.467687479999999,,,,,beachvolleyball,True,,sand
,46.049772250000004,11.469229415,,,,,athletics,,,
,46.05083628,11.470287639999999,,,,,athletics,,,
,46.0509987,11.46967214,,,,,athletics,,,
,46.049883799999996,11.46896568,,,,,athletics,,,
,46.04997336,11.46874586,,,,,athletics,,,concrete
Skate Park,45.85379399999999,10.983732783333332,,,,,skateboard,,,
,45.854194879999994,10.98735466,,,,,soccer,,,
Landingplace Barco 2 - Atterraggio Volo Libero Trentino,46.01187680909091,11.342800581818182,,,,,free_flying,,,ground
,46.248169940000004,11.024544200000001,,,,,soccer,,,
,46.34779256666666,11.096495366666666,,,,,equestrian,,,
,46.35373542,11.091502799999999,,,,,tennis,,,
,46.35370306,11.09127092,,,,,tennis,,,
,45.88826916,10.95822242,,,,,tennis,,,
,45.88813638333334,10.956887983333333,,,,,boules,,,
,45.890021157142854,10.947312071428573,,,,,soccer,,,
,46.149795860000005,11.277350080000001,,,,,soccer,,,
,45.90197601111111,11.042203777777779,,,,,basketball;soccer,,,paved
,46.462085540000004,11.71810742,,,,,equestrian,,,
,46.46074726,11.71634334,,,,,soccer,,,grass
,46.439487379999996,11.69690786,,,,,soccer,True,,artificial_turf
,45.9750807,10.9803924,,,,,basketball,,,
,46.477067860000005,11.756520040000002,,,,,soccer,,,
,46.149079433333334,11.797455916666669,,,,,soccer,,,
Decollo Corno Nero,46.33071828,11.46005988,,,,,free_flying,,,ground
Atterraggio Parapendio,46.284917140000005,11.48427324,,,,,free_flying,,,grass
,46.014514950000006,10.812898175,,,,,equestrian,,,
,45.85518664,10.968931979999999,,,,,tennis,,,
,46.405114420000004,11.13813094,,,,,cycling,,,ground
,46.42923988,11.68651888,,,,,basketball,,,asphalt
Moda Sport,45.918222022222224,11.190988955555556,,,,,soccer;tennis;padel,,,
,45.9290794,11.224125420000002,,,,,soccer,False,,grass
,45.83780803333334,10.969870850000001,,,,,soccer,,,
,45.837624579999996,10.97019298,,,,,basketball,,,
Padel Hall,46.002808019999996,11.125147019999998,,,,,padel,,,
,45.83512872,10.55133072,,,,,beachvolleyball,,,
,45.895189,11.031002359999999,,,,,basketball,,,
,46.07593976,11.12356432,,,,,basketball,,,concrete
,45.81576068571429,10.956778228571428,,,,,tennis,,,
,45.81571257142856,10.956509357142854,,,,,tennis,,,
,45.81547505714286,10.956835914285714,,,,,tennis,,,
,46.3512611,11.483161140000002,,,,,shooting,,,
,46.31950258,11.13506216,,,,,soccer,,,
,46.00614214,11.287697999999999,,,,,soccer,,,
,46.086315920000004,11.13259066,,,,,soccer,,,grass
,46.09479468,11.11830178,,,,,soccer,,,
,45.91261164000001,11.10886878,,,,,soccer,,,
,46.071506299999996,11.475724240000002,,,,,soccer,,,
,46.47598322,11.74803854,,,,,skateboard,,,concrete
Atterraggio Col Rodella,46.47598166666666,11.7497483,,,,,free_flying,,,grass
Grilli,45.84771615999999,10.56215558,,,,,soccer,,,
,45.85395745714285,10.986753614285716,,,,,soccer,,,
,45.88536233999999,11.039108620000002,,,,,tennis,,,
,45.88549426,11.03945126,,,,,tennis,,,
Baratieri,45.8973683,11.03952424,,,,,soccer,,,artificial_turf
Baratieri,45.897097439999996,11.04009838,,,,,soccer,True,,grass
Baratieri,45.89692195999999,11.039451360000001,,,,,soccer,,,artificial_turf
Falesia S.Siro,46.0272322,10.9712019,,,,,climbing,,,
Palestra Scherma,46.1048064,11.1152415,,,,,fencing,,,
,46.0176738,11.1050694,,,,,volleyball,,,
Palestra di Roccia Sasias,46.3807386,10.9599299,,,,,climbing,,,
La Gola,46.0595994,10.9612606,,,,,climbing,,,
Falesia La Gola - Pezzent Area,46.0593264,10.9670808,,,,,climbing,,,
AC Fassa,46.4164796,11.6779237,,,,,tennis,,,
X Rafting,46.3149446,10.7960813,,,,,canoe;rafting,,,
Molveno,46.1395851,10.9655861,,,,,free_flying,,,
,46.0483083,11.1239178,,,,,table_tennis,,,
Millegrobbe,45.935989,11.3201384,,,,,skiing,,,
Corna dal Vescov,45.8379889,10.5691253,,,,http://www.caisatstoro.it/index.php/strumenti/palestra-corna-del-vescov,climbing,,,
"Klettergarten ""Limarock""",46.0607624,10.9257211,,,,,climbing,,,
Limarò,46.0474486,10.9461358,,,,,climbing,,,
Busatte Adventure,45.8639336,10.8805582,,,,https://busatteadventure.it/,climbing_adventure,,,
Falesia Belvedere Sector A,45.8805674,10.8869872,,,,,climbing,,,
Falesia Belvedere Sector B,45.8807838,10.8879426,,,,,climbing,,,
Falesia di Traole,45.8679902,10.8972702,,,,,climbing,,,
,46.1103334,11.2468633,,,,,equestrian,,,
Palacurling,46.1762427,11.2118783,,,,,curling,,,
,46.0865961,11.1213111,,,,,table_tennis,,,
House of Boxing,46.0939614,11.1104023,,,,https://www.houseofboxing.it/,boxing,,,
,46.0509921,11.124617,,,,,table_tennis,,,concrete
Falesia di Serrada,45.8865459,11.1574151,,,,,climbing,,,
Campo di Volo VolAvisio,46.2789092,11.4484848,,,,,ultralight_flying,,,
,46.0372584,11.1098485,,,,,table_tennis,,,
,46.0568348,11.1369025,,,,,table_tennis,False,,
,46.0365786,11.1460256,,,,,table_tennis,,,
Palestra di roccia,46.3725992,11.6841828,,,,,climbing,,,
Segrom - Settore Basso,45.8695909,10.8947226,,,,,climbing,,,
,46.0817115,11.0465406,,,,,table_tennis,,,
Campfour Boulder,46.0279392,10.9460088,,,,,climbing,,,
Falesia S.Siro,46.0279922,10.9699262,,,,,climbing,,,
,46.0196809,11.1060902,,,,,table_tennis,,,
Falesia Massone Policromuro,45.9291847,10.9025846,,,,,climbing,,,
,46.0712423,11.1411131,,,,,table_tennis,,,
,46.4193924,11.6738256,,,,,table_tennis,,,
Falesia della Vela - Settore B,46.0917036,11.0917611,,,,,climbing,,,
Palestra di roccia Sanbàpolis,46.046605,11.1332747,Mo-Su 09:00-23:00,,,,climbing,,,
Falesia La Gola - Arcadioland,46.0597275,10.9666468,,,,,climbing,,,
Piccolo Dain - Parete della Centrale,46.047487,10.9459936,,,,,climbing,,,
Centro Nautico Ekon A.S.D.,46.0384803,11.2378149,"Su 10:00-19:00, Mo 14:00-19:00, Tu-Sa 10:00-19:00",,,http://www.centronauticoekon.it,sailing,,,
Palestra Naranc,45.8857125,10.911836,,,,,climbing,,,
ex centrale,45.9259193,10.7187694,,,,,climbing,,,
Massi Di Prabi,45.9274366,10.8902742,,,,,climbing,,,
Block A,45.9282128,10.8904343,,,,,climbing,,,
Block D; Block 2,45.927693,10.8902526,,,,,climbing,,,
Block 1,45.9276434,10.8908963,,,,,climbing,,,
Block 11 - Passi falsi,45.9260277,10.8890455,,,,,climbing,,,
Settore B,45.9282702,10.8891958,,,,,climbing,,,
Segrom - Settore Centrale,45.8689985,10.8956205,,,,,climbing,,,
Babilonia,45.8634544,10.8267378,,,,,climbing,,,
Fiori di Primavera,45.8634693,10.8275009,,,,,climbing,,,
Sesto Senso,45.8633956,10.8269672,,,,http://www.gardaclimbing.it/settore/multipich-regina-del-lago/,climbing,,,
Via Alessandro Avancini,46.0130516,10.9300113,,,,,climbing,,,
Falesia Celva,46.0725459,11.1859247,,,,,climbing,,,
Agriturismo Bontempelli,46.3128651,10.7840547,,,,,equestrian,,,
Falesia della Vela - Settore A,46.0878746,11.0939668,,,,,climbing,,,
Centro Sportivo santa Cristina,45.8925675,11.1520715,,,,,tennis;soccer,,,
Falesia Sass Taià,46.1275823,11.7694191,,,,,climbing,,,
,45.9325911,11.0913643,,,,,table_tennis,False,,paving_stones
Surfcenter Lido Blu,45.8726758,10.8678671,09:00-18:00,,,,water_sports;windsurfing,,,
Palestra di roccia Prombis,45.9395709,11.2500283,,,,,climbing,,,
Falesia Abissi,45.9300762,10.9038213,,,,,climbing,,,
Muro dell'Asino,45.9300438,10.887371,,,,https://maps.gardatrentino.it/de/tour/alpinklettern/muro-dell-asino-klettergarten--45-routen-von-4a-bis-6b-/7922669/,climbing,,,
Dinosauri,45.9771843,10.9148779,,,,,climbing,,,
Centro attività motorie,46.0561212,11.5126138,,,,,gymnastics,,,
Falesia Coltura,46.0593346,10.8086575,,,,,climbing,,,
GO FAST,45.8989654,10.8446108,,,,,skateboard,True,,concrete
,46.0663774,11.1508975,,,,,table_tennis,False,,
,46.0716477,11.162206,,,,,table_tennis,,,
Massi delle Traole - Settore A-G,45.8691666,10.8944809,,,,,climbing,,,
,45.9024479,10.977485,,,,,free_flying,,,
,46.050983,11.1845213,,,,,boules,,,
Il Mercurio serpeggiante,45.9743717,10.9151155,,,,,climbing,,,
Te lo do io il colorado,45.9750875,10.9150189,,,,,climbing,,,
Lo Spigolo Nascosto,46.0680644,10.9784684,,,,,climbing,,,
Lo Spigolo Nascosto,46.0678273,10.9791829,,,,,climbing,,,
"Falesia ""Val Granda""",45.9477641,11.0783869,,,,,climbing,,,rock
,46.0071299,11.1293461,,,,,table_tennis,,,
,46.0070651,11.1293253,,,,,table_tennis,,,
Infinity Boulder,45.9984762,11.124874,"Tu 07:30-23:00; We 09:00-23:00; Th 07:30-23:00; Fr 09:00-23:00; Sa, Su 10:00-20:00",+39 345 7767114,infinityboulder@gmail.com,http://infinityboulder.it/,climbing,,,
Falesia Cola Grant,45.9381165,11.115278,,,,,climbing,,,
Palestra Arrampicata di Comano,46.0377099,10.9025332,,,,,climbing,,,
Tavolo da ping pong - Ciasa Lino Defranceco,46.3830899,11.666845,,,,,table_tennis,,,
Gaia,45.9269117,10.888745,,,,,climbing,,,
Aspettando Martino,45.9266038,10.888643,,,,,climbing,,,
Via Trento,45.9952874,10.9170014,,,,,climbing,,,
,46.0950715,11.1177778,,,,,table_tennis,,,
,46.0457061,10.9848612,,,,,volleyball,,,grass
,45.8915717,11.1547427,,,,,chess,,,
Campo Di Tiro - Gruppo Tiratori Valli Del Noce,46.3543479,11.0729635,,,,,shooting,,,
,46.0671763,11.1500335,,,,,table_tennis,,,
,46.0579693,10.8549014,,,,,climbing,,,
,46.1358475,11.1143116,,,,,table_tennis,,,
,46.1222516,11.116149,,,,,table_tennis,,,
,46.1153449,11.1154418,,,,,table_tennis,,,
Palazzetto dello sport Sanbàpolis,46.0467643,11.1329562,,,,,volleyball;basketball;soccer,,,
,46.0676275,11.1502072,,,,,climbing,,,
,46.078517,11.0014733,,,,,basketball,,,
"Solaris, 6c",45.9970968,10.9184359,,,,,climbing,,,
"Nozze d'Argento, Zebratta central sector",46.001132,10.9209243,,,,,climbing,,,
Bolted walls,46.0641791,10.9257319,,,,,climbing,,,
Noleggio Sci Peio dai Maestri,46.3561707,10.6627901,,+39 0463 753040,info@noleggioscipeio.com,https://www.noleggioscipeio.com/,skiing,,,
Massi delle Traole Settore H - Star Wars,45.8669025,10.8945739,,,,,climbing,,,
"Il Bersaglio, Ranzo",46.0624838,10.9315847,,,,,climbing,,,
,46.0385653,11.2379882,,,,,table_tennis,,,
,45.9825405,10.6667727,,,,,boules,,,
,46.0885481,11.0688007,,,,,beachvolleyball,,,
,46.0272699,11.1651899,,,,,table_tennis,,,
,46.0549119,11.1242862,,,,,table_tennis,,,concrete
,46.0569316,11.121682,,,,,table_tennis,,,concrete
,46.0019869,11.2256158,,,,,table_tennis,,,
Climbing Ronzo,45.8957191,10.9549772,,,,,climbing,,,
,45.8718163,10.8769819,,,,,table_tennis,,,
Pizzocol,45.9261199,10.7174461,,,,,climbing,,,
Falesia Family San Martino,45.9274647,10.8999233,,,,,climbing,,,
Bella e cattiva,45.8631272,10.8293656,,,,,climbing,,,
,45.9691768,10.9204709,,,,,table_tennis,,,
,45.9691378,10.9205406,,,,,table_tennis,,,
Via 46 Parallelo,45.9954401,10.9171006,,,,,climbing,,,
Giusy,45.9951634,10.916763,,,,,climbing,,,
Via Anche le donne vogliono arrampicare,45.9539276,10.8926493,,,,,climbing,,,
Via Il luogo degli esseri brutti,45.953967,10.8926846,,,,,climbing,,,
Via Diedro Baldessarini,45.9538734,10.8926212,,,,,climbing,,,
La Luna Argentea,45.9740559,10.91495,,,,,climbing,,,
Falesia Bassilandia,46.0556853,10.9599155,,,,,climbing,,,
,46.1005025,11.1094677,,,,,table_tennis,,,
Falesia Regina del Lago,45.86538,10.820485,,,,,climbing,,,
Palestra Regina del Lago,45.8640793,10.8273829,,,,,climbing,,,
Regina del Lago- settore A,45.865177,10.8271435,,,,,climbing,,,
Regina del Lago- settore B,45.8643147,10.8268814,,,,,climbing,,,
Regina del Lago - settore C,45.8641895,10.8272341,,,,,climbing,,,
Regina del Lago- settore D Piccolo Budda,45.8637718,10.8290249,,,,,climbing,,,
Placche di Baone,45.9250813,10.8694042,,,,,climbing,,,
,46.225957,10.8272764,,,,,skateboard,,,
Italian Ski Academy,46.2429038,10.8394349,,+393772242774,,,ski,,,
Falesia di Nago,45.8705094,10.8932368,,,,,climbing,,,
G.M.D.,46.0683488,10.9785278,,,,,climbing,,,
Giubileo,46.0688081,10.9782071,,,,,climbing,,,
Speranza,45.9913153,10.9035185,,,,,climbing,,,
Le Trincee,45.8680651,10.8998105,,,,,climbing,,,
Falesia Doss di Santa Brigida,46.2908448,10.8765289,,,,,climbing,,,
,46.1073946,11.1121267,,,,,table_tennis,,,
Little John,45.9762895,10.9153574,,,,,climbing,,,
Sceriffo di Nottingham,45.9760444,10.9152711,,,,,climbing,,,
Parete di Sherwood,45.9760755,10.915335,,,,,climbing,,,
Falesia La Panoramica,46.041216,10.9452471,,,,,climbing,,,
Falesia Il Posto Delle Fragole,46.0413239,10.9444229,,,,,climbing,,,
Falesia Zambana Vecchia,46.1378391,11.0738428,,,,,climbing,,,
,45.9411904,11.270256,,,,,boules,,True,
,46.342843,11.0283591,,,,,table_tennis,,,
Lake line Terlago,46.0979378,11.0544215,,,,,wakeboarding,,,
Settore i,45.9279152,10.8892711,,,,,climbing,,,
Settore M,45.9274829,10.8899723,,,,,climbing,,,
Settore N,45.9274777,10.8894657,,,,,climbing,,,
arco climbing,45.9180304,10.8786049,Tu-Th 18:30-22:30; Sa 14:00-19:00; Su 10:00-19:00,,,https://www.arcoclimbing.com/,climbing,,,
,46.046103,10.7510751,,,,,climbing,,,
,46.0767817,10.7253936,,,,,climbing,,,
Bocciodromo,45.888966,10.7285971,,,,,boules,,,
,46.067771,11.1501058,,,,,table_tennis,,,
Terra promessa,45.9409682,10.9175507,,,,,climbing,,,
Grottosauro,45.9449696,10.9136801,,,,,climbing,,,
Ursus Adventures Rafting & Outdoors Centre,46.3101195,10.7409909,,,,,climbing_adventure,,,
LAcquaVIS,46.1388984,11.1108416,,,,,swimming,,,
,45.9723745,10.8888597,,,,,soccer,,,
Falesia Dos Capel,46.3381918,11.5562013,,,,,climbing,,,
Skate Park Madonna di Campiglio,46.2259716,10.8274556,,,,,skateboard,,,
,46.0757658,11.1231811,,,,,table_tennis,,,
,46.1554922,10.7571471,,,,,table_tennis,False,False,
,46.1555559,10.7572215,,,,,table_tennis,False,False,
,46.0801274,11.1136875,,,,,table_tennis,,,
